{"type":"FeatureCollection","features":[{"type":"Feature","id":50,"geometry":{"type":"MultiLineString","coordinates":[[[142.46702,-36.8881],[142.46756,-36.88768],[142.46921,-36.88627],[142.47004,-36.88552],[142.47084,-36.88485],[142.47142,-36.88437],[142.47215,-36.88385],[142.47268,-36.8833],[142.47283,-36.88314],[142.47327,-36.88281],[142.47387,-36.88235],[142.47424,-36.88212],[142.47441,-36.88196]]]},"properties":{"id":"26-27_Grading_Programme.57","Road_name":"Crutes South Rd","From":"Western Hwy","To":"Entry to Residence"}},{"type":"Feature","id":51,"geometry":{"type":"MultiLineString","coordinates":[[[142.52842,-36.9255],[142.52893,-36.92538],[142.52918,-36.92535],[142.5295,-36.92531],[142.52975,-36.92531],[142.53037,-36.92535],[142.53156,-36.92534],[142.53308,-36.92537],[142.53392,-36.9254],[142.53441,-36.9254],[142.53505,-36.92536],[142.53559,-36.92534],[142.5363,-36.92532],[142.53699,-36.92533],[142.53789,-36.92532],[142.53849,-36.92534],[142.53897,-36.92547],[142.53923,-36.92549],[142.53957,-36.92544],[142.53991,-36.92539],[142.54039,-36.92536],[142.54121,-36.92535],[142.5428,-36.92534],[142.54379,-36.92533],[142.54594,-36.9253],[142.54814,-36.92529],[142.54943,-36.92533],[142.55042,-36.92532],[142.55121,-36.92529],[142.55239,-36.92533],[142.55338,-36.92535],[142.55444,-36.92533],[142.55537,-36.9253],[142.55944,-36.92531]]]},"properties":{"id":"26-27_Grading_Programme.103","Road_name":"Rahleys Rd","From":"Western Hwy","To":"Council Boundary"}},{"type":"Feature","id":52,"geometry":{"type":"MultiLineString","coordinates":[[[142.55956,-36.9427],[142.5594,-36.94233],[142.55945,-36.94146],[142.55946,-36.94091],[142.55939,-36.93994],[142.55944,-36.92531],[142.55943,-36.92488],[142.55939,-36.92447],[142.5594,-36.92227],[142.55946,-36.92171],[142.55946,-36.92117],[142.55943,-36.92068],[142.55946,-36.91746],[142.55948,-36.91507]]]},"properties":{"id":"26-27_Grading_Programme.94","Road_name":"St Leonards Companys Bridge Rd","From":"Western Hwy","To":"End"}},{"type":"Feature","id":53,"geometry":{"type":"MultiLineString","coordinates":[[[142.54126,-36.93255],[142.54132,-36.93227],[142.54132,-36.93084],[142.54137,-36.93001],[142.54137,-36.92752],[142.5414,-36.92679],[142.54143,-36.92616],[142.54139,-36.92598],[142.54124,-36.92544],[142.54121,-36.92535],[142.54114,-36.9252],[142.54114,-36.9207],[142.54113,-36.91784],[142.54112,-36.91596],[142.54112,-36.91366],[142.54111,-36.91224],[142.54113,-36.91145],[142.54113,-36.911],[142.5412,-36.91087]]]},"properties":{"id":"26-27_Grading_Programme.84","Road_name":"Delahuntys Rd (Dadswells Bridge)","From":"Western Hwy","To":"End (Entry to Residence)"}},{"type":"Feature","id":54,"geometry":{"type":"MultiLineString","coordinates":[[[142.50953,-36.915],[142.50908,-36.9158],[142.50872,-36.91612],[142.5081,-36.9166]]]},"properties":{"id":"26-27_Grading_Programme.71","Road_name":"Krause Rd (Dads. Br.)","From":"Western Hwy","To":"Entry to Caravan Park"}},{"type":"Feature","id":55,"geometry":{"type":"MultiLineString","coordinates":[[[142.52102,-36.86723],[142.52105,-36.86599],[142.52109,-36.86496],[142.52112,-36.86227],[142.52108,-36.84859],[142.52093,-36.84817],[142.52044,-36.84729],[142.52018,-36.84654],[142.52008,-36.84591],[142.5202,-36.84567],[142.52041,-36.84543],[142.52079,-36.84518],[142.52104,-36.84507]]]},"properties":{"id":"26-27_Grading_Programme.98","Road_name":"Stapledons Rd","From":"Seal Ends","To":"End (Start Bridge 3 - GWM Water Channel)"}},{"type":"Feature","id":56,"geometry":{"type":"MultiLineString","coordinates":[[[142.44962,-36.85577],[142.45001,-36.85577],[142.45028,-36.85576],[142.45052,-36.85572],[142.45069,-36.85571],[142.45092,-36.85574],[142.45131,-36.85575],[142.45205,-36.85569],[142.45224,-36.85569],[142.45255,-36.85575],[142.45281,-36.85578],[142.45308,-36.85576],[142.45344,-36.85571],[142.45364,-36.8557],[142.45389,-36.85574],[142.45421,-36.85574],[142.45471,-36.85571],[142.45501,-36.85571],[142.45554,-36.85576],[142.46029,-36.85578],[142.46132,-36.85576],[142.4623,-36.85577],[142.46264,-36.85577],[142.46301,-36.85572],[142.46324,-36.85573],[142.46354,-36.85578],[142.46427,-36.85571],[142.4645,-36.85571],[142.46477,-36.8557],[142.4651,-36.85574],[142.46539,-36.85575],[142.46621,-36.85575],[142.46646,-36.85571],[142.46665,-36.8557],[142.467,-36.85572],[142.46769,-36.85573],[142.46834,-36.85569],[142.46898,-36.8557],[142.46942,-36.85572]]]},"properties":{"id":"26-27_Grading_Programme.64","Road_name":"Fulbrooks Rd","From":"Golton Rd","To":"Entry to Residence"}},{"type":"Feature","id":57,"geometry":{"type":"MultiLineString","coordinates":[[[142.48069,-36.81183],[142.48066,-36.81368],[142.48063,-36.81648],[142.48064,-36.81952],[142.48063,-36.82048],[142.48062,-36.826],[142.48063,-36.82637],[142.48066,-36.82652],[142.4808,-36.82655],[142.4816,-36.82658],[142.4817,-36.82667],[142.48181,-36.82702],[142.48193,-36.82753],[142.48238,-36.82929],[142.48271,-36.83057],[142.4828,-36.83107],[142.48291,-36.83244],[142.48299,-36.83311],[142.48324,-36.8355],[142.48334,-36.8366],[142.4834,-36.8374],[142.48348,-36.83801],[142.4845,-36.83969],[142.48481,-36.84026],[142.48525,-36.84101],[142.48537,-36.84123],[142.48543,-36.84128],[142.48554,-36.84128],[142.48575,-36.84125],[142.48824,-36.84123],[142.48964,-36.84123]]]},"properties":{"id":"26-27_Grading_Programme.73","Road_name":"Crutes North Rd","From":"Horsham Wal Wal Rd","To":"Entry to Residence"}},{"type":"Feature","id":58,"geometry":{"type":"MultiLineString","coordinates":[[[142.46478,-36.74654],[142.46523,-36.74678],[142.46579,-36.74717],[142.46604,-36.74735],[142.46631,-36.74764],[142.46696,-36.74844],[142.4672,-36.74885],[142.46759,-36.75015],[142.468,-36.75173],[142.46817,-36.75246],[142.46818,-36.75263],[142.46817,-36.75278],[142.46807,-36.75292],[142.46767,-36.7532],[142.46625,-36.75413],[142.46598,-36.75433],[142.46556,-36.75467],[142.46534,-36.75495],[142.46515,-36.75525],[142.46491,-36.75565],[142.46478,-36.75597],[142.46471,-36.75621],[142.46463,-36.75651],[142.46461,-36.75691],[142.46464,-36.75749],[142.46487,-36.7581],[142.46499,-36.75845],[142.46526,-36.759],[142.46533,-36.75914],[142.46558,-36.75961],[142.4657,-36.75979],[142.46588,-36.75999],[142.46602,-36.76017],[142.46607,-36.76036],[142.46611,-36.76147],[142.46615,-36.76219],[142.46623,-36.76269],[142.46636,-36.76321],[142.46647,-36.76349],[142.46646,-36.76369],[142.46639,-36.76383]]]},"properties":{"id":"26-27_Grading_Programme.74","Road_name":"Joys Rd","From":"Seal Ends","To":"End (Entry to Residence)"}},{"type":"Feature","id":59,"geometry":{"type":"MultiLineString","coordinates":[[[142.44962,-36.79688],[142.44983,-36.7969],[142.45282,-36.79693],[142.45317,-36.79689],[142.45437,-36.79691],[142.45568,-36.7969],[142.4653,-36.79689]]]},"properties":{"id":"26-27_Grading_Programme.90","Road_name":"Whyatts Rd","From":"Golton Rd","To":"End (Entry to Residence)"}},{"type":"Feature","id":60,"geometry":{"type":"MultiLineString","coordinates":[[[142.43133,-36.78224],[142.4315,-36.78222],[142.44961,-36.78222]],[[142.41307,-36.78268],[142.43075,-36.78268],[142.43116,-36.78266],[142.43131,-36.78256]]]},"properties":{"id":"26-27_Grading_Programme.95","Road_name":"St Helens School Rd","From":"St Helens Rd","To":"Golton Rd"}},{"type":"Feature","id":61,"geometry":{"type":"MultiLineString","coordinates":[[[142.39591,-36.76798],[142.40423,-36.76796],[142.41307,-36.76799],[142.42035,-36.76799]]]},"properties":{"id":"26-27_Grading_Programme.93","Road_name":"Taylors Lake East Rd","From":"Seal Ends","To":"Pave Change (Entry to Residence 217)"}},{"type":"Feature","id":62,"geometry":{"type":"MultiLineString","coordinates":[[[142.41307,-36.81204],[142.41308,-36.79748],[142.41307,-36.78268]]]},"properties":{"id":"26-27_Grading_Programme.96","Road_name":"St Helens Rd","From":"Horsham Wal Wal Rd","To":"St Helens School Rd"}},{"type":"Feature","id":63,"geometry":{"type":"MultiLineString","coordinates":[[[142.37655,-36.74748],[142.37655,-36.74656],[142.37654,-36.7446],[142.37655,-36.7414],[142.37654,-36.74049],[142.37658,-36.73858],[142.37655,-36.73845],[142.37656,-36.73815],[142.37656,-36.72371],[142.37654,-36.72082]]]},"properties":{"id":"26-27_Grading_Programme.91","Road_name":"Taylors Lake North Rd","From":"Pave Starts (Entry to Residence 212)","To":"Entry to Residence"}},{"type":"Feature","id":64,"geometry":{"type":"MultiLineString","coordinates":[[[142.32189,-36.73854],[142.34011,-36.73856],[142.37658,-36.73858],[142.39181,-36.73863],[142.41057,-36.73863],[142.41307,-36.73861],[142.43069,-36.73863],[142.43105,-36.7386],[142.43118,-36.73861],[142.43125,-36.73865],[142.43132,-36.73873],[142.43135,-36.73884],[142.43132,-36.73912],[142.43131,-36.74369],[142.43132,-36.74531],[142.43147,-36.74556],[142.43131,-36.74615],[142.43129,-36.747],[142.43132,-36.74738]]]},"properties":{"id":"26-27_Grading_Programme.80","Road_name":"Domaschenz Rd","From":"Horsham-Lubeck Rd (East)","To":"Horsham-Lubeck Rd (West)"}},{"type":"Feature","id":65,"geometry":{"type":"MultiLineString","coordinates":[[[142.41307,-36.76799],[142.41308,-36.76431],[142.41308,-36.76294],[142.41308,-36.7572],[142.41308,-36.7566],[142.41309,-36.75559],[142.41308,-36.7533],[142.41308,-36.75297],[142.41308,-36.75109],[142.41307,-36.74818],[142.41308,-36.74126],[142.41307,-36.73861]]]},"properties":{"id":"26-27_Grading_Programme.97","Road_name":"St Helens Rd","From":"Taylors East Rd","To":"Domaschenz Rd"}},{"type":"Feature","id":66,"geometry":{"type":"MultiLineString","coordinates":[[[142.34011,-36.72387],[142.34032,-36.72389],[142.35781,-36.7239],[142.36276,-36.72388],[142.36661,-36.72389],[142.3673,-36.72385],[142.36801,-36.72375],[142.36865,-36.72368],[142.37423,-36.7237],[142.37656,-36.72371]]]},"properties":{"id":"26-27_Grading_Programme.56","Road_name":"Mc Intyres Rd","From":"Taylors Lake North Rd","To":"Pine Lake Rd"}},{"type":"Feature","id":67,"geometry":{"type":"MultiLineString","coordinates":[[[142.36729,-36.68659],[142.36724,-36.69473]]]},"properties":{"id":"26-27_Grading_Programme.68","Road_name":"Mills Rd","From":"Longerenong Rd","To":"Pave Ends (Entry to Res. 89)"}},{"type":"Feature","id":68,"geometry":{"type":"MultiLineString","coordinates":[[[142.37654,-36.68664],[142.37652,-36.69811]]]},"properties":{"id":"26-27_Grading_Programme.67","Road_name":"Doug Tuckers Rd","From":"Longerenong Rd","To":"End (Entry to Residence)"}},{"type":"Feature","id":69,"geometry":{"type":"MultiLineString","coordinates":[[[142.34907,-36.68641],[142.34907,-36.6818]]]},"properties":{"id":"26-27_Grading_Programme.59","Road_name":"Delahuntys Rd (Longerenong)","From":"Longerenong Rd","To":"Pave Change (Entry to Residence)"}},{"type":"Feature","id":70,"geometry":{"type":"MultiLineString","coordinates":[[[142.32129,-36.63248],[142.32128,-36.63065]]]},"properties":{"id":"26-27_Grading_Programme.70","Road_name":"Tuckers Rd (Longerenong)","From":"Wimmera Hwy","To":"Pave Change"}},{"type":"Feature","id":71,"geometry":{"type":"MultiLineString","coordinates":[[[142.27794,-36.6329],[142.27795,-36.63696],[142.27802,-36.64507],[142.27802,-36.64523],[142.27803,-36.64555],[142.27801,-36.64685],[142.27814,-36.64704],[142.27827,-36.64706],[142.28194,-36.64536],[142.28216,-36.64532],[142.28527,-36.6453]]]},"properties":{"id":"26-27_Grading_Programme.88","Road_name":"Molyneaux Rd","From":"Wimmera Hwy","To":"Residence (258) Molyneaux Gates"}},{"type":"Feature","id":72,"geometry":{"type":"MultiLineString","coordinates":[[[142.14466,-36.53638],[142.14387,-36.53588]]]},"properties":{"id":"26-27_Grading_Programme.0","Road_name":"Wail-Dooen Rd","From":"Entry to Residence (1549)","To":"Hennessys Rd"}},{"type":"Feature","id":73,"geometry":{"type":"MultiLineString","coordinates":[[[142.19824,-36.62443],[142.20361,-36.6244],[142.20461,-36.62441],[142.20475,-36.62439]]]},"properties":{"id":"26-27_Grading_Programme.4","Road_name":"Jenkinsons Rd","From":"Pave Change","To":"Blue Ribbon Rd"}},{"type":"Feature","id":74,"geometry":{"type":"MultiLineString","coordinates":[[[142.20482,-36.63876],[142.18666,-36.63884]]]},"properties":{"id":"26-27_Grading_Programme.3","Road_name":"Hobbs Rd","From":"Blue Ribbon Rd","To":"Flacks Rd"}},{"type":"Feature","id":75,"geometry":{"type":"MultiLineString","coordinates":[[[142.18677,-36.65332],[142.18677,-36.65128],[142.18675,-36.64843],[142.18666,-36.63884],[142.18662,-36.63294],[142.18664,-36.63214]]]},"properties":{"id":"26-27_Grading_Programme.37","Road_name":"Flacks Rd","From":"Francis Rd","To":"Channel Crossing"}},{"type":"Feature","id":76,"geometry":{"type":"MultiLineString","coordinates":[[[142.1686,-36.66759],[142.16851,-36.65599],[142.16846,-36.6506],[142.16843,-36.63889],[142.16836,-36.62451],[142.16836,-36.60973],[142.16837,-36.60835]]]},"properties":{"id":"26-27_Grading_Programme.38","Road_name":"Geodetic Rd","From":"Seal Ends","To":"Seal Starts"}},{"type":"Feature","id":77,"geometry":{"type":"MultiLineString","coordinates":[[[142.15691,-36.60977],[142.16836,-36.60973]]]},"properties":{"id":"26-27_Grading_Programme.5","Road_name":"O Connors Rd (Pimpinio)","From":"Pave Starts (Entry to Residence 285)","To":"Geodetic Rd"}},{"type":"Feature","id":78,"geometry":{"type":"MultiLineString","coordinates":[[[142.13255,-36.62459],[142.13249,-36.62426],[142.1324,-36.62358],[142.13236,-36.61785]]]},"properties":{"id":"26-27_Grading_Programme.6","Road_name":"Nine Mile Hotel Rd","From":"Jenkinsons Rd","To":"Pave Change (Entry to Residence)"}},{"type":"Feature","id":79,"geometry":{"type":"MultiLineString","coordinates":[[[142.13214,-36.62465],[142.13241,-36.62459],[142.13255,-36.62459],[142.13276,-36.62461],[142.1528,-36.62454],[142.15557,-36.62453]]]},"properties":{"id":"26-27_Grading_Programme.45","Road_name":"Jenkinsons Rd","From":"Western Hwy","To":"Pave Change"}},{"type":"Feature","id":80,"geometry":{"type":"MultiLineString","coordinates":[[[142.15641,-36.67161],[142.15765,-36.67401],[142.15764,-36.67408],[142.15758,-36.67416],[142.15748,-36.67421],[142.15733,-36.67426]],[[142.15912,-36.67164],[142.1566,-36.67165],[142.15648,-36.67173]]]},"properties":{"id":"26-27_Grading_Programme.46","Road_name":"Moores Rd","From":"Seal Ends","To":"Western Hwy"}},{"type":"Feature","id":81,"geometry":{"type":"MultiLineString","coordinates":[[[142.18703,-36.69702],[142.18699,-36.68886],[142.18694,-36.68244]]]},"properties":{"id":"26-27_Grading_Programme.39","Road_name":"Flacks Rd","From":"Rileys Rd","To":"Gatehouse Rd"}},{"type":"Feature","id":82,"geometry":{"type":"MultiLineString","coordinates":[[[142.20488,-36.66783],[142.19275,-36.66789],[142.18686,-36.6679],[142.16873,-36.66796],[142.16859,-36.66797]]]},"properties":{"id":"26-27_Grading_Programme.40","Road_name":"Harris Rd","From":"Blue Ribbon Rd","To":"Geodetic Rd"}},{"type":"Feature","id":83,"geometry":{"type":"MultiLineString","coordinates":[[[142.20482,-36.6533],[142.18892,-36.65337],[142.187,-36.65337],[142.18677,-36.65332]]]},"properties":{"id":"26-27_Grading_Programme.2","Road_name":"Francis Rd","From":"Blue Ribbon Rd","To":"Flacks Rd"}},{"type":"Feature","id":84,"geometry":{"type":"MultiLineString","coordinates":[[[142.33082,-36.68649],[142.33083,-36.68622],[142.33086,-36.67161],[142.33087,-36.66687],[142.33095,-36.66644],[142.33107,-36.66604],[142.33119,-36.66573],[142.3314,-36.66526],[142.33167,-36.66484],[142.33192,-36.66451],[142.3322,-36.6642],[142.33275,-36.6637],[142.33369,-36.66295],[142.33505,-36.66189],[142.33569,-36.66139],[142.33587,-36.66126],[142.33684,-36.66051],[142.3371,-36.66026],[142.33725,-36.66006],[142.33742,-36.65971],[142.33772,-36.65874],[142.33825,-36.65708],[142.33994,-36.65193],[142.34004,-36.65161],[142.34007,-36.65136],[142.3401,-36.65061],[142.34004,-36.65042],[142.33967,-36.64975],[142.33908,-36.64878],[142.33873,-36.64819],[142.33834,-36.6477],[142.33818,-36.64748],[142.33769,-36.64681],[142.33751,-36.64652],[142.33737,-36.64612],[142.33736,-36.64275],[142.33737,-36.63988],[142.33738,-36.63253]]]},"properties":{"id":"26-27_Grading_Programme.81","Road_name":"Drung-Jung Rd","From":"Longerenong Rd","To":"Wimmera Hwy"}},{"type":"Feature","id":85,"geometry":{"type":"MultiLineString","coordinates":[[[142.33007,-36.68646],[142.32701,-36.68651],[142.32641,-36.68652],[142.32626,-36.6865]]]},"properties":{"id":"26-27_Grading_Programme.69","Road_name":"Tralee Ln","From":"Seal Ends","To":"Pave Change"}},{"type":"Feature","id":86,"geometry":{"type":"MultiLineString","coordinates":[[[142.30336,-36.68159],[142.30539,-36.68244],[142.30659,-36.68301],[142.30726,-36.6833],[142.30737,-36.68334],[142.3075,-36.68327],[142.30753,-36.68321]]]},"properties":{"id":"26-27_Grading_Programme.76","Road_name":"Field Days Rd","From":"Seal Ends","To":"Fence"}},{"type":"Feature","id":87,"geometry":{"type":"MultiLineString","coordinates":[[[142.29788,-36.68022],[142.29786,-36.68048],[142.29814,-36.70605]]]},"properties":{"id":"26-27_Grading_Programme.60","Road_name":"Magees Rd","From":"Longerenong Rd","To":"End (Entry to Residence)"}},{"type":"Feature","id":88,"geometry":{"type":"MultiLineString","coordinates":[[[142.33406,-36.72127],[142.33416,-36.72123],[142.33463,-36.72145],[142.33614,-36.72226],[142.33646,-36.72241],[142.33695,-36.72248],[142.33753,-36.72234],[142.33841,-36.72202],[142.33872,-36.72197],[142.33925,-36.72208],[142.33953,-36.72218],[142.3398,-36.72232],[142.34005,-36.72252],[142.34013,-36.72274],[142.34011,-36.72387]]]},"properties":{"id":"26-27_Grading_Programme.55","Road_name":"Gross Rd","From":"Seal Ends","To":"Mc Intyre Rd"}},{"type":"Feature","id":89,"geometry":{"type":"MultiLineString","coordinates":[[[142.30367,-36.72384],[142.30366,-36.72149],[142.30365,-36.71961],[142.30369,-36.71706],[142.30373,-36.71666]]]},"properties":{"id":"26-27_Grading_Programme.54","Road_name":"East Rd","From":"Horsham-Lubeck Rd","To":"Entry to Residence"}},{"type":"Feature","id":90,"geometry":{"type":"MultiLineString","coordinates":[[[142.269,-36.70911],[142.26724,-36.70909]]]},"properties":{"id":"26-27_Grading_Programme.52","Road_name":"Browns Rd (Riverside)","From":"Pave Change","To":"Rokeskys Rd"}},{"type":"Feature","id":91,"geometry":{"type":"MultiLineString","coordinates":[[[142.26724,-36.70909],[142.26727,-36.69577]]]},"properties":{"id":"26-27_Grading_Programme.51","Road_name":"Rokeskys Rd","From":"Browns Rd","To":"Seal Starts"}},{"type":"Feature","id":92,"geometry":{"type":"MultiLineString","coordinates":[[[142.23699,-36.69745],[142.23724,-36.69691],[142.23752,-36.6964],[142.23786,-36.69614],[142.23936,-36.69526],[142.24034,-36.69471],[142.24095,-36.6945],[142.24131,-36.69442],[142.2417,-36.69437],[142.24261,-36.69436],[142.24904,-36.69437],[142.24922,-36.69437],[142.26693,-36.69441],[142.26705,-36.69441],[142.26714,-36.69443]]]},"properties":{"id":"26-27_Grading_Programme.86","Road_name":"Heards Rd (Riverside)","From":"Riverside Rd","To":"Rokeskys Rd"}},{"type":"Feature","id":93,"geometry":{"type":"MultiLineString","coordinates":[[[142.25535,-36.70908],[142.249,-36.70907]]]},"properties":{"id":"26-27_Grading_Programme.53","Road_name":"Browns Rd (Riverside)","From":"Pave Change","To":"Riverside East Rd"}},{"type":"Feature","id":94,"geometry":{"type":"MultiLineString","coordinates":[[[142.2671,-36.75763],[142.26711,-36.75313],[142.26716,-36.73871]]]},"properties":{"id":"26-27_Grading_Programme.92","Road_name":"West Rd","From":"Seal Ends","To":"Seal Starts"}},{"type":"Feature","id":95,"geometry":{"type":"MultiLineString","coordinates":[[[142.34008,-36.76451],[142.34007,-36.75329],[142.34011,-36.73856],[142.34013,-36.731]]]},"properties":{"id":"26-27_Grading_Programme.102","Road_name":"Pine Lake Rd","From":"Horsham-Lubeck Rd","To":"GWM Water Pipeline"}},{"type":"Feature","id":96,"geometry":{"type":"MultiLineString","coordinates":[[[142.28535,-36.75317],[142.3036,-36.7532],[142.30652,-36.7532]]]},"properties":{"id":"26-27_Grading_Programme.72","Road_name":"Centre Rd","From":"School Rd","To":"End (Fence)"}},{"type":"Feature","id":97,"geometry":{"type":"MultiLineString","coordinates":[[[142.29963,-36.78539],[142.30063,-36.78398],[142.30126,-36.78314],[142.30154,-36.78278],[142.30162,-36.78268],[142.30174,-36.7826],[142.30188,-36.78256],[142.30202,-36.78254],[142.30355,-36.78257],[142.30852,-36.78257]]]},"properties":{"id":"26-27_Grading_Programme.83","Road_name":"Dock Lake Rd","From":"Seal Ends","To":"Pave Ends (Entry to Residence)"}},{"type":"Feature","id":98,"geometry":{"type":"MultiLineString","coordinates":[[[142.3035,-36.78861],[142.30351,-36.78828],[142.30355,-36.78257],[142.30355,-36.78066],[142.3035,-36.78036],[142.30337,-36.78004],[142.3031,-36.77947],[142.30292,-36.779],[142.30293,-36.7789],[142.30299,-36.77879],[142.30306,-36.77866],[142.30343,-36.7782],[142.30349,-36.77807],[142.30354,-36.77797],[142.30359,-36.77776],[142.3036,-36.77746],[142.30359,-36.77375],[142.30355,-36.77357],[142.30347,-36.77335],[142.30338,-36.7732],[142.3029,-36.77259],[142.30278,-36.7724],[142.30272,-36.77223],[142.30269,-36.77207],[142.30267,-36.77171],[142.30269,-36.77066],[142.30263,-36.76912],[142.30261,-36.76883]]]},"properties":{"id":"26-27_Grading_Programme.77","Road_name":"East Rd","From":"Seal Ends","To":"Seal Starts"}},{"type":"Feature","id":99,"geometry":{"type":"MultiLineString","coordinates":[[[142.32181,-36.76791],[142.30382,-36.76789]]]},"properties":{"id":"26-27_Grading_Programme.58","Road_name":"Blakes Rd (Drung)","From":"Ballyglunin North Rd","To":"Seal Starts"}}]}