{"type":"FeatureCollection","features":[{"type":"Feature","id":150,"geometry":{"type":"MultiLineString","coordinates":[[[141.76452,-36.78253],[141.76472,-36.78119],[141.76515,-36.77834],[141.7658,-36.77496],[141.7662,-36.77274],[141.76622,-36.7725],[141.76621,-36.77228],[141.76614,-36.772],[141.76614,-36.7719]]]},"properties":{"id":"26-27_Grading_Programme.105","Road_name":"Worthys Rd","From":"Seal Ends","To":"Tooan-Mitre Rd (West)"}},{"type":"Feature","id":151,"geometry":{"type":"MultiLineString","coordinates":[[[141.76405,-36.76886],[141.76372,-36.76881],[141.76349,-36.76865],[141.76324,-36.7684],[141.76304,-36.76823],[141.76286,-36.76809],[141.76245,-36.76785],[141.76001,-36.76644]]]},"properties":{"id":"26-27_Grading_Programme.104","Road_name":"Tooan-Duffholme Rd","From":"Tooan Mitre Rd","To":"Pave Change (Entry to Residence 41)"}},{"type":"Feature","id":152,"geometry":{"type":"MultiLineString","coordinates":[[[141.83902,-36.77667],[141.83665,-36.77644],[141.83539,-36.77633],[141.83437,-36.77623],[141.83265,-36.77607],[141.83104,-36.7759],[141.83041,-36.77581],[141.82905,-36.77561],[141.82865,-36.77556],[141.82747,-36.77546],[141.82631,-36.77535],[141.825,-36.77525],[141.82427,-36.77524],[141.82335,-36.77514],[141.82161,-36.77497],[141.82073,-36.77491],[141.81597,-36.77443],[141.81553,-36.77438],[141.81255,-36.77408],[141.8108,-36.77392],[141.80862,-36.77369],[141.80479,-36.77331],[141.80424,-36.77329],[141.80384,-36.7733],[141.80339,-36.77332],[141.80136,-36.77349],[141.79839,-36.77374],[141.79459,-36.77405],[141.79414,-36.77409],[141.79368,-36.77414],[141.79311,-36.77423],[141.79243,-36.77454],[141.79215,-36.77461],[141.79189,-36.77463],[141.7917,-36.77462],[141.79153,-36.7746],[141.79114,-36.7745],[141.791,-36.77449],[141.79083,-36.77447],[141.79066,-36.77448],[141.79026,-36.7745],[141.78914,-36.77464],[141.78753,-36.77477],[141.78723,-36.77482],[141.78705,-36.77486],[141.78678,-36.77497],[141.78652,-36.77517],[141.78495,-36.77654],[141.78477,-36.77658],[141.78459,-36.77659],[141.78056,-36.77621],[141.77483,-36.77568],[141.77239,-36.77545],[141.76973,-36.77521],[141.76919,-36.77518],[141.76906,-36.77521]]]},"properties":{"id":"26-27_Grading_Programme.152","Road_name":"Natimuk Golf Links Rd","From":"Seal Ends (Entry to Golf Club)","To":"Tooan-Mitre Rd"}},{"type":"Feature","id":153,"geometry":{"type":"MultiLineString","coordinates":[[[141.75285,-36.82314],[141.75262,-36.82311],[141.75198,-36.82303],[141.74407,-36.82228],[141.73902,-36.82181],[141.73105,-36.82104],[141.7254,-36.8205],[141.72493,-36.82045],[141.72005,-36.82],[141.71817,-36.81979],[141.71454,-36.81944],[141.71258,-36.81925],[141.7111,-36.81913],[141.70785,-36.8188],[141.70411,-36.81843],[141.70284,-36.81829]]]},"properties":{"id":"26-27_Grading_Programme.125","Road_name":"Dickersons Rd","From":"Wimmera Hwy","To":"Ends at Gate"}},{"type":"Feature","id":154,"geometry":{"type":"MultiLineString","coordinates":[[[141.73075,-36.84362],[141.73093,-36.84371],[141.73139,-36.84373],[141.7322,-36.84385],[141.73315,-36.84394],[141.73453,-36.84408],[141.73568,-36.84419],[141.73649,-36.84429],[141.73802,-36.84444],[141.74058,-36.84472],[141.74224,-36.84495],[141.74242,-36.84497],[141.74298,-36.84504],[141.74331,-36.8451],[141.74465,-36.84522],[141.74652,-36.84533],[141.7479,-36.84555],[141.74868,-36.84559],[141.74955,-36.8457],[141.75177,-36.84591],[141.75458,-36.84615],[141.75532,-36.84625],[141.7571,-36.84645],[141.758,-36.84651],[141.7602,-36.84672],[141.76234,-36.84695],[141.76332,-36.84702],[141.76469,-36.84715],[141.76752,-36.84748],[141.77107,-36.84784],[141.77258,-36.84796],[141.77418,-36.84809],[141.77642,-36.84833],[141.7776,-36.84844],[141.77802,-36.84849],[141.77823,-36.84856]]]},"properties":{"id":"26-27_Grading_Programme.139","Road_name":"Blakes Rd (Tooan)","From":"Wimmera Hwy","To":"Renfreys Ln"}},{"type":"Feature","id":155,"geometry":{"type":"MultiLineString","coordinates":[[[141.83794,-36.88449],[141.8372,-36.88445],[141.83638,-36.88432],[141.83563,-36.88438],[141.83526,-36.88446],[141.83179,-36.8854],[141.83136,-36.88544]]]},"properties":{"id":"26-27_Grading_Programme.111","Road_name":"Emmersons Rd","From":"Seal Ends","To":"Lake Carchap (Entry to Residence)"}},{"type":"Feature","id":156,"geometry":{"type":"MultiLineString","coordinates":[[[141.85545,-36.90827],[141.85524,-36.90826],[141.8534,-36.90808],[141.85171,-36.90791],[141.84706,-36.90743],[141.84541,-36.90733],[141.83712,-36.90649]]]},"properties":{"id":"26-27_Grading_Programme.112","Road_name":"J Emmersons Rd","From":"Clear Lake-Sherwoods Dam Rd","To":"End"}},{"type":"Feature","id":157,"geometry":{"type":"MultiLineString","coordinates":[[[141.86115,-36.93556],[141.86097,-36.93557],[141.8596,-36.93544],[141.85794,-36.93528],[141.85571,-36.93505],[141.85455,-36.93493],[141.84965,-36.93445]]]},"properties":{"id":"26-27_Grading_Programme.147","Road_name":"Elliotts Ln","From":"Harrow-Clear Lake Rd","To":"Pave Change"}},{"type":"Feature","id":158,"geometry":{"type":"MultiLineString","coordinates":[[[141.85967,-36.92532],[141.85939,-36.92531],[141.85829,-36.92521],[141.8565,-36.92502],[141.85167,-36.92454],[141.84846,-36.92421],[141.84601,-36.92396],[141.84173,-36.92352],[141.83803,-36.92315],[141.83405,-36.92272],[141.83182,-36.9225],[141.82821,-36.92212],[141.82521,-36.92182],[141.82436,-36.92176],[141.82383,-36.92171],[141.82316,-36.9216]]]},"properties":{"id":"26-27_Grading_Programme.144","Road_name":"Bow Lake Rd","From":"Clear Lake-Sherwoods Dam Rd","To":"Pave Change"}},{"type":"Feature","id":159,"geometry":{"type":"MultiLineString","coordinates":[[[141.85555,-36.90864],[141.87624,-36.91071]]]},"properties":{"id":"26-27_Grading_Programme.109","Road_name":"Scotts Heards Lights Rd","From":"Clear Lake Sherwoods Dam Rd","To":"Seal Starts"}},{"type":"Feature","id":160,"geometry":{"type":"MultiLineString","coordinates":[[[141.87562,-36.85333],[141.87588,-36.85315],[141.87601,-36.85299],[141.87611,-36.85274],[141.87617,-36.85252],[141.87619,-36.85218],[141.87624,-36.85168],[141.87674,-36.84862],[141.87735,-36.84453],[141.87777,-36.84184],[141.87819,-36.8392],[141.87806,-36.83906]]]},"properties":{"id":"26-27_Grading_Programme.142","Road_name":"L Heards Rd","From":"Lowan School Rd","To":"Rifle Butts Rd West"}},{"type":"Feature","id":161,"geometry":{"type":"MultiLineString","coordinates":[[[141.85192,-36.86576],[141.8518,-36.86579],[141.85159,-36.8658],[141.85132,-36.8658],[141.84823,-36.8655],[141.84717,-36.86539],[141.84551,-36.86519],[141.8389,-36.86454],[141.83641,-36.86429],[141.83207,-36.86387],[141.83076,-36.86374],[141.83032,-36.86369],[141.82968,-36.86359],[141.82744,-36.86338],[141.82661,-36.86331],[141.82613,-36.86327],[141.82564,-36.86324],[141.82506,-36.86313],[141.82475,-36.86313],[141.82412,-36.86301],[141.82294,-36.86291],[141.82251,-36.86297],[141.82228,-36.86294],[141.82192,-36.8629],[141.82148,-36.86289],[141.82097,-36.86277],[141.82065,-36.86276],[141.82046,-36.86277],[141.82025,-36.86274],[141.82012,-36.86263],[141.82036,-36.86114]]]},"properties":{"id":"26-27_Grading_Programme.141","Road_name":"K Emmersons Rd","From":"Clearlake-Sherwoods Dam Rd","To":"Entry to Residence (301)"}},{"type":"Feature","id":162,"geometry":{"type":"MultiLineString","coordinates":[[[141.87562,-36.85333],[141.87544,-36.85338],[141.87521,-36.85339],[141.8733,-36.85319],[141.87018,-36.85288],[141.86155,-36.85202],[141.84883,-36.85076],[141.84843,-36.85074]]]},"properties":{"id":"26-27_Grading_Programme.110","Road_name":"Lowan School Rd","From":"Clear Lake-Sherwoods Dam Rd","To":"L Heards Rd"}},{"type":"Feature","id":163,"geometry":{"type":"MultiLineString","coordinates":[[[141.82833,-36.81921],[141.82858,-36.81941],[141.8289,-36.81973],[141.82928,-36.82016],[141.82993,-36.82101],[141.83088,-36.82228],[141.83207,-36.82361],[141.83318,-36.82493],[141.83355,-36.82537],[141.83412,-36.826],[141.83479,-36.82683],[141.8401,-36.83314],[141.84292,-36.83647],[141.84511,-36.83908],[141.84555,-36.8396],[141.84571,-36.83978],[141.8459,-36.84012],[141.84599,-36.84029],[141.84605,-36.8405],[141.84673,-36.84345],[141.84682,-36.84367],[141.84695,-36.84378],[141.84711,-36.84388]]]},"properties":{"id":"26-27_Grading_Programme.154","Road_name":"Jacka Jacka Rd","From":"Wimmera Hwy","To":"Clear Lake-Shearwood Dam Rd"}},{"type":"Feature","id":164,"geometry":{"type":"MultiLineString","coordinates":[[[141.86227,-36.80808],[141.87554,-36.80941],[141.88189,-36.81005],[141.89099,-36.81094],[141.89241,-36.81106],[141.89307,-36.81113],[141.89495,-36.81132]]]},"properties":{"id":"26-27_Grading_Programme.137","Road_name":"Geberts Rd","From":"Clear Lake-Sherwoods Dam Rd","To":"Fergusons Sandhill Rd"}},{"type":"Feature","id":165,"geometry":{"type":"MultiLineString","coordinates":[[[141.89654,-36.8408],[141.89105,-36.84036],[141.89061,-36.8403],[141.87857,-36.8391],[141.87828,-36.8391],[141.87806,-36.83906],[141.87616,-36.83882]]]},"properties":{"id":"26-27_Grading_Programme.128","Road_name":"Rifle Butts Rd West","From":"Scotts Heards Lights Rd","To":"HH Scotts Rd"}},{"type":"Feature","id":166,"geometry":{"type":"MultiLineString","coordinates":[[[141.87616,-36.83882],[141.87604,-36.83865],[141.8782,-36.82426]]]},"properties":{"id":"26-27_Grading_Programme.108","Road_name":"H H Scotts Rd","From":"Rifle Butts Rd West","To":"Noradjuha-Tooan East Rd"}},{"type":"Feature","id":167,"geometry":{"type":"MultiLineString","coordinates":[[[141.90674,-36.84192],[141.90384,-36.84164],[141.90294,-36.84156],[141.90231,-36.84142]]]},"properties":{"id":"26-27_Grading_Programme.107","Road_name":"Rifle Butts Rd","From":"Pave Change","To":"Scotts Heards Lights Rd"}},{"type":"Feature","id":168,"geometry":{"type":"MultiLineString","coordinates":[[[141.96422,-36.83637],[141.96462,-36.83631],[141.9665,-36.83566],[141.96677,-36.83371]]]},"properties":{"id":"26-27_Grading_Programme.123","Road_name":"Noradjuha Rec. Res. Rd","From":"Natimuk-Hamilton Rd","To":"Recreation Reserve"}},{"type":"Feature","id":169,"geometry":{"type":"MultiLineString","coordinates":[[[141.96911,-36.8361],[141.96957,-36.8369],[141.96979,-36.83733],[141.96983,-36.83803],[141.971,-36.84029]]]},"properties":{"id":"26-27_Grading_Programme.113","Road_name":"Ansons Rd","From":"Horsham-Noradjuha Rd","To":"Farm House"}},{"type":"Feature","id":170,"geometry":{"type":"MultiLineString","coordinates":[[[141.96062,-36.87662],[141.95646,-36.8762],[141.95151,-36.87571],[141.94738,-36.87531],[141.93775,-36.87435],[141.92481,-36.87308],[141.91423,-36.87203],[141.90396,-36.87102],[141.88876,-36.86952]]]},"properties":{"id":"26-27_Grading_Programme.131","Road_name":"Cooks Ln","From":"Natimuk-Hamilton Rd","To":"Scotts Heards Lights Rd"}},{"type":"Feature","id":171,"geometry":{"type":"MultiLineString","coordinates":[[[142.02467,-36.90138],[142.02358,-36.90129],[142.02337,-36.90126],[142.02297,-36.90121],[142.02234,-36.90116],[142.01588,-36.90052],[142.0147,-36.90042],[142.01444,-36.90036],[142.01442,-36.90023],[142.01443,-36.90004],[142.01553,-36.89287],[142.01607,-36.88934],[142.01633,-36.88777],[142.01716,-36.88223],[142.01689,-36.88213],[142.01684,-36.88205],[142.01685,-36.88193],[142.01745,-36.87801],[142.01789,-36.87518],[142.01828,-36.87264],[142.01855,-36.87088],[142.01871,-36.86981],[142.01926,-36.86621],[142.01977,-36.86293],[142.02027,-36.85965],[142.02063,-36.8573],[142.02072,-36.85676],[142.02091,-36.85533],[142.02117,-36.85368],[142.02123,-36.85325]]]},"properties":{"id":"26-27_Grading_Programme.136","Road_name":"Mc Donalds Rd","From":"Nurrabiel Cemetery","To":"Rifle Butts Rd"}},{"type":"Feature","id":172,"geometry":{"type":"MultiLineString","coordinates":[[[142.00141,-36.85129],[142.00193,-36.84799],[142.00206,-36.847],[142.00232,-36.84547],[142.00257,-36.84376],[142.00268,-36.84312],[142.00317,-36.83995],[142.00349,-36.83783],[142.00375,-36.83625],[142.00386,-36.8355],[142.00421,-36.83317],[142.00427,-36.83283],[142.00458,-36.83075],[142.00492,-36.8285],[142.00516,-36.82694],[142.00537,-36.82555],[142.0056,-36.82402],[142.00563,-36.82381],[142.00561,-36.82362]]]},"properties":{"id":"26-27_Grading_Programme.129","Road_name":"Quick Sinclair Russells Rd","From":"Rifle Butts Rd","To":"Horsham-Noradjuha Rd"}},{"type":"Feature","id":173,"geometry":{"type":"MultiLineString","coordinates":[[[141.96859,-36.80762],[141.96981,-36.80773],[141.97408,-36.80816],[141.97509,-36.80827]]]},"properties":{"id":"26-27_Grading_Programme.151","Road_name":"Northfields Rd","From":"Natimuk Hamilton Rd","To":"Pave Ends"}},{"type":"Feature","id":174,"geometry":{"type":"MultiLineString","coordinates":[[[142.11935,-36.80906],[142.11961,-36.80748],[142.11995,-36.80539],[142.11988,-36.80527],[142.1124,-36.80455],[142.11049,-36.80435],[142.10861,-36.80415],[142.10796,-36.80413],[142.10735,-36.80405],[142.10502,-36.8038],[142.10215,-36.80349],[142.1016,-36.80346],[142.10108,-36.80342],[142.10053,-36.80337],[142.09898,-36.80321],[142.09866,-36.80316],[142.09797,-36.80306],[142.0975,-36.80305],[142.09676,-36.80301],[142.09629,-36.80298],[142.09547,-36.80296],[142.09509,-36.80294],[142.09478,-36.8029],[142.09441,-36.80283],[142.09384,-36.80275],[142.09308,-36.80268],[142.09178,-36.80259],[142.09089,-36.80249],[142.08864,-36.80224],[142.08669,-36.80204],[142.08428,-36.80182],[142.08234,-36.80162],[142.0786,-36.80128]]]},"properties":{"id":"26-27_Grading_Programme.135","Road_name":"Plush Hannans Rd","From":"Seal Ends","To":"Lower Norton-Nurrabiel Rd"}},{"type":"Feature","id":175,"geometry":{"type":"MultiLineString","coordinates":[[[142.12142,-36.80984],[142.12096,-36.81267],[142.12066,-36.81484],[142.12023,-36.81748],[142.1202,-36.8179],[142.12007,-36.81878],[142.11997,-36.81918],[142.11984,-36.8201],[142.11983,-36.82043],[142.11978,-36.82081],[142.11968,-36.8213],[142.11953,-36.82189],[142.11923,-36.82379],[142.11919,-36.82418],[142.11917,-36.82475],[142.11912,-36.82514],[142.11892,-36.82616],[142.11875,-36.82725],[142.11868,-36.82781],[142.11856,-36.82833],[142.1185,-36.82872],[142.11846,-36.82919],[142.11871,-36.83009],[142.1191,-36.83113],[142.11916,-36.83146],[142.11885,-36.8339],[142.11871,-36.83465],[142.11861,-36.8351],[142.11847,-36.83605],[142.11834,-36.83633],[142.11833,-36.8367],[142.11824,-36.83727],[142.11814,-36.83763],[142.11805,-36.83818],[142.11805,-36.83847],[142.11797,-36.8387],[142.11794,-36.83889],[142.11788,-36.83947],[142.11792,-36.83969],[142.11805,-36.83981]]]},"properties":{"id":"26-27_Grading_Programme.140","Road_name":"Bothes Rd","From":"Plush Hannans Rd","To":"Tyers Rd"}},{"type":"Feature","id":176,"geometry":{"type":"MultiLineString","coordinates":[[[142.12363,-36.84037],[142.12255,-36.84024],[142.12172,-36.84018],[142.12119,-36.84017],[142.12027,-36.84009],[142.11912,-36.8399],[142.11874,-36.8399],[142.11841,-36.83986],[142.11805,-36.83981]]]},"properties":{"id":"26-27_Grading_Programme.116","Road_name":"Tyers Rd","From":"Bothes Rd South","To":"Bothes Rd"}},{"type":"Feature","id":177,"geometry":{"type":"MultiLineString","coordinates":[[[142.12046,-36.86019],[142.12091,-36.85755],[142.12235,-36.84843],[142.12276,-36.84619],[142.12332,-36.84249],[142.12363,-36.84037]]]},"properties":{"id":"26-27_Grading_Programme.115","Road_name":"Bothes Rd South","From":"Rifle Butts Rd","To":"Tyers Rd"}},{"type":"Feature","id":178,"geometry":{"type":"MultiLineString","coordinates":[[[142.10997,-36.87885],[142.10998,-36.87858],[142.11066,-36.87464],[142.11092,-36.87274],[142.11137,-36.86991],[142.11166,-36.86819],[142.11191,-36.86652],[142.11235,-36.86383],[142.11258,-36.86227]]]},"properties":{"id":"26-27_Grading_Programme.117","Road_name":"Lanes Rd","From":"Wonwondah-Toolondo Rd","To":"Rifle Butts Rd"}},{"type":"Feature","id":179,"geometry":{"type":"MultiLineString","coordinates":[[[142.07404,-36.87684],[142.0752,-36.86929],[142.07566,-36.86617],[142.07647,-36.86082],[142.07682,-36.85855]]]},"properties":{"id":"26-27_Grading_Programme.149","Road_name":"Motts Rd (Nurrabiel)","From":"Pave Starts","To":"Rifle Butts Rd"}},{"type":"Feature","id":180,"geometry":{"type":"MultiLineString","coordinates":[[[142.05871,-36.85694],[142.05841,-36.8569],[142.05787,-36.85685],[142.04962,-36.85605],[142.03575,-36.85469],[142.02123,-36.85325],[142.02072,-36.85322],[142.00717,-36.85186]]]},"properties":{"id":"26-27_Grading_Programme.127","Road_name":"Rifle Butts Rd","From":"Lower Norton-Nurrabiel Rd","To":"Seal Starts"}},{"type":"Feature","id":181,"geometry":{"type":"MultiLineString","coordinates":[[[142.04854,-36.88531],[142.03513,-36.88399],[142.03297,-36.88377],[142.01735,-36.88221],[142.01716,-36.88223]]]},"properties":{"id":"26-27_Grading_Programme.138","Road_name":"Cooks Ln","From":"Lower Norton-Nurrabiel Rd","To":"Mc Donalds Rd"}},{"type":"Feature","id":182,"geometry":{"type":"MultiLineString","coordinates":[[[142.02196,-36.91165],[142.02201,-36.91139],[142.02294,-36.90549],[142.02358,-36.90129],[142.02587,-36.89723],[142.03332,-36.88381]]]},"properties":{"id":"26-27_Grading_Programme.150","Road_name":"Nurrabiel Cemetery Rd","From":"Nurrabiel Church Rd","To":"Cooks Ln"}},{"type":"Feature","id":183,"geometry":{"type":"MultiLineString","coordinates":[[[142.10376,-36.88021],[142.10347,-36.88076],[142.10334,-36.88121],[142.10324,-36.88214],[142.10264,-36.88602]]]},"properties":{"id":"26-27_Grading_Programme.148","Road_name":"Puls Ln","From":"Wonwondah Toolondo Rd","To":"Pave Change"}},{"type":"Feature","id":184,"geometry":{"type":"MultiLineString","coordinates":[[[142.01122,-36.93887],[142.01129,-36.93863],[142.01134,-36.93848],[142.0114,-36.93792],[142.01154,-36.93693],[142.01189,-36.93476],[142.01189,-36.93457],[142.01179,-36.93442],[142.00955,-36.93283],[142.00834,-36.93196]]]},"properties":{"id":"26-27_Grading_Programme.124","Road_name":"Hutchinsons Rd (Nurrabiel)","From":"Jallumba-Mockinya Rd","To":"Entry to Residence (47)"}},{"type":"Feature","id":185,"geometry":{"type":"MultiLineString","coordinates":[[[141.9918,-36.91394],[141.99261,-36.90875],[141.99311,-36.90532]]]},"properties":{"id":"26-27_Grading_Programme.134","Road_name":"Quick Sinclair Russells Rd","From":"Pave Change","To":"Entry to Residence (907)"}},{"type":"Feature","id":186,"geometry":{"type":"MultiLineString","coordinates":[[[141.9403,-36.95674],[141.94301,-36.957],[141.94703,-36.95739],[141.95003,-36.9577],[141.95126,-36.95781],[141.95417,-36.95811],[141.95715,-36.9584],[141.95815,-36.95853],[141.95862,-36.95854],[141.95882,-36.95849],[141.95986,-36.95806],[141.96117,-36.95759],[141.96186,-36.95751],[141.96259,-36.95747],[141.96304,-36.95755],[141.96356,-36.9577],[141.96383,-36.95779],[141.96404,-36.95789],[141.9641,-36.95802],[141.96409,-36.95825],[141.96415,-36.95833],[141.96426,-36.9584],[141.96535,-36.95865],[141.96616,-36.95885],[141.96638,-36.9589],[141.96691,-36.95889],[141.96721,-36.95892],[141.96777,-36.95904],[141.96857,-36.95916],[141.96957,-36.95925],[141.9701,-36.95932],[141.97057,-36.95925]]]},"properties":{"id":"26-27_Grading_Programme.143","Road_name":"Toolondo Gun Club Rd","From":"Natimuk Hamilton Rd","To":"Fence & Gate"}},{"type":"Feature","id":187,"geometry":{"type":"MultiLineString","coordinates":[[[141.9403,-36.95674],[141.93767,-36.95648],[141.93675,-36.95635],[141.93625,-36.95633],[141.93456,-36.95622],[141.93285,-36.95601],[141.93125,-36.95584],[141.9303,-36.95576],[141.92917,-36.95567],[141.92687,-36.95543],[141.91704,-36.95445],[141.91594,-36.95436],[141.91554,-36.95435],[141.91491,-36.95425],[141.91247,-36.95402],[141.91082,-36.95384],[141.90887,-36.95365],[141.90296,-36.95306],[141.90096,-36.95287],[141.90064,-36.9528],[141.90049,-36.95269]]]},"properties":{"id":"26-27_Grading_Programme.132","Road_name":"Carchap Ln","From":"Natimuk-Hamilton Rd","To":"Jallumba-Douglas Rd"}},{"type":"Feature","id":188,"geometry":{"type":"MultiLineString","coordinates":[[[141.93606,-36.99209],[141.93595,-36.99193],[141.93595,-36.99181],[141.93597,-36.99164],[141.93603,-36.99133],[141.93607,-36.99124],[141.93614,-36.9912],[141.93618,-36.99099],[141.93621,-36.99084],[141.9362,-36.99066],[141.93611,-36.99062],[141.93598,-36.99057],[141.93581,-36.99053],[141.9356,-36.99051],[141.93541,-36.99049],[141.93524,-36.99047],[141.93508,-36.99046],[141.93499,-36.99045]]]},"properties":{"id":"26-27_Grading_Programme.146","Road_name":"Mc Kenry Ln","From":"Wonowondah-Toolondo Rd","To":"Natimuk-Hamilton Rd"}},{"type":"Feature","id":189,"geometry":{"type":"MultiLineString","coordinates":[[[141.98537,-37.01705],[141.9891,-37.0174],[141.99063,-37.01755],[141.99237,-37.01772],[141.9931,-37.01779],[141.99349,-37.01786],[141.99417,-37.01787],[141.99446,-37.01792],[141.99526,-37.01802],[141.99581,-37.01807],[141.99652,-37.01809],[141.99696,-37.01813],[141.99766,-37.0182],[141.99821,-37.01829],[141.9991,-37.01838],[141.99956,-37.01839],[142.00029,-37.01846],[142.00096,-37.01856],[142.00143,-37.01864],[142.00181,-37.01866],[142.00228,-37.01869],[142.00285,-37.01878],[142.00333,-37.0188],[142.00377,-37.01884],[142.00418,-37.01889]]]},"properties":{"id":"26-27_Grading_Programme.122","Road_name":"Washtomorrow Rd","From":"Telangatuk East-Rocklands Rd","To":"Northfields Woolshed Rd"}},{"type":"Feature","id":190,"geometry":{"type":"MultiLineString","coordinates":[[[142.01119,-37.00418],[142.01102,-37.00512],[142.01097,-37.00583],[142.01109,-37.00612],[142.01223,-37.00711],[142.01239,-37.00729],[142.01238,-37.0075],[142.01189,-37.00808],[142.01152,-37.00853],[142.01037,-37.00983],[142.01024,-37.01038],[142.00994,-37.01252],[142.00986,-37.01307],[142.00984,-37.01323],[142.00976,-37.01337],[142.0097,-37.01375],[142.00965,-37.0144],[142.00908,-37.01812],[142.00882,-37.01934]]]},"properties":{"id":"26-27_Grading_Programme.121","Road_name":"Holmes Rd","From":"Pave Change","To":"Washtomorrow Rd"}},{"type":"Feature","id":191,"geometry":{"type":"MultiLineString","coordinates":[[[142.00758,-36.99298],[142.0075,-36.9932],[142.00715,-36.99539],[142.00685,-36.99731],[142.00676,-36.99809]]]},"properties":{"id":"26-27_Grading_Programme.120","Road_name":"Holmes Rd","From":"Camerons Rd","To":"Pave Change"}},{"type":"Feature","id":192,"geometry":{"type":"MultiLineString","coordinates":[[[141.98204,-36.98564],[141.98217,-36.98573],[141.98254,-36.98583],[141.98625,-36.98619],[141.9865,-36.98624],[141.98667,-36.98633],[141.9875,-36.98783],[141.98761,-36.98794],[141.98778,-36.98796],[141.98963,-36.98815],[141.98982,-36.9882],[141.98983,-36.98832],[141.9895,-36.99042],[141.98953,-36.99054],[141.98958,-36.9906],[141.99094,-36.99078],[141.99532,-36.9912],[142.00035,-36.99169],[142.00454,-36.99208],[142.00754,-36.99235]]]},"properties":{"id":"26-27_Grading_Programme.145","Road_name":"Camerons Rd (Nurrabiel)","From":"Wonwondah-Toolondo Rd","To":"Seal Starts"}},{"type":"Feature","id":193,"geometry":{"type":"MultiLineString","coordinates":[[[141.98088,-36.98625],[141.98078,-36.98608],[141.98077,-36.98597],[141.98079,-36.98581],[141.9809,-36.98522],[141.98121,-36.98291],[141.98151,-36.98095],[141.98177,-36.97947],[141.98206,-36.97758],[141.98227,-36.97633],[141.98248,-36.97508],[141.98246,-36.97469],[141.98308,-36.97092]]]},"properties":{"id":"26-27_Grading_Programme.114","Road_name":"Quick Sinclair Russells Rd","From":"Wonwondah Toolondo Rd","To":"Mitchells Rd"}},{"type":"Feature","id":194,"geometry":{"type":"MultiLineString","coordinates":[[[141.98308,-36.97092],[141.98264,-36.97087],[141.9818,-36.97091],[141.9811,-36.97083],[141.9804,-36.97072],[141.97915,-36.97071],[141.97813,-36.97065],[141.9774,-36.97057],[141.97625,-36.97055],[141.97456,-36.97058]]]},"properties":{"id":"26-27_Grading_Programme.119","Road_name":"Mitchells Rd","From":"Quicks Sinclairs Russells Rd","To":"Entry to Residence (75)"}},{"type":"Feature","id":195,"geometry":{"type":"MultiLineString","coordinates":[[[142.1233,-36.97405],[142.12323,-36.97451],[142.12305,-36.97541],[142.12273,-36.97768],[142.1226,-36.97883],[142.12253,-36.9789],[142.12231,-36.98052],[142.12212,-36.98157],[142.12158,-36.98523],[142.12145,-36.98626],[142.12111,-36.98835]]]},"properties":{"id":"26-27_Grading_Programme.155","Road_name":"Clarkes Ln (Mockinya)","From":"Bells Rd","To":"Red Rock Rd"}},{"type":"Feature","id":196,"geometry":{"type":"MultiLineString","coordinates":[[[142.1396,-36.99017],[142.13763,-36.98998],[142.13638,-36.98984],[142.13608,-36.98983],[142.13555,-36.98978],[142.1351,-36.98974],[142.13442,-36.98965],[142.13418,-36.98965],[142.134,-36.98968],[142.13356,-36.98981],[142.13339,-36.98982],[142.13238,-36.98952],[142.13215,-36.98948],[142.13193,-36.98943],[142.13166,-36.98942],[142.13069,-36.98955],[142.13043,-36.98957],[142.13016,-36.98957],[142.12989,-36.9895],[142.1297,-36.98942],[142.12922,-36.98923],[142.12899,-36.98916],[142.1287,-36.98907],[142.12763,-36.98898],[142.12111,-36.98835]],[[142.09643,-37.01236],[142.09158,-37.01191],[142.09133,-37.01199],[142.0913,-37.01206],[142.09122,-37.01235]],[[142.10424,-37.01311],[142.1041,-37.01313],[142.10396,-37.01312],[142.10351,-37.01307],[142.10238,-37.01295],[142.10061,-37.01277],[142.09874,-37.01258],[142.09645,-37.01237]],[[142.10711,-37.00127],[142.10704,-37.00187],[142.10697,-37.00237],[142.10702,-37.00258],[142.1072,-37.00275],[142.1075,-37.00293],[142.10762,-37.00304],[142.10824,-37.00364],[142.10872,-37.00419],[142.10881,-37.00441],[142.10888,-37.00462],[142.10891,-37.00505],[142.10868,-37.00555],[142.10851,-37.0058],[142.10783,-37.00702],[142.10757,-37.00745],[142.10657,-37.00921],[142.10552,-37.01108],[142.10463,-37.01266],[142.1045,-37.01291],[142.10437,-37.01307]],[[142.10819,-36.99416],[142.10714,-37.00129]],[[142.10925,-36.98723],[142.1082,-36.99415]],[[142.11959,-36.98821],[142.10924,-36.98718]],[[142.12111,-36.98835],[142.11959,-36.98821]],[[142.09121,-37.01235],[142.09117,-37.01276],[142.0908,-37.01552],[142.09067,-37.01673],[142.09049,-37.01769],[142.09038,-37.01841],[142.09022,-37.01941],[142.09017,-37.01998],[142.08996,-37.02128],[142.08984,-37.02235],[142.08955,-37.02458]]]},"properties":{"id":"26-27_Grading_Programme.174","Road_name":"Red Rock Rd","From":"Downies Ln","To":"Mt Talbot Reserve Rd"}},{"type":"Feature","id":197,"geometry":{"type":"MultiLineString","coordinates":[[[142.15676,-37.02983],[142.15651,-37.02999],[142.15632,-37.03018],[142.15473,-37.03176],[142.15315,-37.0333],[142.15199,-37.03431],[142.15089,-37.03502],[142.15011,-37.03588],[142.1495,-37.03638],[142.14934,-37.03656],[142.14879,-37.03834],[142.14799,-37.04088],[142.14773,-37.04104],[142.14408,-37.04328],[142.14373,-37.0436],[142.13959,-37.04729],[142.13747,-37.04782],[142.13581,-37.04816],[142.13433,-37.0484],[142.13134,-37.04884],[142.13092,-37.04899],[142.12979,-37.04914],[142.12886,-37.04926],[142.12798,-37.04926],[142.12613,-37.04882],[142.12555,-37.04879],[142.12398,-37.04905],[142.12334,-37.04917],[142.12153,-37.04963],[142.12042,-37.04987],[142.11911,-37.04992],[142.11788,-37.05039],[142.117,-37.05077],[142.1164,-37.0512],[142.11592,-37.05146],[142.11491,-37.05189],[142.11409,-37.05213],[142.11263,-37.05234],[142.11059,-37.05279],[142.10978,-37.05315],[142.10947,-37.05338],[142.10877,-37.05403],[142.1082,-37.05441],[142.10763,-37.05465],[142.10703,-37.05479],[142.10628,-37.05498],[142.10506,-37.0552],[142.10449,-37.05535],[142.10292,-37.05604],[142.10006,-37.0573],[142.09708,-37.05833],[142.09553,-37.05863],[142.09433,-37.05884],[142.09365,-37.05902],[142.09307,-37.05923],[142.09288,-37.0593],[142.09275,-37.05969],[142.09261,-37.06058],[142.09264,-37.06111],[142.09242,-37.06156],[142.09175,-37.06601],[142.09077,-37.0721],[142.09176,-37.07293],[142.09351,-37.07401],[142.09472,-37.07461],[142.09621,-37.07522],[142.09732,-37.07552],[142.09893,-37.07576],[142.10044,-37.07608],[142.10133,-37.07625],[142.10166,-37.07637],[142.10251,-37.07674],[142.10438,-37.07836],[142.10458,-37.07857],[142.10534,-37.07879],[142.1079,-37.07953],[142.10966,-37.08005],[142.10984,-37.08019],[142.11121,-37.0811],[142.11183,-37.08154],[142.1128,-37.08215],[142.1143,-37.08344],[142.11561,-37.08463],[142.1168,-37.08564],[142.11831,-37.0874],[142.11935,-37.08865],[142.11973,-37.08909],[142.11994,-37.08971],[142.12032,-37.09088],[142.12076,-37.09237],[142.12025,-37.09428],[142.11989,-37.0954],[142.11941,-37.09694],[142.11926,-37.09921],[142.11897,-37.10201],[142.11889,-37.10252],[142.11817,-37.1047],[142.11746,-37.10529],[142.11665,-37.10585],[142.11595,-37.10643],[142.11521,-37.10729],[142.11501,-37.10763],[142.11494,-37.10855],[142.11471,-37.10998],[142.11452,-37.11202]],[[142.14934,-37.03656],[142.1493,-37.03668]]]},"properties":{"id":"26-27_Grading_Programme.173","Road_name":"Black Range Rd","From":"Campbells Ln","To":"Rocklands-Cherry Pool Rd"}},{"type":"Feature","id":198,"geometry":{"type":"MultiLineString","coordinates":[[[141.93635,-36.98288],[141.93168,-36.98243],[141.93125,-36.98236],[141.92756,-36.98199],[141.92731,-36.98197],[141.92711,-36.982],[141.92675,-36.98209],[141.9265,-36.98209],[141.92596,-36.98203],[141.91588,-36.98103],[141.90843,-36.98027],[141.90248,-36.97971],[141.89909,-36.97938],[141.89852,-36.97935],[141.89751,-36.97924],[141.89706,-36.9792],[141.89674,-36.97912],[141.89082,-36.97854],[141.89042,-36.9785],[141.88692,-36.97814],[141.87979,-36.97744],[141.87796,-36.97724],[141.8774,-36.97718],[141.87688,-36.97716],[141.86808,-36.97627]]]},"properties":{"id":"26-27_Grading_Programme.130","Road_name":"Peppertree Ln (Toolondo)","From":"Natimuk Hamilton Rd","To":"Officer Station Rd"}}]}