{"type":"FeatureCollection","features":[{"type":"Feature","id":0,"geometry":{"type":"MultiLineString","coordinates":[[[142.325227,-36.980248],[142.358085,-36.98026],[142.368476,-36.980339],[142.371271,-36.981391]]]},"properties":{"id":"26-27_Grading_Programme.196","Asset_id":"2206,2207","Ch_from":0,"Ch_to":4450,"From":"Northern Grampians Rd","Grading_re":"Zone4A","Length_m":4450,"Road_name":"Smiths Rd (Laharum)","Sequence":28,"To":"Hrcc Boundary (Res. 445 @ 4450)"}},{"type":"Feature","id":1,"geometry":{"type":"MultiLineString","coordinates":[[[142.380589,-37.030571],[142.380621,-37.017694]]]},"properties":{"id":"26-27_Grading_Programme.163","Asset_id":"76","Ch_from":0,"Ch_to":1430,"From":"Roses Gap Rd","Grading_re":"Zone4A","Length_m":1430,"Road_name":"Augheys Rd","Sequence":22,"To":"Pave Change"}},{"type":"Feature","id":2,"geometry":{"type":"MultiLineString","coordinates":[[[142.393163,-37.015424],[142.393245,-37.017014],[142.393417,-37.017504],[142.393804,-37.017962],[142.396203,-37.019987],[142.396175,-37.024355],[142.396131,-37.027855],[142.39641,-37.028299]]]},"properties":{"id":"26-27_Grading_Programme.164","Asset_id":"2209","Ch_from":8622,"Ch_to":10195,"From":"Hrcc Boundary (Res. 862 @ 8622)","Grading_re":"Zone4A","Length_m":1573,"Road_name":"Smiths Rd (Laharum)","Sequence":21,"To":"Roses Gap Rd"}},{"type":"Feature","id":3,"geometry":{"type":"MultiLineString","coordinates":[[[142.349049,-37.053454],[142.349736,-37.05262],[142.349689,-37.051127],[142.349074,-37.049753],[142.349099,-37.049488],[142.349257,-37.049366],[142.353655,-37.046618],[142.353734,-37.046513],[142.355802,-37.043439]]]},"properties":{"id":"26-27_Grading_Programme.161","Asset_id":"2124","Ch_from":0,"Ch_to":1400,"From":"Northern Grampians Rd","Grading_re":"Zone4A","Length_m":1400,"Road_name":"Samuel Dr","Sequence":18,"To":"Fence"}},{"type":"Feature","id":4,"geometry":{"type":"MultiLineString","coordinates":[[[142.356947,-37.056742],[142.362142,-37.05247]]]},"properties":{"id":"26-27_Grading_Programme.160","Asset_id":"334","Ch_from":0,"Ch_to":730,"From":"Northern Grampians Rd","Grading_re":"Zone4A","Length_m":730,"Road_name":"Carters Dr","Sequence":19,"To":"Fence And Gate"}},{"type":"Feature","id":5,"geometry":{"type":"MultiLineString","coordinates":[[[142.321664,-37.062463],[142.327043,-37.066835]]]},"properties":{"id":"26-27_Grading_Programme.159","Asset_id":"2584","Ch_from":0,"Ch_to":570,"From":"Rosebrook Glenisla Rd","Grading_re":"Zone4A","Length_m":570,"Road_name":"Wattle Rd","Sequence":16,"To":"End (Res. 55 @ 550)"}},{"type":"Feature","id":6,"geometry":{"type":"MultiLineString","coordinates":[[[142.338832,-37.062937],[142.335661,-37.06475]]]},"properties":{"id":"26-27_Grading_Programme.167","Asset_id":"2217","Ch_from":1870,"Ch_to":2220,"From":"Seal Ends","Grading_re":"Zone4A","Length_m":350,"Road_name":"Snells Dr","Sequence":17,"To":"End"}},{"type":"Feature","id":7,"geometry":{"type":"MultiLineString","coordinates":[[[142.337767,-37.03804],[142.334489,-37.03885],[142.33071,-37.039815],[142.33001,-37.039897],[142.325641,-37.038049]]]},"properties":{"id":"26-27_Grading_Programme.195","Asset_id":"1796,5422","Ch_from":0,"Ch_to":1110,"From":"Northern Grampians Rd","Grading_re":"Zone4A","Length_m":1110,"Road_name":"O Sullivans Rd","Sequence":20,"To":"Old Adelaide Rd"}},{"type":"Feature","id":8,"geometry":{"type":"MultiLineString","coordinates":[[[142.327687,-37.057819],[142.321664,-37.062463],[142.313759,-37.068705],[142.309722,-37.071772],[142.299644,-37.079506],[142.288071,-37.088493],[142.284809,-37.090944],[142.284165,-37.091424],[142.283752,-37.092036]]]},"properties":{"id":"26-27_Grading_Programme.188","Asset_id":"5470,2097,2098,2096","Ch_from":1789,"Ch_to":7290,"From":"Seal Ends","Grading_re":"Zone4A","Length_m":5501,"Road_name":"Rosebrook-Glenisla Rd","Sequence":15,"To":"Asses Ears Rd"}},{"type":"Feature","id":9,"geometry":{"type":"MultiLineString","coordinates":[[[142.284276,-37.062375],[142.284273,-37.062492],[142.284256,-37.073145],[142.284177,-37.080865],[142.284165,-37.091424]]]},"properties":{"id":"26-27_Grading_Programme.187","Asset_id":"2135,5476,5330,2136","Ch_from":3130,"Ch_to":6430,"From":"Seal Ends","Grading_re":"Zone4A","Length_m":3300,"Road_name":"Schmidts Rd","Sequence":14,"To":"Rosebrook-Glenisla Rd"}},{"type":"Feature","id":10,"geometry":{"type":"MultiLineString","coordinates":[[[142.211712,-37.079764],[142.214671,-37.079926],[142.218422,-37.079695],[142.220127,-37.07972],[142.223326,-37.079922],[142.227747,-37.07994],[142.229849,-37.079833],[142.232236,-37.079232],[142.234952,-37.079204],[142.237911,-37.079018],[142.239347,-37.079138],[142.245505,-37.078924],[142.246565,-37.078868],[142.247735,-37.078662],[142.248741,-37.078711],[142.249635,-37.078791],[142.253243,-37.078574],[142.255662,-37.078519],[142.26115,-37.078296],[142.262817,-37.076683],[142.268458,-37.072252],[142.27002,-37.071013],[142.274524,-37.066549],[142.275412,-37.066197],[142.282417,-37.063317],[142.283846,-37.062727],[142.284273,-37.062492],[142.285428,-37.061942],[142.288623,-37.059417],[142.29076,-37.058096],[142.292855,-37.056537],[142.294381,-37.055461]],[[142.188381,-37.079658],[142.201032,-37.07968],[142.209744,-37.079933],[142.211501,-37.079759]]]},"properties":{"id":"26-27_Grading_Programme.172","Asset_id":"2852,2851,1736,5423,4988,2854,2853","Ch_from":0,"Ch_to":10500,"From":"Henty Hwy","Grading_re":"Zone4A","Length_m":10500,"Road_name":"Old Adelaide Rd","Sequence":12,"To":"Pave Change (Entry to Residence 1050)"}},{"type":"Feature","id":11,"geometry":{"type":"MultiLineString","coordinates":[[[142.234946,-37.079024],[142.234952,-37.079204],[142.234998,-37.106903],[142.234833,-37.116773]]]},"properties":{"id":"26-27_Grading_Programme.197","Asset_id":"2518,5596,2517","Ch_from":4740,"Ch_to":10010,"From":"Seal Ends","Grading_re":"Zone4A","Length_m":5270,"Road_name":"Victoria Valley Rd","Sequence":13,"To":"Council Boundary"}},{"type":"Feature","id":12,"geometry":{"type":"MultiLineString","coordinates":[[[142.187621,-37.073425],[142.186874,-37.074206],[142.184823,-37.078485],[142.181352,-37.08606]]]},"properties":{"id":"26-27_Grading_Programme.158","Asset_id":"1331","Ch_from":0,"Ch_to":1520,"From":"Henty Hwy","Grading_re":"Zone4A","Length_m":1520,"Road_name":"Langlands Rd","Sequence":11,"To":"Entry to Residence"}},{"type":"Feature","id":13,"geometry":{"type":"MultiLineString","coordinates":[[[142.165235,-37.045822],[142.165301,-37.052329]]]},"properties":{"id":"26-27_Grading_Programme.168","Asset_id":"1200","Ch_from":0,"Ch_to":730,"From":"Brim Springs West Ln","Grading_re":"Zone4A","Length_m":730,"Road_name":"Justins Ln","Sequence":9,"To":"End (Entry to Residence 68)"}},{"type":"Feature","id":14,"geometry":{"type":"MultiLineString","coordinates":[[[142.193123,-37.048523],[142.192236,-37.048509],[142.191322,-37.048437],[142.190136,-37.048313],[142.188713,-37.048192],[142.185663,-37.047843],[142.184581,-37.047827],[142.181667,-37.04753],[142.179904,-37.047249],[142.179092,-37.047258],[142.177974,-37.047133],[142.177229,-37.047113],[142.176348,-37.047014],[142.173502,-37.046689],[142.171978,-37.046596],[142.169944,-37.046291],[142.165235,-37.045822]]]},"properties":{"id":"26-27_Grading_Programme.183","Asset_id":"242,243","Ch_from":0,"Ch_to":2500,"From":"Henty Hwy","Grading_re":"Zone4A","Length_m":2500,"Road_name":"Brim Springs West Ln","Sequence":10,"To":"Justins Ln"}},{"type":"Feature","id":15,"geometry":{"type":"MultiLineString","coordinates":[[[142.213352,-37.039783],[142.213948,-37.035715]]]},"properties":{"id":"26-27_Grading_Programme.157","Asset_id":"2336","Ch_from":4440,"Ch_to":4940,"From":"Pave Change (Entry to Residence 439)","Grading_re":"Zone4A","Length_m":500,"Road_name":"Tom Smiths Rd","Sequence":8,"To":"Brimpaen-Laharum Rd"}},{"type":"Feature","id":16,"geometry":{"type":"MultiLineString","coordinates":[[[142.216705,-37.035994],[142.216342,-37.035304],[142.21608,-37.033826],[142.2161,-37.028911],[142.21617,-37.021022],[142.216156,-37.0131],[142.2162,-37.003551],[142.216239,-36.998983],[142.216255,-36.991228]]]},"properties":{"id":"26-27_Grading_Programme.175","Asset_id":"2057,3726,5461,2058,5462","Ch_from":0,"Ch_to":4980,"From":"Brimpaen-Laharum Rd","Grading_re":"Zone4A","Length_m":4980,"Road_name":"Roberts Rd","Sequence":7,"To":"Byrnes Rd"}},{"type":"Feature","id":17,"geometry":{"type":"MultiLineString","coordinates":[[[142.195589,-37.033698],[142.193695,-37.03369],[142.192611,-37.033566],[142.191591,-37.033223],[142.190576,-37.033206],[142.189221,-37.033057],[142.188339,-37.032849],[142.18309,-37.032414],[142.179464,-37.031962],[142.177668,-37.031736],[142.176586,-37.031746],[142.175233,-37.031733],[142.172863,-37.031512],[142.171576,-37.031443],[142.171136,-37.031421],[142.169373,-37.031086],[142.168458,-37.030986],[142.156761,-37.029829]],[[142.172863,-37.031512],[142.172152,-37.031465]]]},"properties":{"id":"26-27_Grading_Programme.181","Asset_id":"2757,3041,319","Ch_from":0,"Ch_to":3520,"From":"Henty Hwy","Grading_re":"Zone4A","Length_m":3520,"Road_name":"Campbells Ln","Sequence":5,"To":"Downies Ln"}},{"type":"Feature","id":18,"geometry":{"type":"MultiLineString","coordinates":[[[142.1396,-36.990169],[142.139518,-36.990694],[142.139346,-36.991563],[142.139237,-36.992333],[142.139061,-36.993466],[142.139019,-36.994165],[142.138732,-36.995984],[142.138647,-36.996307],[142.138567,-36.996528],[142.137969,-36.997331],[142.137834,-36.997518],[142.137717,-36.997796],[142.137695,-36.99794],[142.13768,-36.998123],[142.137769,-36.998318],[142.138737,-36.999419],[142.138945,-36.999648],[142.139094,-36.999822],[142.139338,-37.000247],[142.139647,-37.000864],[142.140123,-37.001822],[142.140448,-37.002447],[142.140651,-37.002704],[142.140863,-37.002915],[142.141958,-37.003787],[142.142937,-37.00457],[142.143943,-37.005361],[142.14476,-37.006008],[142.145743,-37.006772],[142.146332,-37.007279],[142.146475,-37.007411],[142.146725,-37.007738],[142.147198,-37.008407],[142.148181,-37.009848],[142.1486,-37.010412],[142.148762,-37.010806],[142.14897,-37.01126],[142.149271,-37.011987],[142.149906,-37.013521],[142.150362,-37.014634],[142.150763,-37.015617],[142.150907,-37.016017],[142.151438,-37.017311],[142.151722,-37.017961],[142.151868,-37.018172],[142.152406,-37.019614],[142.1565,-37.029669],[142.156761,-37.029829]]]},"properties":{"id":"26-27_Grading_Programme.170","Asset_id":"616,3043,615,3042","Ch_from":3220,"Ch_to":8120,"From":"Red Rock Rd","Grading_re":"Zone4A","Length_m":4900,"Road_name":"Downies Ln","Sequence":3,"To":"Campbells Ln"}},{"type":"Feature","id":19,"geometry":{"type":"MultiLineString","coordinates":[[[142.188578,-36.991865],[142.190934,-36.9912],[142.191289,-36.991173],[142.216255,-36.991228]]]},"properties":{"id":"26-27_Grading_Programme.156","Asset_id":"291","Ch_from":0,"Ch_to":2480,"From":"Henty Hwy","Grading_re":"Zone4A","Length_m":2480,"Road_name":"Byrnes Rd (Brimpaen)","Sequence":6,"To":"Roberts Rd"}}]}