{"type":"FeatureCollection","features":[{"type":"Feature","id":0,"geometry":{"type":"MultiLineString","coordinates":[[[142.32523,-36.98025],[142.35808,-36.98026],[142.36848,-36.98034],[142.37127,-36.98139]]]},"properties":{"id":"26-27_Grading_Programme.196","Road_name":"Smiths Rd (Laharum)","From":"Northern Grampians Rd","To":"Hrcc Boundary (Res. 445 @ 4450)"}},{"type":"Feature","id":1,"geometry":{"type":"MultiLineString","coordinates":[[[142.38059,-37.03057],[142.38062,-37.01769]]]},"properties":{"id":"26-27_Grading_Programme.163","Road_name":"Augheys Rd","From":"Roses Gap Rd","To":"Pave Change"}},{"type":"Feature","id":2,"geometry":{"type":"MultiLineString","coordinates":[[[142.39316,-37.01542],[142.39325,-37.01701],[142.39342,-37.0175],[142.3938,-37.01796],[142.3962,-37.01999],[142.39617,-37.02435],[142.39613,-37.02786],[142.39641,-37.0283]]]},"properties":{"id":"26-27_Grading_Programme.164","Road_name":"Smiths Rd (Laharum)","From":"Hrcc Boundary (Res. 862 @ 8622)","To":"Roses Gap Rd"}},{"type":"Feature","id":3,"geometry":{"type":"MultiLineString","coordinates":[[[142.34905,-37.05345],[142.34974,-37.05262],[142.34969,-37.05113],[142.34907,-37.04975],[142.3491,-37.04949],[142.34926,-37.04937],[142.35366,-37.04662],[142.35373,-37.04651],[142.3558,-37.04344]]]},"properties":{"id":"26-27_Grading_Programme.161","Road_name":"Samuel Dr","From":"Northern Grampians Rd","To":"Fence"}},{"type":"Feature","id":4,"geometry":{"type":"MultiLineString","coordinates":[[[142.35695,-37.05674],[142.36214,-37.05247]]]},"properties":{"id":"26-27_Grading_Programme.160","Road_name":"Carters Dr","From":"Northern Grampians Rd","To":"Fence And Gate"}},{"type":"Feature","id":5,"geometry":{"type":"MultiLineString","coordinates":[[[142.32166,-37.06246],[142.32704,-37.06683]]]},"properties":{"id":"26-27_Grading_Programme.159","Road_name":"Wattle Rd","From":"Rosebrook Glenisla Rd","To":"End (Res. 55 @ 550)"}},{"type":"Feature","id":6,"geometry":{"type":"MultiLineString","coordinates":[[[142.33883,-37.06294],[142.33566,-37.06475]]]},"properties":{"id":"26-27_Grading_Programme.167","Road_name":"Snells Dr","From":"Seal Ends","To":"End"}},{"type":"Feature","id":7,"geometry":{"type":"MultiLineString","coordinates":[[[142.33777,-37.03804],[142.33449,-37.03885],[142.33071,-37.03981],[142.33001,-37.0399],[142.32564,-37.03805]]]},"properties":{"id":"26-27_Grading_Programme.195","Road_name":"O Sullivans Rd","From":"Northern Grampians Rd","To":"Old Adelaide Rd"}},{"type":"Feature","id":8,"geometry":{"type":"MultiLineString","coordinates":[[[142.32769,-37.05782],[142.32166,-37.06246],[142.31376,-37.06871],[142.30972,-37.07177],[142.29964,-37.07951],[142.28807,-37.08849],[142.28481,-37.09094],[142.28417,-37.09142],[142.28375,-37.09204]]]},"properties":{"id":"26-27_Grading_Programme.188","Road_name":"Rosebrook-Glenisla Rd","From":"Seal Ends","To":"Asses Ears Rd"}},{"type":"Feature","id":9,"geometry":{"type":"MultiLineString","coordinates":[[[142.28428,-37.06238],[142.28427,-37.06249],[142.28426,-37.07314],[142.28418,-37.08087],[142.28417,-37.09142]]]},"properties":{"id":"26-27_Grading_Programme.187","Road_name":"Schmidts Rd","From":"Seal Ends","To":"Rosebrook-Glenisla Rd"}},{"type":"Feature","id":10,"geometry":{"type":"MultiLineString","coordinates":[[[142.21171,-37.07976],[142.21467,-37.07993],[142.21842,-37.0797],[142.22013,-37.07972],[142.22333,-37.07992],[142.22775,-37.07994],[142.22985,-37.07983],[142.23224,-37.07923],[142.23495,-37.0792],[142.23791,-37.07902],[142.23935,-37.07914],[142.24551,-37.07892],[142.24657,-37.07887],[142.24774,-37.07866],[142.24874,-37.07871],[142.24964,-37.07879],[142.25324,-37.07857],[142.25566,-37.07852],[142.26115,-37.0783],[142.26282,-37.07668],[142.26846,-37.07225],[142.27002,-37.07101],[142.27452,-37.06655],[142.27541,-37.0662],[142.28242,-37.06332],[142.28385,-37.06273],[142.28427,-37.06249],[142.28543,-37.06194],[142.28862,-37.05942],[142.29076,-37.0581],[142.29286,-37.05654],[142.29438,-37.05546]],[[142.18838,-37.07966],[142.20103,-37.07968],[142.20974,-37.07993],[142.2115,-37.07976]]]},"properties":{"id":"26-27_Grading_Programme.172","Road_name":"Old Adelaide Rd","From":"Henty Hwy","To":"Pave Change (Entry to Residence 1050)"}},{"type":"Feature","id":11,"geometry":{"type":"MultiLineString","coordinates":[[[142.23495,-37.07902],[142.23495,-37.0792],[142.235,-37.1069],[142.23483,-37.11677]]]},"properties":{"id":"26-27_Grading_Programme.197","Road_name":"Victoria Valley Rd","From":"Seal Ends","To":"Council Boundary"}},{"type":"Feature","id":12,"geometry":{"type":"MultiLineString","coordinates":[[[142.18762,-37.07343],[142.18687,-37.07421],[142.18482,-37.07849],[142.18135,-37.08606]]]},"properties":{"id":"26-27_Grading_Programme.158","Road_name":"Langlands Rd","From":"Henty Hwy","To":"Entry to Residence"}},{"type":"Feature","id":13,"geometry":{"type":"MultiLineString","coordinates":[[[142.16523,-37.04582],[142.1653,-37.05233]]]},"properties":{"id":"26-27_Grading_Programme.168","Road_name":"Justins Ln","From":"Brim Springs West Ln","To":"End (Entry to Residence 68)"}},{"type":"Feature","id":14,"geometry":{"type":"MultiLineString","coordinates":[[[142.19312,-37.04852],[142.19224,-37.04851],[142.19132,-37.04844],[142.19014,-37.04831],[142.18871,-37.04819],[142.18566,-37.04784],[142.18458,-37.04783],[142.18167,-37.04753],[142.1799,-37.04725],[142.17909,-37.04726],[142.17797,-37.04713],[142.17723,-37.04711],[142.17635,-37.04701],[142.1735,-37.04669],[142.17198,-37.0466],[142.16994,-37.04629],[142.16523,-37.04582]]]},"properties":{"id":"26-27_Grading_Programme.183","Road_name":"Brim Springs West Ln","From":"Henty Hwy","To":"Justins Ln"}},{"type":"Feature","id":15,"geometry":{"type":"MultiLineString","coordinates":[[[142.21335,-37.03978],[142.21395,-37.03572]]]},"properties":{"id":"26-27_Grading_Programme.157","Road_name":"Tom Smiths Rd","From":"Pave Change (Entry to Residence 439)","To":"Brimpaen-Laharum Rd"}},{"type":"Feature","id":16,"geometry":{"type":"MultiLineString","coordinates":[[[142.2167,-37.03599],[142.21634,-37.0353],[142.21608,-37.03383],[142.2161,-37.02891],[142.21617,-37.02102],[142.21616,-37.0131],[142.2162,-37.00355],[142.21624,-36.99898],[142.21625,-36.99123]]]},"properties":{"id":"26-27_Grading_Programme.175","Road_name":"Roberts Rd","From":"Brimpaen-Laharum Rd","To":"Byrnes Rd"}},{"type":"Feature","id":17,"geometry":{"type":"MultiLineString","coordinates":[[[142.19559,-37.0337],[142.19369,-37.03369],[142.19261,-37.03357],[142.19159,-37.03322],[142.19058,-37.03321],[142.18922,-37.03306],[142.18834,-37.03285],[142.18309,-37.03241],[142.17946,-37.03196],[142.17767,-37.03174],[142.17659,-37.03175],[142.17523,-37.03173],[142.17286,-37.03151],[142.17158,-37.03144],[142.17114,-37.03142],[142.16937,-37.03109],[142.16846,-37.03099],[142.15676,-37.02983]],[[142.17286,-37.03151],[142.17215,-37.03146]]]},"properties":{"id":"26-27_Grading_Programme.181","Road_name":"Campbells Ln","From":"Henty Hwy","To":"Downies Ln"}},{"type":"Feature","id":18,"geometry":{"type":"MultiLineString","coordinates":[[[142.1396,-36.99017],[142.13952,-36.99069],[142.13935,-36.99156],[142.13924,-36.99233],[142.13906,-36.99347],[142.13902,-36.99417],[142.13873,-36.99598],[142.13865,-36.99631],[142.13857,-36.99653],[142.13797,-36.99733],[142.13783,-36.99752],[142.13772,-36.9978],[142.1377,-36.99794],[142.13768,-36.99812],[142.13777,-36.99832],[142.13874,-36.99942],[142.13895,-36.99965],[142.13909,-36.99982],[142.13934,-37.00025],[142.13965,-37.00086],[142.14012,-37.00182],[142.14045,-37.00245],[142.14065,-37.0027],[142.14086,-37.00292],[142.14196,-37.00379],[142.14294,-37.00457],[142.14394,-37.00536],[142.14476,-37.00601],[142.14574,-37.00677],[142.14633,-37.00728],[142.14648,-37.00741],[142.14673,-37.00774],[142.1472,-37.00841],[142.14818,-37.00985],[142.1486,-37.01041],[142.14876,-37.01081],[142.14897,-37.01126],[142.14927,-37.01199],[142.14991,-37.01352],[142.15036,-37.01463],[142.15076,-37.01562],[142.15091,-37.01602],[142.15144,-37.01731],[142.15172,-37.01796],[142.15187,-37.01817],[142.15241,-37.01961],[142.1565,-37.02967],[142.15676,-37.02983]]]},"properties":{"id":"26-27_Grading_Programme.170","Road_name":"Downies Ln","From":"Red Rock Rd","To":"Campbells Ln"}},{"type":"Feature","id":19,"geometry":{"type":"MultiLineString","coordinates":[[[142.18858,-36.99186],[142.19093,-36.9912],[142.19129,-36.99117],[142.21625,-36.99123]]]},"properties":{"id":"26-27_Grading_Programme.156","Road_name":"Byrnes Rd (Brimpaen)","From":"Henty Hwy","To":"Roberts Rd"}},{"type":"Feature","id":20,"geometry":{"type":"MultiLineString","coordinates":[[[142.2846,-36.98015],[142.28453,-36.98296],[142.28452,-36.98378],[142.28452,-36.98391],[142.2844,-36.98393],[142.28407,-36.98394],[142.28385,-36.98392],[142.28362,-36.98393],[142.28293,-36.98403],[142.28263,-36.9841],[142.28246,-36.98415],[142.28222,-36.98436],[142.28149,-36.98505]]]},"properties":{"id":"26-27_Grading_Programme.193","Road_name":"Staehrs Rd","From":"Knonagels Rd","To":"Seal Starts"}},{"type":"Feature","id":21,"geometry":{"type":"MultiLineString","coordinates":[[[142.27937,-36.98671],[142.27881,-36.98707],[142.27864,-36.98717],[142.27824,-36.9874],[142.27799,-36.9875],[142.27765,-36.98764],[142.27684,-36.98783],[142.27638,-36.98816],[142.27619,-36.98836],[142.27594,-36.98864],[142.27582,-36.98883],[142.27578,-36.98906],[142.27587,-36.98933],[142.27608,-36.98967],[142.27619,-36.98996],[142.27633,-36.99016],[142.27666,-36.99047],[142.27781,-36.99159],[142.27802,-36.99173],[142.27824,-36.9918],[142.2786,-36.99182],[142.27922,-36.99181],[142.28438,-36.99189]]]},"properties":{"id":"26-27_Grading_Programme.198","Road_name":"Staehrs Rd","From":"Henmans Bridge (Burnt Crk)","To":"Brimacombes Rd"}},{"type":"Feature","id":22,"geometry":{"type":"MultiLineString","coordinates":[[[142.2353,-36.97717],[142.24754,-36.97715],[142.24802,-36.97722],[142.24819,-36.97732],[142.25433,-36.98613],[142.25504,-36.98719],[142.25649,-36.98858],[142.25701,-36.98999],[142.25948,-36.99372],[142.25984,-36.99386],[142.26152,-36.99428],[142.26218,-36.99466],[142.26302,-36.99523],[142.26327,-36.99539],[142.26353,-36.99544],[142.26379,-36.99538],[142.26402,-36.99525],[142.26423,-36.99512],[142.26439,-36.99504],[142.26461,-36.995],[142.26489,-36.99505],[142.26721,-36.99544],[142.27068,-36.99601],[142.27129,-36.99611],[142.27156,-36.99624],[142.27192,-36.99657],[142.27237,-36.99693],[142.27724,-36.99978],[142.28442,-37.00388],[142.29361,-37.00908],[142.29479,-37.00981],[142.29517,-37.00997],[142.29564,-37.0101],[142.3059,-37.01129],[142.30625,-37.01153],[142.30699,-37.01217],[142.30752,-37.01272],[142.31399,-37.01914]]]},"properties":{"id":"26-27_Grading_Programme.179","Road_name":"Grimble Geue Rd","From":"Grahams Bridge Rd","To":"Brimpaen-Laharum Rd"}},{"type":"Feature","id":23,"geometry":{"type":"MultiLineString","coordinates":[[[142.28435,-37.03408],[142.28437,-37.03057],[142.2844,-37.01465],[142.28469,-37.01427],[142.28472,-37.01352],[142.28446,-37.01304],[142.28442,-37.00388],[142.28438,-36.99189]]]},"properties":{"id":"26-27_Grading_Programme.182","Road_name":"Brimacombes Rd","From":"Brimpaen-Laharum Rd","To":"Staehrs Rd"}},{"type":"Feature","id":24,"geometry":{"type":"MultiLineString","coordinates":[[[142.32523,-36.98025],[142.30499,-36.98015],[142.30282,-36.98013],[142.29708,-36.98017],[142.29509,-36.98031],[142.29355,-36.98018],[142.29241,-36.98017],[142.2846,-36.98015]]]},"properties":{"id":"26-27_Grading_Programme.185","Road_name":"Knonagels Rd","From":"Northern Grampians Rd","To":"Staehrs Rd"}},{"type":"Feature","id":25,"geometry":{"type":"MultiLineString","coordinates":[[[142.32402,-36.96556],[142.3494,-36.9656],[142.35812,-36.96559]]]},"properties":{"id":"26-27_Grading_Programme.184","Road_name":"Camerons Rd (Laharum)","From":"Northern Grampians Rd","To":"Winfields Rd"}},{"type":"Feature","id":26,"geometry":{"type":"MultiLineString","coordinates":[[[142.3239,-36.94671],[142.34694,-36.94676],[142.35814,-36.94676]]]},"properties":{"id":"26-27_Grading_Programme.194","Road_name":"Mc Tavishs Rd","From":"Northern Grampians Rd","To":"Winfields Rd"}},{"type":"Feature","id":27,"geometry":{"type":"MultiLineString","coordinates":[[[142.3239,-36.94671],[142.32134,-36.94677],[142.30294,-36.94665],[142.29875,-36.94669],[142.2847,-36.94668],[142.28468,-36.94944],[142.27357,-36.94945],[142.27289,-36.94947],[142.27257,-36.94956],[142.27203,-36.95019],[142.27203,-36.95093],[142.27221,-36.9516],[142.27237,-36.95214],[142.27242,-36.95237]]]},"properties":{"id":"26-27_Grading_Programme.186","Road_name":"Laharum-Grahams Bridge Rd","From":"Northern Grampians Rd","To":"End Gravel"}},{"type":"Feature","id":28,"geometry":{"type":"MultiLineString","coordinates":[[[142.32629,-36.91631],[142.33974,-36.91638]]]},"properties":{"id":"26-27_Grading_Programme.165","Road_name":"Bunworths Rd","From":"Northern Grampians Rd","To":"Kiefels Rd"}},{"type":"Feature","id":29,"geometry":{"type":"MultiLineString","coordinates":[[[142.32474,-36.90323],[142.33985,-36.90326],[142.35816,-36.90325],[142.35829,-36.90341],[142.35888,-36.90346],[142.35964,-36.90347]]]},"properties":{"id":"26-27_Grading_Programme.177","Road_name":"Pohlners Rd","From":"Northern Grampians Rd","To":"Pave Change (Res. @ 3130)"}},{"type":"Feature","id":30,"geometry":{"type":"MultiLineString","coordinates":[[[142.32258,-36.885],[142.34404,-36.88497],[142.34755,-36.88496],[142.3502,-36.88495],[142.35822,-36.88497]]]},"properties":{"id":"26-27_Grading_Programme.176","Road_name":"Reservoir Rd","From":"Northern Grampians Rd","To":"Winfields Rd"}},{"type":"Feature","id":31,"geometry":{"type":"MultiLineString","coordinates":[[[142.28492,-36.87801],[142.28483,-36.9011],[142.28484,-36.90157]]]},"properties":{"id":"26-27_Grading_Programme.192","Road_name":"Staehrs Rd","From":"Laharum Rd","To":"Entry to Residence"}},{"type":"Feature","id":32,"geometry":{"type":"MultiLineString","coordinates":[[[142.28467,-36.93351],[142.2847,-36.94668]]]},"properties":{"id":"26-27_Grading_Programme.162","Road_name":"Staehrs Rd","From":"Pave Change","To":"Laharum-Grahams Bridge Rd Est"}},{"type":"Feature","id":33,"geometry":{"type":"MultiLineString","coordinates":[[[142.14606,-36.86252],[142.14596,-36.86235],[142.14532,-36.86008],[142.1446,-36.85765],[142.14427,-36.85672],[142.144,-36.85594],[142.1438,-36.85514],[142.14352,-36.85398],[142.143,-36.8521],[142.1419,-36.84831],[142.14152,-36.84703],[142.14139,-36.84662],[142.14112,-36.84568],[142.14093,-36.84508]]]},"properties":{"id":"26-27_Grading_Programme.118","Road_name":"Mc Genniskens Rd","From":"Henty Hwy","To":"Pave Change (Res. @ 1960)"}},{"type":"Feature","id":34,"geometry":{"type":"MultiLineString","coordinates":[[[142.30349,-36.80035],[142.30349,-36.81195],[142.30348,-36.81605],[142.30343,-36.82662],[142.30342,-36.8274],[142.30342,-36.84092],[142.30328,-36.84109],[142.30317,-36.8412],[142.30308,-36.84146]]]},"properties":{"id":"26-27_Grading_Programme.171","Road_name":"Taylors Rd","From":"Seal Endss","To":"Old Wartook Rd"}},{"type":"Feature","id":35,"geometry":{"type":"MultiLineString","coordinates":[[[142.36153,-36.84138],[142.35814,-36.84137],[142.34737,-36.84141],[142.34006,-36.84143]]]},"properties":{"id":"26-27_Grading_Programme.180","Road_name":"Arnotts Rd","From":"Pave Change","To":"Northern Grampians Rd"}},{"type":"Feature","id":36,"geometry":{"type":"MultiLineString","coordinates":[[[142.39478,-36.82267],[142.39477,-36.82131],[142.39478,-36.81954],[142.3948,-36.81873],[142.39477,-36.81829]]]},"properties":{"id":"26-27_Grading_Programme.61","Road_name":"Fischers Rd South","From":"Pave Change (Entry to Residence)","To":"Horsham-Wal Wal Rd"}},{"type":"Feature","id":37,"geometry":{"type":"MultiLineString","coordinates":[[[142.39478,-36.81202],[142.38154,-36.81202]]]},"properties":{"id":"26-27_Grading_Programme.66","Road_name":"Watsons Rd","From":"Fischers Rd","To":"Entry to Residence"}},{"type":"Feature","id":38,"geometry":{"type":"MultiLineString","coordinates":[[[142.4493,-36.87456],[142.44952,-36.87438],[142.44961,-36.87418],[142.44963,-36.87404],[142.44961,-36.86661],[142.44963,-36.86325],[142.44959,-36.86065],[142.44962,-36.85577],[142.44964,-36.8552],[142.44962,-36.85341],[142.44961,-36.85061],[142.44962,-36.84744],[142.44961,-36.84106]],[[142.44961,-36.84105],[142.44961,-36.83993],[142.44962,-36.83664],[142.44964,-36.83358],[142.44963,-36.82784],[142.44962,-36.82696],[142.44964,-36.82535],[142.44964,-36.82217],[142.44963,-36.81856],[142.44962,-36.81589],[142.44962,-36.8116]]]},"properties":{"id":"26-27_Grading_Programme.75","Road_name":"Golton Rd","From":"Western Hwy","To":"Horsham-Wal Wal Rd"}},{"type":"Feature","id":39,"geometry":{"type":"MultiLineString","coordinates":[[[142.43131,-36.8404],[142.4313,-36.839]]]},"properties":{"id":"26-27_Grading_Programme.62","Road_name":"Ross Rd (St Helens Plains)","From":"Seal Ends","To":"End (Entry to Pit)"}},{"type":"Feature","id":40,"geometry":{"type":"MultiLineString","coordinates":[[[142.40498,-36.84144],[142.40515,-36.8414],[142.41306,-36.84142],[142.4277,-36.84142],[142.4285,-36.84137],[142.42972,-36.84137],[142.43114,-36.8414]]]},"properties":{"id":"26-27_Grading_Programme.100","Road_name":"Ross Rd (St Helens Plains)","From":"Western Hwy","To":"Seal Starts"}},{"type":"Feature","id":41,"geometry":{"type":"MultiLineString","coordinates":[[[142.42879,-36.85584],[142.42915,-36.85581],[142.42964,-36.85571],[142.43,-36.8557],[142.4311,-36.85578],[142.43134,-36.85576]]]},"properties":{"id":"26-27_Grading_Programme.63","Road_name":"Fulbrooks Rd","From":"Pave Change (Residence)","To":"Stelee Park Dr"}},{"type":"Feature","id":42,"geometry":{"type":"MultiLineString","coordinates":[[[142.43104,-36.86122],[142.43129,-36.86088],[142.43127,-36.86007],[142.43132,-36.85784],[142.43128,-36.85724],[142.43128,-36.85683],[142.43133,-36.85643],[142.43126,-36.8561],[142.43117,-36.8559],[142.4311,-36.85578]]]},"properties":{"id":"26-27_Grading_Programme.65","Road_name":"Stelee Park Dr","From":"Western Hwy","To":"Fulbrooks Rd"}},{"type":"Feature","id":43,"geometry":{"type":"MultiLineString","coordinates":[[[142.36079,-36.86842],[142.36147,-36.86883],[142.36229,-36.86889],[142.3721,-36.86886],[142.38433,-36.86883],[142.38577,-36.86887],[142.38696,-36.86889],[142.38868,-36.86893],[142.3893,-36.86901],[142.39019,-36.86899],[142.3906,-36.86889],[142.39196,-36.86889],[142.39385,-36.86891],[142.39505,-36.8689],[142.3982,-36.86879],[142.39874,-36.86883]]]},"properties":{"id":"26-27_Grading_Programme.178","Road_name":"Friedmans Rd","From":"Wonwondah-Dadswells Bridge Rd","To":"End (Entry to Residence)"}},{"type":"Feature","id":44,"geometry":{"type":"MultiLineString","coordinates":[[[142.39019,-36.85583],[142.39019,-36.86899]]]},"properties":{"id":"26-27_Grading_Programme.166","Road_name":"Flat Rock Rd South","From":"Wonwondah-Dadswells Bridge Rd","To":"Friedmans Rd (Council Boundary)"}},{"type":"Feature","id":45,"geometry":{"type":"MultiLineString","coordinates":[[[142.3948,-36.83794],[142.3948,-36.84139],[142.39487,-36.85584]]]},"properties":{"id":"26-27_Grading_Programme.190","Road_name":"Flat Rock Rd","From":"Seal Ends","To":"Wonwondah-Dadswells Bridge Rd"}},{"type":"Feature","id":46,"geometry":{"type":"MultiLineString","coordinates":[[[142.35832,-36.88085],[142.36085,-36.88084],[142.36192,-36.88083],[142.36246,-36.88083],[142.36268,-36.88084],[142.36281,-36.88086],[142.36294,-36.88088],[142.36306,-36.88092],[142.36324,-36.88099]]]},"properties":{"id":"26-27_Grading_Programme.169","Road_name":"Mt Zero Rd (Boundary Road)","From":"Winfields Rd","To":"Council Boundary (Entry to Mt Zero Olives)"}},{"type":"Feature","id":47,"geometry":{"type":"MultiLineString","coordinates":[[[142.35814,-36.84137],[142.35793,-36.84352],[142.358,-36.84427],[142.35803,-36.84454],[142.35815,-36.84498],[142.35824,-36.84528],[142.3582,-36.85391],[142.35825,-36.86369],[142.3583,-36.86969],[142.35833,-36.88089],[142.35825,-36.89141],[142.3582,-36.89438],[142.35818,-36.89784],[142.35816,-36.90325],[142.35816,-36.90495],[142.35811,-36.92112],[142.35821,-36.92661],[142.35816,-36.93019],[142.35809,-36.93742],[142.35808,-36.94227],[142.35814,-36.94676],[142.35809,-36.94758],[142.3581,-36.95226],[142.35812,-36.95924],[142.35812,-36.96559],[142.35816,-36.97314],[142.35812,-36.97566],[142.35808,-36.98026]]]},"properties":{"id":"26-27_Grading_Programme.191","Road_name":"Winfields Rd","From":"Arnotts Rd","To":"Smiths Rd"}},{"type":"Feature","id":48,"geometry":{"type":"MultiLineString","coordinates":[[[142.35852,-36.92663],[142.36985,-36.92704],[142.37533,-36.92717]]]},"properties":{"id":"26-27_Grading_Programme.189","Road_name":"Olive Plantation Rd","From":"Seal Ends","To":"Unnamed Trk (Council Boundary)"}},{"type":"Feature","id":49,"geometry":{"type":"MultiLineString","coordinates":[[[142.47941,-36.89761],[142.47902,-36.89765],[142.47406,-36.89764],[142.4677,-36.89764],[142.46767,-36.90571]]]},"properties":{"id":"26-27_Grading_Programme.79","Road_name":"Crutes Tk","From":"Western Hwy","To":"Entry to Residence"}}]}