{"type":"FeatureCollection","features":[{"type":"Feature","id":100,"geometry":{"type":"MultiLineString","coordinates":[[[142.3405,-36.7973],[142.34501,-36.7973],[142.34532,-36.79732],[142.34552,-36.7973],[142.34564,-36.79722],[142.34566,-36.79708],[142.34556,-36.79479],[142.34558,-36.79412],[142.34582,-36.79307],[142.34611,-36.79198],[142.34601,-36.79099],[142.34592,-36.78996],[142.34587,-36.78921],[142.34606,-36.78732],[142.34614,-36.78694]]]},"properties":{"id":"26-27_Grading_Programme.82","Road_name":"Chalky Point Rd","From":"Gates Rd","To":"Boat Ramp"}},{"type":"Feature","id":101,"geometry":{"type":"MultiLineString","coordinates":[[[142.34045,-36.80773],[142.34048,-36.80759],[142.34048,-36.80755],[142.3405,-36.7973],[142.34051,-36.7898],[142.34046,-36.78962],[142.34036,-36.78951],[142.34031,-36.78945],[142.33983,-36.78905]]]},"properties":{"id":"26-27_Grading_Programme.85","Road_name":"Gates Rd","From":"Seal Ends","To":"Pine Lake (Entry to Residence)"}},{"type":"Feature","id":102,"geometry":{"type":"MultiLineString","coordinates":[[[142.26707,-36.76781],[142.27266,-36.76783],[142.28513,-36.76785],[142.28531,-36.76784],[142.28764,-36.76783],[142.28797,-36.76781],[142.28852,-36.76781]]]},"properties":{"id":"26-27_Grading_Programme.99","Road_name":"South Rd","From":"West Rd","To":"Dock Lake"}},{"type":"Feature","id":103,"geometry":{"type":"MultiLineString","coordinates":[[[142.26136,-36.76751],[142.26122,-36.76772],[142.26104,-36.76777],[142.24882,-36.76775],[142.24881,-36.77107],[142.24879,-36.78246]]]},"properties":{"id":"26-27_Grading_Programme.89","Road_name":"Peuckers Rd","From":"Western Hwy","To":"Rodda Rd"}},{"type":"Feature","id":104,"geometry":{"type":"MultiLineString","coordinates":[[[142.23057,-36.78241],[142.2418,-36.78242],[142.24254,-36.78241],[142.24306,-36.78236],[142.24423,-36.78246],[142.24499,-36.78245],[142.24879,-36.78246]]]},"properties":{"id":"26-27_Grading_Programme.101","Road_name":"Rodda Rd","From":"Laharum Rd","To":"Peuckers Rd"}},{"type":"Feature","id":105,"geometry":{"type":"MultiLineString","coordinates":[[[142.21229,-36.78224],[142.22127,-36.78229],[142.22161,-36.78226],[142.22219,-36.78238],[142.23057,-36.78241]]]},"properties":{"id":"26-27_Grading_Programme.78","Road_name":"Clynes Rd","From":"Grahams Bridge Rd","To":"Laharum Rd"}},{"type":"Feature","id":106,"geometry":{"type":"MultiLineString","coordinates":[[[142.21234,-36.76771],[142.23058,-36.7677],[142.23126,-36.7677],[142.2363,-36.76774],[142.24223,-36.76775],[142.24554,-36.76776],[142.24887,-36.76779]]]},"properties":{"id":"26-27_Grading_Programme.87","Road_name":"Mackies Rd","From":"Grahams Bridge Rd","To":"Peuckers Rd"}},{"type":"Feature","id":107,"geometry":{"type":"MultiLineString","coordinates":[[[142.03575,-36.80305],[142.0358,-36.80288],[142.03596,-36.8018],[142.03599,-36.80159],[142.03629,-36.79974],[142.03673,-36.79686],[142.03754,-36.79157],[142.03759,-36.79118],[142.03764,-36.79082],[142.03775,-36.79008],[142.03785,-36.78927],[142.03796,-36.78874]]]},"properties":{"id":"26-27_Grading_Programme.133","Road_name":"Barrs Rd","From":"Darragan Pit Rd","To":"Pave Change"}},{"type":"Feature","id":108,"geometry":{"type":"MultiLineString","coordinates":[[[142.02541,-36.79735],[142.02431,-36.79677],[142.02326,-36.79622],[142.02284,-36.79601],[142.02242,-36.79582],[142.02217,-36.79573],[142.02194,-36.79566],[142.0216,-36.79561],[142.02083,-36.79553],[142.01969,-36.79542],[142.01837,-36.79529],[142.01642,-36.79509],[142.01565,-36.79501],[142.01497,-36.79492],[142.01432,-36.79486],[142.01336,-36.79477],[142.01284,-36.79475],[142.01212,-36.79466],[142.01173,-36.7946],[142.01102,-36.79456],[142.00997,-36.79446],[142.00945,-36.79442],[142.00891,-36.79434],[142.00859,-36.79428],[142.00804,-36.79424],[142.00759,-36.79421],[142.00704,-36.79418],[142.00609,-36.7941],[142.00423,-36.79393],[142.00308,-36.79381],[142.00279,-36.79375],[142.00232,-36.79369],[142.00203,-36.79366],[142.00162,-36.79363],[142.00101,-36.79357],[142.00033,-36.79352],[141.99945,-36.79343],[141.99869,-36.79334],[141.99832,-36.7933],[141.99789,-36.79324],[141.9972,-36.79319],[141.99605,-36.79307],[141.99499,-36.79297],[141.99351,-36.79283],[141.99173,-36.79266],[141.99074,-36.79256],[141.99033,-36.79252],[141.9712,-36.79064]]]},"properties":{"id":"26-27_Grading_Programme.126","Road_name":"Darragan Pit Rd","From":"Seal Ends","To":"Natimuk-Hamilton Rd"}},{"type":"Feature","id":109,"geometry":{"type":"MultiLineString","coordinates":[[[142.02549,-36.65649],[142.02548,-36.65854],[142.02551,-36.65892],[142.0255,-36.65927],[142.02545,-36.66133],[142.02545,-36.66166],[142.0255,-36.662],[142.02551,-36.66262],[142.02553,-36.66331],[142.02551,-36.66399],[142.02551,-36.66418]]]},"properties":{"id":"26-27_Grading_Programme.19","Road_name":"Sanders Rd","From":"Polkemmet Rd","To":"Pave Change (Entry to Residence 228)"}},{"type":"Feature","id":110,"geometry":{"type":"MultiLineString","coordinates":[[[142.08071,-36.6605],[142.08075,-36.66029],[142.08076,-36.65989],[142.08074,-36.65728],[142.08076,-36.65698],[142.08074,-36.65649],[142.08074,-36.65448],[142.08074,-36.65207],[142.08073,-36.64973],[142.08072,-36.64782],[142.08072,-36.64598],[142.08072,-36.6431],[142.08071,-36.64221]],[[142.0807,-36.64222],[142.08068,-36.64008],[142.08067,-36.63922]]]},"properties":{"id":"26-27_Grading_Programme.43","Road_name":"Nattrass Rd","From":"Polkemmet Rd","To":"Dahlen Quarry Rd"}},{"type":"Feature","id":111,"geometry":{"type":"MultiLineString","coordinates":[[[142.11678,-36.64521],[142.11678,-36.64424],[142.11674,-36.63921],[142.11673,-36.63911],[142.11675,-36.636],[142.11673,-36.63254]]]},"properties":{"id":"26-27_Grading_Programme.41","Road_name":"Remlaw Station Rd","From":"Pave Change","To":"Pave Change (Res. @ 11770)"}},{"type":"Feature","id":112,"geometry":{"type":"MultiLineString","coordinates":[[[142.13196,-36.62458],[142.13181,-36.62461],[142.13036,-36.62462],[142.12657,-36.62463]]]},"properties":{"id":"26-27_Grading_Programme.17","Road_name":"Reinheimers Rd","From":"Western Hwy","To":"Entry to Residence (48)"}},{"type":"Feature","id":113,"geometry":{"type":"MultiLineString","coordinates":[[[142.12511,-36.60985],[142.11843,-36.60987],[142.11135,-36.60991],[142.10643,-36.60993],[142.10277,-36.60995],[142.0948,-36.60997],[142.09295,-36.60999],[142.08943,-36.60999],[142.07938,-36.61002],[142.07419,-36.61002],[142.06995,-36.61003],[142.06638,-36.61004],[142.06179,-36.61005],[142.0592,-36.61006]]]},"properties":{"id":"26-27_Grading_Programme.36","Road_name":"Drendels Rd","From":"Western Hwy","To":"Ellis Rd"}},{"type":"Feature","id":114,"geometry":{"type":"MultiLineString","coordinates":[[[142.09871,-36.63916],[142.09867,-36.63197]]]},"properties":{"id":"26-27_Grading_Programme.18","Road_name":"Walshs Rd (Pimpinio)","From":"Dahlen Quarry Rd","To":"Pave Change (Entry to Residence 909)"}},{"type":"Feature","id":115,"geometry":{"type":"MultiLineString","coordinates":[[[142.13929,-36.63902],[142.13269,-36.63905],[142.12489,-36.63907],[142.11924,-36.63912],[142.11673,-36.63911],[142.11664,-36.63909],[142.10681,-36.63915],[142.09871,-36.63916],[142.08503,-36.63921],[142.08067,-36.63922],[142.07805,-36.63923],[142.07442,-36.63924],[142.07355,-36.63924],[142.07287,-36.63921],[142.06989,-36.63924],[142.06764,-36.63927],[142.06528,-36.63923],[142.0626,-36.63924]]]},"properties":{"id":"26-27_Grading_Programme.24","Road_name":"Dahlen Quarry Rd","From":"Western Hwy","To":"Courtneys Rd"}},{"type":"Feature","id":116,"geometry":{"type":"MultiLineString","coordinates":[[[142.0626,-36.63924],[142.06265,-36.63875],[142.06266,-36.63783],[142.06262,-36.63505],[142.06262,-36.63393],[142.06263,-36.63245],[142.06262,-36.63203],[142.06259,-36.62944],[142.06258,-36.62739],[142.06257,-36.62609],[142.06257,-36.62477]]]},"properties":{"id":"26-27_Grading_Programme.42","Road_name":"Courtneys Rd","From":"Dahlen Quarry Rd","To":"Reinheimers Rd"}},{"type":"Feature","id":117,"geometry":{"type":"MultiLineString","coordinates":[[[142.0719,-36.62476],[142.06257,-36.62477],[142.05921,-36.62481],[142.0536,-36.62483],[142.0487,-36.62485],[142.04799,-36.62485],[142.04735,-36.6248],[142.04552,-36.62481],[142.04452,-36.62483],[142.04252,-36.62485],[142.03975,-36.62488],[142.03705,-36.62485],[142.03003,-36.62487],[142.02557,-36.62486],[142.02526,-36.62484],[142.02493,-36.62488],[142.019,-36.62489],[142.01752,-36.62489]]]},"properties":{"id":"26-27_Grading_Programme.32","Road_name":"Reinheimers Rd","From":"Ellis Rd","To":"Entry to Residence (1015)"}},{"type":"Feature","id":118,"geometry":{"type":"MultiLineString","coordinates":[[[142.07786,-36.57661],[142.07772,-36.57693],[142.07736,-36.5775],[142.07606,-36.57937],[142.07433,-36.5819],[142.07381,-36.58259],[142.07238,-36.58426],[142.07178,-36.58497],[142.06931,-36.58783],[142.06709,-36.59043],[142.06623,-36.59144],[142.06563,-36.59205],[142.06518,-36.5924],[142.06321,-36.5935],[142.06189,-36.59422],[142.06078,-36.59485],[142.06027,-36.59524],[142.0598,-36.59569],[142.05932,-36.59627],[142.0592,-36.59643],[142.05912,-36.59657],[142.05855,-36.59717],[142.05815,-36.59756],[142.0574,-36.59819],[142.05162,-36.60299],[142.0497,-36.60458],[142.04348,-36.60974],[142.04312,-36.61005],[142.04138,-36.61147],[142.03944,-36.6131],[142.03734,-36.61485],[142.03554,-36.61635],[142.03343,-36.61807],[142.03273,-36.61866],[142.02887,-36.62186],[142.0263,-36.62397],[142.02526,-36.62484],[142.01291,-36.6351],[142.0112,-36.63652],[142.00792,-36.63929],[142.00697,-36.64006],[142.0057,-36.64113],[142.00513,-36.64159],[142.00224,-36.64402],[141.99932,-36.64646],[141.99736,-36.6481],[141.99107,-36.65336],[141.99063,-36.65379]]]},"properties":{"id":"26-27_Grading_Programme.27","Road_name":"Wail-Polkemmet Rd","From":"West Wail Rd","To":"Polkemmet Rd"}},{"type":"Feature","id":119,"geometry":{"type":"MultiLineString","coordinates":[[[142.05932,-36.59627],[142.05919,-36.59613],[142.05911,-36.59597],[142.05911,-36.59434],[142.05907,-36.58859],[142.05902,-36.58194],[142.05898,-36.57771],[142.05901,-36.57737],[142.059,-36.57666],[142.05901,-36.57582],[142.05899,-36.57304],[142.05895,-36.56835],[142.05899,-36.56794],[142.05898,-36.56761],[142.05894,-36.56703],[142.05893,-36.56159]],[[142.05921,-36.62481],[142.05922,-36.6198],[142.05917,-36.61019],[142.0592,-36.61006],[142.05918,-36.60986],[142.05917,-36.6085],[142.05918,-36.60586],[142.05914,-36.6009],[142.05912,-36.59657]]]},"properties":{"id":"26-27_Grading_Programme.35","Road_name":"Ellis Rd (Pimpinio)","From":"Reinheimers Rd","To":"Hinnebergs Rd"}},{"type":"Feature","id":120,"geometry":{"type":"MultiLineString","coordinates":[[[142.12479,-36.59368],[142.12124,-36.59373],[142.11683,-36.59377],[142.11367,-36.59381],[142.11181,-36.59384]]]},"properties":{"id":"26-27_Grading_Programme.10","Road_name":"Pimpinio West Rd","From":"Western Hwy","To":"Buloke Ln"}},{"type":"Feature","id":121,"geometry":{"type":"MultiLineString","coordinates":[[[142.12187,-36.5858],[142.12207,-36.58573],[142.12231,-36.58555],[142.12227,-36.58534],[142.12139,-36.58435]]]},"properties":{"id":"26-27_Grading_Programme.8","Road_name":"Station St East (Pimpinio)","From":"Seal Ends","To":"Ends around to left"}},{"type":"Feature","id":122,"geometry":{"type":"MultiLineString","coordinates":[[[142.11896,-36.58254],[142.12014,-36.58248],[142.12045,-36.58244],[142.12069,-36.58243],[142.1209,-36.58251],[142.12098,-36.58256],[142.12576,-36.58249],[142.12596,-36.5825]]]},"properties":{"id":"26-27_Grading_Programme.29","Road_name":"Pimpinio Tip Rd","From":"Seal Ends","To":"Verandah Swamp Rd"}},{"type":"Feature","id":123,"geometry":{"type":"MultiLineString","coordinates":[[[142.11952,-36.58708],[142.1185,-36.58757]]]},"properties":{"id":"26-27_Grading_Programme.9","Road_name":"Station St West (Pimpinio)","From":"Seal Ends (Entry to Residence)","To":"Pimpinio School Rd"}},{"type":"Feature","id":124,"geometry":{"type":"MultiLineString","coordinates":[[[142.12321,-36.58767],[142.12342,-36.58767],[142.12396,-36.58738]]]},"properties":{"id":"26-27_Grading_Programme.7","Road_name":"Miller St (Pimpinio)","From":"Pimpinio Rec. Res. Entrance","To":"Rail Crossing"}},{"type":"Feature","id":125,"geometry":{"type":"MultiLineString","coordinates":[[[142.11713,-36.58579],[142.11667,-36.58602],[142.11574,-36.58648],[142.11538,-36.58667],[142.11515,-36.58683],[142.11505,-36.58709],[142.11505,-36.5877]]]},"properties":{"id":"26-27_Grading_Programme.33","Road_name":"Fisher St (Pimpinio)","From":"Unnamed Rd 108","To":"Pimpinio School Rd"}},{"type":"Feature","id":126,"geometry":{"type":"MultiLineString","coordinates":[[[142.11181,-36.59384],[142.11177,-36.58979],[142.11176,-36.58286],[142.11173,-36.58262]]]},"properties":{"id":"26-27_Grading_Programme.34","Road_name":"Buloke Ln","From":"Pimpino West Rd","To":"West Wail Rd"}},{"type":"Feature","id":127,"geometry":{"type":"MultiLineString","coordinates":[[[142.11481,-36.58262],[142.11484,-36.58272],[142.11534,-36.58349],[142.11713,-36.58579],[142.11863,-36.58769]]]},"properties":{"id":"26-27_Grading_Programme.49","Road_name":"Pimpinio School Rd","From":"West Wail Rd","To":"End"}},{"type":"Feature","id":128,"geometry":{"type":"MultiLineString","coordinates":[[[142.12582,-36.57489],[142.12586,-36.57468],[142.12596,-36.57442],[142.12663,-36.57364],[142.12786,-36.572],[142.12798,-36.57173],[142.12802,-36.57144],[142.128,-36.57117],[142.12779,-36.57073],[142.12679,-36.569],[142.12667,-36.56882],[142.12654,-36.56873]]]},"properties":{"id":"26-27_Grading_Programme.47","Road_name":"Verandah Swamp Rd","From":"Pave Change (Entry to Residence 84)","To":"Guests Rd"}},{"type":"Feature","id":129,"geometry":{"type":"MultiLineString","coordinates":[[[142.11602,-36.56896],[142.11623,-36.56896],[142.11664,-36.56892],[142.11786,-36.56886],[142.11863,-36.56883],[142.12654,-36.56873]]]},"properties":{"id":"26-27_Grading_Programme.11","Road_name":"Guests Rd","From":"Western Hwy","To":"Verandah Swamp Rd"}},{"type":"Feature","id":130,"geometry":{"type":"MultiLineString","coordinates":[[[142.11595,-36.55388],[142.11616,-36.55387],[142.11625,-36.55385]]]},"properties":{"id":"26-27_Grading_Programme.30","Road_name":"Beddisons Rd (Wail)","From":"Railway Crossing","To":"Pave Ends (Entry to Residence 3)"}},{"type":"Feature","id":131,"geometry":{"type":"MultiLineString","coordinates":[[[142.11593,-36.56895],[142.11529,-36.56891],[142.11372,-36.56887],[142.11185,-36.56887],[142.10933,-36.5689],[142.10919,-36.56885],[142.10909,-36.56876],[142.10907,-36.56845],[142.1091,-36.56645],[142.10899,-36.56627],[142.10879,-36.56616],[142.10859,-36.56613],[142.10273,-36.56616],[142.10247,-36.56605],[142.10241,-36.56595],[142.10235,-36.56071],[142.10146,-36.56056],[142.10091,-36.56052],[142.099,-36.56054]]]},"properties":{"id":"26-27_Grading_Programme.26","Road_name":"Bartletts Rd","From":"Western Hwy","To":"Pave Change (Entry to Residence 242)"}},{"type":"Feature","id":132,"geometry":{"type":"MultiLineString","coordinates":[[[142.11462,-36.53903],[142.10597,-36.53905],[142.10483,-36.53907],[142.09154,-36.53909],[142.09132,-36.53911],[142.0911,-36.53919],[142.09075,-36.53942],[142.09051,-36.53949],[142.08943,-36.53948],[142.08805,-36.53949],[142.08581,-36.53948],[142.08402,-36.53948],[142.08317,-36.5395],[142.08118,-36.53947]]]},"properties":{"id":"26-27_Grading_Programme.25","Road_name":"Barbers Rd","From":"Western Hwy","To":"Wail-Polkemmet Rd"}},{"type":"Feature","id":133,"geometry":{"type":"MultiLineString","coordinates":[[[142.11815,-36.51102],[142.11814,-36.5112],[142.11807,-36.51136],[142.11309,-36.51834],[142.11303,-36.51856],[142.11309,-36.51887],[142.1135,-36.52289],[142.11368,-36.52434],[142.11395,-36.52703],[142.11406,-36.52825],[142.11452,-36.53269],[142.11488,-36.5364],[142.11502,-36.53803],[142.11566,-36.54436],[142.11587,-36.54628],[142.1159,-36.5469],[142.11593,-36.54977],[142.11607,-36.55388]]]},"properties":{"id":"26-27_Grading_Programme.31","Road_name":"Robins Rd","From":"Wail Kalkee Rd","To":"Beddisons Rd"}},{"type":"Feature","id":134,"geometry":{"type":"MultiLineString","coordinates":[[[142.11488,-36.5364],[142.11887,-36.53639],[142.12698,-36.53636],[142.13244,-36.53634],[142.14255,-36.53631],[142.1428,-36.5363],[142.14305,-36.53625],[142.14332,-36.53615],[142.14387,-36.53588]]]},"properties":{"id":"26-27_Grading_Programme.28","Road_name":"Hennessys Rd","From":"Robins Rd","To":"Wail-Dooen Rd"}},{"type":"Feature","id":135,"geometry":{"type":"MultiLineString","coordinates":[[[142.12377,-36.51617],[142.12063,-36.51315],[142.11947,-36.51211],[142.11853,-36.51137],[142.11827,-36.51123],[142.11815,-36.51102]]]},"properties":{"id":"26-27_Grading_Programme.1","Road_name":"Wail-Dooen Rd","From":"Pave Change (Entry to Res. 2018 @ 20110)","To":"Wail-Kalkee Rd"}},{"type":"Feature","id":136,"geometry":{"type":"MultiLineString","coordinates":[[[142.11815,-36.51102],[142.11832,-36.51093],[142.11847,-36.51082],[142.11863,-36.51069],[142.11871,-36.51047],[142.11871,-36.50604],[142.11871,-36.50311],[142.11869,-36.50107],[142.11864,-36.49951],[142.11861,-36.49793],[142.11844,-36.49272]]]},"properties":{"id":"26-27_Grading_Programme.50","Road_name":"Barbers Rd","From":"Wail-Kalkee Rd","To":"Wail East Rd (Council Boundary)"}},{"type":"Feature","id":137,"geometry":{"type":"MultiLineString","coordinates":[[[142.10046,-36.50891],[142.10021,-36.50935],[142.10011,-36.50955],[142.10011,-36.50976]]]},"properties":{"id":"26-27_Grading_Programme.21","Road_name":"Post Office Ln","From":"Seal Ends","To":"Watson St"}},{"type":"Feature","id":138,"geometry":{"type":"MultiLineString","coordinates":[[[142.09895,-36.50993],[142.10011,-36.50976]]]},"properties":{"id":"26-27_Grading_Programme.23","Road_name":"Watson St","From":"Pave Change (Entry to Residence)","To":"Post Office Ln"}},{"type":"Feature","id":139,"geometry":{"type":"MultiLineString","coordinates":[[[142.09705,-36.50705],[142.09653,-36.50799]]]},"properties":{"id":"26-27_Grading_Programme.22","Road_name":"Watson St","From":"Wail Nursery Rd","To":"Pave Change (Entry to Residence 11)"}},{"type":"Feature","id":140,"geometry":{"type":"MultiLineString","coordinates":[[[142.10294,-36.50617],[142.10243,-36.50622],[142.10221,-36.50629],[142.10196,-36.50642],[142.1018,-36.50659],[142.10172,-36.50677],[142.10168,-36.50687],[142.10163,-36.50703],[142.10155,-36.50722],[142.10148,-36.50721]]]},"properties":{"id":"26-27_Grading_Programme.20","Road_name":"Patterson Rd","From":"Seal Ends","To":"End Gravel"}},{"type":"Feature","id":141,"geometry":{"type":"MultiLineString","coordinates":[[[142.09977,-36.49281],[142.09768,-36.49281]]]},"properties":{"id":"26-27_Grading_Programme.12","Road_name":"Conn Rd","From":"Western Hwy","To":"Pave Change (Entry to Residence)"}},{"type":"Feature","id":142,"geometry":{"type":"MultiLineString","coordinates":[[[142.08423,-36.50055],[142.08178,-36.49975],[142.07796,-36.49833],[142.07341,-36.49672],[142.07142,-36.49596]]]},"properties":{"id":"26-27_Grading_Programme.13","Road_name":"Nursery Rd North","From":"Pave Starts","To":"Conn Rd"}},{"type":"Feature","id":143,"geometry":{"type":"MultiLineString","coordinates":[[[142.04084,-36.57211],[142.04086,-36.57189],[142.0409,-36.56968],[142.04087,-36.5679],[142.04089,-36.5648],[142.04087,-36.56213],[142.0409,-36.56192],[142.04099,-36.56175]]]},"properties":{"id":"26-27_Grading_Programme.16","Road_name":"Walter Rd","From":"West Wail Rd","To":"Hinnebergs Rd"}},{"type":"Feature","id":144,"geometry":{"type":"MultiLineString","coordinates":[[[142.0652,-36.56161],[142.06395,-36.56161],[142.06316,-36.56164],[142.06239,-36.56164],[142.06106,-36.56158],[142.05989,-36.56156],[142.05937,-36.5616],[142.05893,-36.56159],[142.05716,-36.56161],[142.0557,-36.56165],[142.05379,-36.56184],[142.05076,-36.56182],[142.04937,-36.56179],[142.04713,-36.56185],[142.04596,-36.56179],[142.04506,-36.56185],[142.04404,-36.56186],[142.0422,-36.56181],[142.04099,-36.56175],[142.04038,-36.56176],[142.03719,-36.56177],[142.03443,-36.56184],[142.03328,-36.56181],[142.03078,-36.56182],[142.02913,-36.56179],[142.02822,-36.5618],[142.02528,-36.56179],[142.01957,-36.56179],[142.01658,-36.56184]]]},"properties":{"id":"26-27_Grading_Programme.44","Road_name":"Hinnebergs Rd","From":"Entry to Residence (123)","To":"Pave Ends (Entry to Residence 571)"}},{"type":"Feature","id":145,"geometry":{"type":"MultiLineString","coordinates":[[[142.01952,-36.5747],[142.01951,-36.57453],[142.01953,-36.57325],[142.01951,-36.57091],[142.01959,-36.57026],[142.01958,-36.56967],[142.01953,-36.56934],[142.01953,-36.56916],[142.01954,-36.56857],[142.01955,-36.56815],[142.01957,-36.56179]]]},"properties":{"id":"26-27_Grading_Programme.15","Road_name":"Mervyn Rd","From":"West Wail Rd","To":"Hinnebergs Rd"}},{"type":"Feature","id":146,"geometry":{"type":"MultiLineString","coordinates":[[[142.01085,-36.57624],[142.00971,-36.57629],[142.00936,-36.57616],[142.00907,-36.57601],[142.0061,-36.5733],[142.00575,-36.57296],[142.00477,-36.57177],[142.00421,-36.57099]]]},"properties":{"id":"26-27_Grading_Programme.14","Road_name":"West Wail Rd","From":"Seal Ends","To":"National Park"}},{"type":"Feature","id":147,"geometry":{"type":"MultiLineString","coordinates":[[[142.019,-36.62489],[142.01895,-36.62452],[142.01896,-36.62335],[142.01897,-36.61994],[142.01899,-36.61878],[142.01896,-36.61792],[142.01895,-36.61774],[142.01892,-36.61764],[142.01882,-36.61761],[142.01708,-36.61762],[142.01565,-36.61762],[142.015,-36.61767],[142.01455,-36.61774],[142.01427,-36.61776],[142.01415,-36.61768],[142.01411,-36.61754],[142.01409,-36.61608],[142.01415,-36.6158],[142.0141,-36.61553],[142.0141,-36.61523]]]},"properties":{"id":"26-27_Grading_Programme.48","Road_name":"Sampsons Rd","From":"Reinheimers Rd","To":"Pave Ends"}},{"type":"Feature","id":148,"geometry":{"type":"MultiLineString","coordinates":[[[141.80381,-36.80277],[141.80432,-36.80371],[141.80435,-36.80378],[141.80441,-36.80387],[141.8045,-36.80396],[141.80454,-36.80399],[141.80459,-36.80399]]]},"properties":{"id":"26-27_Grading_Programme.153","Road_name":"Jacka Jacka Rd","From":"Wimmera Hwy","To":"Clear Lake-Shearwood Dam Rd"}},{"type":"Feature","id":149,"geometry":{"type":"MultiLineString","coordinates":[[[141.76459,-36.78357],[141.76441,-36.78352],[141.76402,-36.7835],[141.76264,-36.78335],[141.76164,-36.78324],[141.7611,-36.78316],[141.76039,-36.78307],[141.75987,-36.78303],[141.75858,-36.7829]]]},"properties":{"id":"26-27_Grading_Programme.106","Road_name":"Sutherlands Rd","From":"Worthys Rd","To":"Entry to Residence (57)"}}]}