{"type":"FeatureCollection","features":[{"type":"Feature","id":50,"geometry":{"type":"MultiLineString","coordinates":[[[142.3518,-36.53913],[142.35375,-36.53912],[142.35498,-36.53912]]]},"properties":{"id":"27-28_Grading_Programme.92","Road_name":"Smiths Rd (Jung)","From":"Pave Change (Entry to Residence 373)","To":"Pave Change (Entry to Residence 402)"}},{"type":"Feature","id":51,"geometry":{"type":"MultiLineString","coordinates":[[[142.31124,-36.53801],[142.31098,-36.53793],[142.30011,-36.53798],[142.28583,-36.53805],[142.27794,-36.53811],[142.2772,-36.5381]]]},"properties":{"id":"27-28_Grading_Programme.89","Road_name":"Shearwoods Rd","From":"Henty Hwy","To":"Dogwood Rd"}},{"type":"Feature","id":52,"geometry":{"type":"MultiLineString","coordinates":[[[142.32863,-36.48515],[142.30915,-36.48512],[142.29098,-36.48506],[142.29007,-36.48508],[142.28896,-36.48506],[142.28833,-36.48505]]]},"properties":{"id":"27-28_Grading_Programme.104","Road_name":"Byrneville West Rd","From":"Byrnes Rd","To":"Dogwood Rd"}},{"type":"Feature","id":53,"geometry":{"type":"MultiLineString","coordinates":[[[142.30915,-36.48512],[142.30915,-36.47555],[142.3092,-36.47021]]]},"properties":{"id":"27-28_Grading_Programme.98","Road_name":"Exells Quarry Rd","From":"Byrneville West Rd","To":"Old Minyip Rd"}},{"type":"Feature","id":54,"geometry":{"type":"MultiLineString","coordinates":[[[142.22087,-36.47],[142.23011,-36.47001],[142.2439,-36.47007],[142.2491,-36.47008],[142.26204,-36.47012],[142.26506,-36.47019],[142.26961,-36.47019],[142.27283,-36.4702],[142.28306,-36.47018],[142.29093,-36.47017],[142.3092,-36.47021],[142.31345,-36.47029],[142.315,-36.47028],[142.3151,-36.47028],[142.31528,-36.47028],[142.31627,-36.47034],[142.31749,-36.47042],[142.32749,-36.47041],[142.32851,-36.47043],[142.35198,-36.47049],[142.35385,-36.47046],[142.35509,-36.4703],[142.35552,-36.47034],[142.35618,-36.47047],[142.35652,-36.4705],[142.36719,-36.47049],[142.36814,-36.47038]]]},"properties":{"id":"27-28_Grading_Programme.91","Road_name":"Old Minyip Rd","From":"Blue Ribbon Rd","To":"Henty Hwy"}},{"type":"Feature","id":55,"geometry":{"type":"MultiLineString","coordinates":[[[142.29091,-36.48114],[142.29092,-36.48184],[142.2909,-36.48492],[142.29098,-36.48506]]]},"properties":{"id":"27-28_Grading_Programme.65","Road_name":"Byrneville West Slip Ln","From":"Dogwood Rd","To":"Byrneville West Rd"}},{"type":"Feature","id":56,"geometry":{"type":"MultiLineString","coordinates":[[[142.26955,-36.48019],[142.26963,-36.47041],[142.26961,-36.47019]]]},"properties":{"id":"27-28_Grading_Programme.71","Road_name":"Hermans Rd","From":"Pave Change (Entry to Residence)","To":"Old Minyip Rd"}},{"type":"Feature","id":57,"geometry":{"type":"MultiLineString","coordinates":[[[142.291,-36.45529],[142.29087,-36.45527],[142.27288,-36.45523],[142.2728,-36.45522],[142.26366,-36.45522],[142.26026,-36.45522],[142.25927,-36.45522],[142.25468,-36.45521],[142.24912,-36.45486],[142.24204,-36.45451],[142.24135,-36.45448],[142.24033,-36.45445],[142.23487,-36.45444],[142.22471,-36.45441],[142.22433,-36.45438]]]},"properties":{"id":"27-28_Grading_Programme.90","Road_name":"Kings Rd","From":"Dogwood Rd","To":"Blue Ribbon Rd"}},{"type":"Feature","id":58,"geometry":{"type":"MultiLineString","coordinates":[[[142.24308,-36.52339],[142.24304,-36.5107],[142.24304,-36.50341]]]},"properties":{"id":"27-28_Grading_Programme.86","Road_name":"Wollermans Rd","From":"Kalkee East Rd","To":"Pave Change (Entry to Residence 222)"}},{"type":"Feature","id":59,"geometry":{"type":"MultiLineString","coordinates":[[[142.23015,-36.53798],[142.23545,-36.53798],[142.2412,-36.53797]]]},"properties":{"id":"27-28_Grading_Programme.73","Road_name":"Kalkee School Rd","From":"Seal Ends","To":"Dooen North Rd"}},{"type":"Feature","id":60,"geometry":{"type":"MultiLineString","coordinates":[[[142.20801,-36.56281],[142.21282,-36.56284],[142.21319,-36.56281],[142.21363,-36.56274],[142.22297,-36.56078],[142.22985,-36.55933],[142.2304,-36.55926],[142.23112,-36.5592],[142.23153,-36.55917],[142.23194,-36.55908],[142.23253,-36.55894],[142.23344,-36.55868],[142.23471,-36.55834],[142.24096,-36.55696],[142.24112,-36.55696],[142.24124,-36.55696],[142.24141,-36.5569],[142.24932,-36.55527],[142.25737,-36.55355],[142.25751,-36.55353],[142.25765,-36.55352],[142.26203,-36.55354],[142.26403,-36.55357],[142.26543,-36.55365],[142.26549,-36.55364],[142.26596,-36.55365],[142.27732,-36.55359],[142.27922,-36.55358],[142.28697,-36.55351],[142.29132,-36.5534],[142.29906,-36.55315]]]},"properties":{"id":"27-28_Grading_Programme.78","Road_name":"Banyena Rd","From":"Blue Ribbon Rd","To":"Seal Starts"}},{"type":"Feature","id":59,"geometry":{"type":"MultiLineString","coordinates":[[[142.24132,-36.60789],[142.24132,-36.60768],[142.24133,-36.60671],[142.2413,-36.60423],[142.24132,-36.59997],[142.24129,-36.58454],[142.24128,-36.57478],[142.24128,-36.57398],[142.24126,-36.57125],[142.24127,-36.56349],[142.24126,-36.56014],[142.24124,-36.55696],[142.24121,-36.54438],[142.2412,-36.53797],[142.2412,-36.53091],[142.24117,-36.52837],[142.24116,-36.52368],[142.24115,-36.52341]]]},"properties":{"id":"27-28_Grading_Programme.82","Road_name":"Dooen North Rd","From":"Ladlows Rd","To":"Kalkee East Rd"}},{"type":"Feature","id":62,"geometry":{"type":"MultiLineString","coordinates":[[[142.28202,-36.58453],[142.28157,-36.5845],[142.27957,-36.58452],[142.27757,-36.58452],[142.26071,-36.58453],[142.25784,-36.58452],[142.2452,-36.58456],[142.24129,-36.58454],[142.24106,-36.58457],[142.2231,-36.58458],[142.20484,-36.58457]]]},"properties":{"id":"27-28_Grading_Programme.99","Road_name":"Finlaysons Rd","From":"Henty Hwy","To":"Blue Ribbon Rd"}},{"type":"Feature","id":63,"geometry":{"type":"MultiLineString","coordinates":[[[142.27732,-36.55359],[142.27728,-36.54974],[142.27724,-36.54434],[142.2772,-36.5381]]]},"properties":{"id":"27-28_Grading_Programme.70","Road_name":"Dogwood Rd","From":"Banyena Rd","To":"Shearwoods Rd"}},{"type":"Feature","id":64,"geometry":{"type":"MultiLineString","coordinates":[[[142.28043,-36.58853],[142.28527,-36.58857],[142.29657,-36.58863],[142.29666,-36.58864]]]},"properties":{"id":"27-28_Grading_Programme.102","Road_name":"Johns Rd","From":"Henty Hwy","To":"End Gravel"}},{"type":"Feature","id":65,"geometry":{"type":"MultiLineString","coordinates":[[[142.28527,-36.58857],[142.2854,-36.58872],[142.2854,-36.58931],[142.28537,-36.59196],[142.28536,-36.59372],[142.28532,-36.59628]]]},"properties":{"id":"27-28_Grading_Programme.62","Road_name":"Walsgotts Rd","From":"Johns Rd","To":"Pave Change (Entry to Residence)"}},{"type":"Feature","id":66,"geometry":{"type":"MultiLineString","coordinates":[[[142.30308,-36.63266],[142.30299,-36.62428]]]},"properties":{"id":"27-28_Grading_Programme.59","Road_name":"Max Johns Rd","From":"Wimmera Hwy","To":"End Gravel"}},{"type":"Feature","id":67,"geometry":{"type":"MultiLineString","coordinates":[[[142.26726,-36.61971],[142.26771,-36.6196],[142.26917,-36.61899]]]},"properties":{"id":"27-28_Grading_Programme.60","Road_name":"Greenhills Rd","From":"Henty Hwy","To":"Pave Change"}},{"type":"Feature","id":68,"geometry":{"type":"MultiLineString","coordinates":[[[142.16834,-36.56288],[142.17509,-36.56285]]]},"properties":{"id":"27-28_Grading_Programme.76","Road_name":"Guests Rd","From":"Geodetic Rd","To":"Wail-Dooen Rd"}},{"type":"Feature","id":69,"geometry":{"type":"MultiLineString","coordinates":[[[142.17509,-36.56285],[142.1737,-36.56171],[142.17114,-36.55951],[142.16863,-36.55734],[142.16837,-36.55708]]]},"properties":{"id":"27-28_Grading_Programme.67","Road_name":"Wail-Dooen Rd","From":"Motts Rd","To":"Geodetic Rd"}},{"type":"Feature","id":70,"geometry":{"type":"MultiLineString","coordinates":[[[142.17509,-36.56285],[142.17796,-36.56286],[142.18137,-36.56284],[142.18657,-36.5628],[142.19138,-36.56282],[142.20801,-36.56281]]]},"properties":{"id":"27-28_Grading_Programme.94","Road_name":"Motts Rd (Kalkee)","From":"Wail-Dooen Rd","To":"Blue Ribbon Rd"}},{"type":"Feature","id":71,"geometry":{"type":"MultiLineString","coordinates":[[[142.20246,-36.54717],[142.20065,-36.54712],[142.19921,-36.54711],[142.19131,-36.54714],[142.18946,-36.54713],[142.18882,-36.54715],[142.18848,-36.54714]]]},"properties":{"id":"27-28_Grading_Programme.80","Road_name":"Lawsons Rd","From":"Seal Ends","To":"Tonkins Rd"}},{"type":"Feature","id":72,"geometry":{"type":"MultiLineString","coordinates":[[[142.19914,-36.58574],[142.19864,-36.58486],[142.1985,-36.58464],[142.19834,-36.58441],[142.19778,-36.5839],[142.19558,-36.58199]]]},"properties":{"id":"27-28_Grading_Programme.66","Road_name":"Wail-Dooen Rd","From":"Bakers Rd","To":"Entry to Residence (1040)"}},{"type":"Feature","id":73,"geometry":{"type":"MultiLineString","coordinates":[[[142.20481,-36.58467],[142.19983,-36.58574],[142.19946,-36.58576],[142.19914,-36.58574]]]},"properties":{"id":"27-28_Grading_Programme.75","Road_name":"Bakers Rd (Pimpinio)","From":"Blue Ribbon Rd Rd","To":"Wail-Dooen Rd"}},{"type":"Feature","id":74,"geometry":{"type":"MultiLineString","coordinates":[[[142.2231,-36.58458],[142.22307,-36.58215]]]},"properties":{"id":"27-28_Grading_Programme.69","Road_name":"Kelly Rd","From":"Finlaysons Rd","To":"End Gravel (Entry to Residence )"}},{"type":"Feature","id":75,"geometry":{"type":"MultiLineString","coordinates":[[[142.19319,-36.4701],[142.19317,-36.46998],[142.19318,-36.46786],[142.19311,-36.45764],[142.19307,-36.45653]]]},"properties":{"id":"27-28_Grading_Programme.72","Road_name":"Thomas Rd","From":"Old Minyip Rd","To":"Entry to Residence (150)"}},{"type":"Feature","id":76,"geometry":{"type":"MultiLineString","coordinates":[[[142.18848,-36.54714],[142.18848,-36.53312],[142.18848,-36.5282],[142.18845,-36.51576],[142.18846,-36.51461],[142.18845,-36.5108],[142.18846,-36.50179],[142.18847,-36.49796],[142.18846,-36.49258],[142.18843,-36.48129],[142.18839,-36.47047],[142.18841,-36.47005]]]},"properties":{"id":"27-28_Grading_Programme.84","Road_name":"Tonkins Rd (Kalkee)","From":"Lawsons Rd","To":"Old Minyip Rd"}},{"type":"Feature","id":77,"geometry":{"type":"MultiLineString","coordinates":[[[142.15774,-36.52833],[142.15818,-36.52832],[142.16832,-36.5283],[142.18848,-36.5282]]]},"properties":{"id":"27-28_Grading_Programme.101","Road_name":"Reynolds Rd (Kalkee)","From":"Pave Change (Entry to Residence 402)","To":"Tonkins Rd"}},{"type":"Feature","id":78,"geometry":{"type":"MultiLineString","coordinates":[[[142.16837,-36.59461],[142.16835,-36.58576],[142.16833,-36.57574],[142.16834,-36.56288],[142.16834,-36.55823],[142.16836,-36.55729],[142.16837,-36.55708],[142.16839,-36.55695],[142.16833,-36.55675],[142.16834,-36.55367],[142.16834,-36.54721],[142.16832,-36.52843],[142.16832,-36.5283],[142.16832,-36.51089],[142.16832,-36.50007],[142.16832,-36.49273],[142.16836,-36.49259],[142.1664,-36.48714],[142.16571,-36.48508],[142.16464,-36.48193],[142.16456,-36.46961]]]},"properties":{"id":"27-28_Grading_Programme.79","Road_name":"Geodetic Rd","From":"Seal Ends","To":"Old Minyip Rd"}},{"type":"Feature","id":79,"geometry":{"type":"MultiLineString","coordinates":[[[142.09883,-36.66822],[142.09864,-36.66824],[142.09667,-36.66827],[142.09534,-36.66827],[142.09493,-36.66829],[142.09401,-36.66827],[142.09301,-36.66826]]]},"properties":{"id":"27-28_Grading_Programme.6","Road_name":"Boehms Rd","From":"Walshs Rd","To":"Pave Ends (Entry to Residence)"}},{"type":"Feature","id":80,"geometry":{"type":"MultiLineString","coordinates":[[[142.09883,-36.66822],[142.09886,-36.66815],[142.09887,-36.66804],[142.09886,-36.66709],[142.09882,-36.66647],[142.09881,-36.66217],[142.09879,-36.66181]]]},"properties":{"id":"27-28_Grading_Programme.0","Road_name":"Walshs Rd (Pimpinio)","From":"Boehms Rd","To":"Polkemmet Rd"}},{"type":"Feature","id":81,"geometry":{"type":"MultiLineString","coordinates":[[[142.08092,-36.68835],[142.08093,-36.69396],[142.08095,-36.69613],[142.08094,-36.69739]]]},"properties":{"id":"27-28_Grading_Programme.51","Road_name":"Lindners Rd","From":"Start Gravel (Entry to Residence)","To":"O Brees Rd"}},{"type":"Feature","id":82,"geometry":{"type":"MultiLineString","coordinates":[[[142.08626,-36.72646],[142.08108,-36.72649]]]},"properties":{"id":"27-28_Grading_Programme.1","Road_name":"Rudolphs Rd","From":"Pave Change (Entry to Residence 562)","To":"Lindners Rd"}},{"type":"Feature","id":83,"geometry":{"type":"MultiLineString","coordinates":[[[142.08108,-36.72649],[142.08109,-36.72854],[142.08111,-36.73085],[142.08112,-36.73352],[142.08116,-36.73902]]]},"properties":{"id":"27-28_Grading_Programme.55","Road_name":"Lindners Rd","From":"Rudolphs Rd","To":"Wimmera Hwy"}},{"type":"Feature","id":84,"geometry":{"type":"MultiLineString","coordinates":[[[142.11731,-36.73893],[142.11729,-36.73717],[142.11727,-36.73226],[142.11724,-36.72635],[142.11716,-36.71363],[142.11706,-36.69725],[142.11705,-36.69614],[142.11703,-36.69241],[142.117,-36.68824],[142.117,-36.68534],[142.117,-36.68272],[142.11698,-36.68114],[142.11697,-36.6786],[142.11695,-36.67527],[142.11692,-36.66994],[142.11689,-36.6638]]]},"properties":{"id":"27-28_Grading_Programme.37","Road_name":"Remlaw Station Rd","From":"Wimmera Hwy","To":"Polkemmet Rd"}},{"type":"Feature","id":85,"geometry":{"type":"MultiLineString","coordinates":[[[142.15963,-36.71347],[142.14854,-36.71351],[142.14207,-36.71354],[142.13734,-36.71356],[142.12891,-36.7136],[142.12615,-36.71361],[142.11716,-36.71363]]]},"properties":{"id":"27-28_Grading_Programme.38","Road_name":"Remlaw Rd","From":"Seal Ends","To":"Remlaw Station Rd"}},{"type":"Feature","id":86,"geometry":{"type":"MultiLineString","coordinates":[[[142.13515,-36.6972],[142.13513,-36.69654],[142.13508,-36.68603],[142.13506,-36.68496]]]},"properties":{"id":"27-28_Grading_Programme.45","Road_name":"Keatings Rd","From":"O Brees Rd","To":"End Gravel"}},{"type":"Feature","id":87,"geometry":{"type":"MultiLineString","coordinates":[[[142.12412,-36.68268],[142.12389,-36.68263],[142.12367,-36.68263],[142.12184,-36.68264],[142.11851,-36.68265],[142.11714,-36.68266],[142.117,-36.68272]]]},"properties":{"id":"27-28_Grading_Programme.5","Road_name":"Three Mile Rd","From":"Pave Change (Entry to Residence 334)","To":"Remlaw Station Rd"}},{"type":"Feature","id":88,"geometry":{"type":"MultiLineString","coordinates":[[[142.23442,-36.68231],[142.23421,-36.68226],[142.23406,-36.68225],[142.23273,-36.68225],[142.22816,-36.68228],[142.22347,-36.68229],[142.21269,-36.68233],[142.20212,-36.68238]]]},"properties":{"id":"27-28_Grading_Programme.83","Road_name":"Gatehouse Rd","From":"Henty Hwy","To":"Blue Ribbon Rd"}},{"type":"Feature","id":89,"geometry":{"type":"MultiLineString","coordinates":[[[142.22291,-36.69679],[142.22291,-36.6966],[142.22305,-36.69638],[142.22334,-36.6961],[142.22346,-36.69594],[142.22354,-36.69578],[142.22358,-36.69553],[142.22351,-36.68835],[142.22347,-36.68229]]]},"properties":{"id":"27-28_Grading_Programme.97","Road_name":"Dooen South Rd","From":"Rasmussen Rd","To":"Gatehouse Rd"}},{"type":"Feature","id":90,"geometry":{"type":"MultiLineString","coordinates":[[[142.2235,-36.70744],[142.22369,-36.70733],[142.22394,-36.70728],[142.22412,-36.70711],[142.22429,-36.70663],[142.22443,-36.70615],[142.22474,-36.70565],[142.22515,-36.70502],[142.22526,-36.70465],[142.22529,-36.70436],[142.22703,-36.70438],[142.22735,-36.7043],[142.22765,-36.70403],[142.22824,-36.70334],[142.22863,-36.70286],[142.22911,-36.70226],[142.22918,-36.7022],[142.23008,-36.70141],[142.23062,-36.70096],[142.23084,-36.70078],[142.23122,-36.70066],[142.23191,-36.70058],[142.23227,-36.70039],[142.23286,-36.70014],[142.23347,-36.69969],[142.23373,-36.69939],[142.23381,-36.69906],[142.23382,-36.69856],[142.23389,-36.69835],[142.23457,-36.69782],[142.23497,-36.69759],[142.23553,-36.69718],[142.23562,-36.69709],[142.2356,-36.69698],[142.23552,-36.69693],[142.23531,-36.6969],[142.23506,-36.69689],[142.23487,-36.69689]]]},"properties":{"id":"27-28_Grading_Programme.88","Road_name":"Petrie Ln","From":"Cameron Rd North","To":"Seal Starts"}},{"type":"Feature","id":91,"geometry":{"type":"MultiLineString","coordinates":[[[142.169,-36.74108],[142.16897,-36.74173]]]},"properties":{"id":"27-28_Grading_Programme.157","Road_name":"Pearsons Rd","From":"Gate (Horsham Sewerage Treatment Works)","To":"Kenny Rd"}},{"type":"Feature","id":92,"geometry":{"type":"MultiLineString","coordinates":[[[142.19041,-36.78229],[142.18723,-36.78227],[142.18662,-36.78229],[142.18584,-36.7823],[142.18551,-36.78222],[142.18513,-36.78219],[142.18468,-36.78227],[142.18429,-36.78228],[142.18317,-36.78224],[142.18256,-36.7822],[142.18113,-36.78228],[142.18042,-36.78224],[142.17973,-36.78221],[142.17955,-36.78219],[142.17929,-36.78151],[142.17911,-36.78124],[142.17908,-36.78079],[142.1792,-36.78038],[142.17904,-36.77998],[142.17835,-36.77899],[142.17781,-36.77833]]]},"properties":{"id":"27-28_Grading_Programme.186","Road_name":"Clynes Rd West","From":"Pave Change (Entry to Residence)","To":"Henty Hwy"}},{"type":"Feature","id":93,"geometry":{"type":"MultiLineString","coordinates":[[[142.18744,-36.75293],[142.1875,-36.74853]]]},"properties":{"id":"27-28_Grading_Programme.160","Road_name":"Watsons Ln","From":"Plozzas Rd","To":"Gate"}},{"type":"Feature","id":94,"geometry":{"type":"MultiLineString","coordinates":[[[142.21244,-36.75305],[142.21635,-36.75306],[142.22093,-36.75306],[142.22386,-36.75306]]]},"properties":{"id":"27-28_Grading_Programme.161","Road_name":"Holes Rd","From":"Grahams Bridge Rd","To":"Pave Change"}},{"type":"Feature","id":95,"geometry":{"type":"MultiLineString","coordinates":[[[142.20094,-36.76767],[142.20515,-36.76769]]]},"properties":{"id":"27-28_Grading_Programme.162","Road_name":"Mackies Rd","From":"End of Seal","To":"Old Hamilton Rd"}},{"type":"Feature","id":96,"geometry":{"type":"MultiLineString","coordinates":[[[142.20511,-36.78216],[142.20314,-36.78229],[142.20077,-36.78231],[142.19956,-36.78213],[142.19844,-36.78202],[142.19769,-36.78185],[142.19719,-36.78182],[142.19671,-36.78181],[142.19595,-36.78174],[142.19535,-36.78169]]]},"properties":{"id":"27-28_Grading_Programme.163","Road_name":"Bakers Rd (Haven)","From":"Old Hamilton Rd","To":"Seal Starts"}},{"type":"Feature","id":97,"geometry":{"type":"MultiLineString","coordinates":[[[142.20505,-36.78894],[142.20504,-36.78963],[142.20502,-36.78987],[142.20489,-36.79008],[142.20451,-36.79035],[142.20394,-36.79075],[142.20348,-36.7911],[142.20312,-36.79145],[142.20285,-36.79172],[142.20258,-36.79192],[142.20192,-36.79239],[142.20124,-36.79294],[142.20065,-36.79342],[142.20011,-36.79391],[142.19961,-36.79439],[142.19927,-36.79459],[142.19875,-36.79481],[142.19813,-36.79516],[142.19811,-36.79516],[142.19758,-36.79554],[142.19623,-36.79656],[142.19583,-36.79685],[142.19486,-36.79754],[142.19395,-36.79821],[142.19373,-36.7984],[142.1921,-36.79964],[142.18864,-36.80219],[142.18673,-36.80366],[142.18495,-36.80493],[142.18422,-36.80552],[142.18291,-36.80651],[142.18246,-36.80686],[142.18203,-36.80723],[142.18186,-36.80756],[142.18105,-36.80834],[142.18049,-36.8087],[142.17995,-36.80898],[142.17989,-36.8094],[142.17992,-36.80971],[142.17997,-36.81003],[142.17995,-36.8101]]]},"properties":{"id":"27-28_Grading_Programme.178","Road_name":"Old Hamilton Rd","From":"Seal Ends","To":"Mc Kenzie Creek Reserve Rd"}},{"type":"Feature","id":98,"geometry":{"type":"MultiLineString","coordinates":[[[142.20511,-36.78216],[142.20541,-36.7821],[142.21041,-36.78212],[142.21145,-36.78225],[142.21229,-36.78224]]]},"properties":{"id":"27-28_Grading_Programme.164","Road_name":"Clynes Rd","From":"Old Hamilton Rd","To":"Grahams Bridge Rd"}},{"type":"Feature","id":99,"geometry":{"type":"MultiLineString","coordinates":[[[142.21232,-36.77313],[142.21228,-36.78201],[142.21229,-36.78224],[142.21227,-36.78948],[142.21223,-36.79702]]]},"properties":{"id":"27-28_Grading_Programme.185","Road_name":"Grahams Bridge Rd","From":"Seal Ends","To":"Reynolds Rd"}}]}