{"type":"FeatureCollection","features":[{"type":"Feature","id":100,"geometry":{"type":"MultiLineString","coordinates":[[[142.25798,-36.79713],[142.24872,-36.79712],[142.24285,-36.79707],[142.24256,-36.79709],[142.24227,-36.79714],[142.24198,-36.79714],[142.23053,-36.79708],[142.21223,-36.79702],[142.20783,-36.797],[142.20647,-36.79699],[142.2059,-36.79704],[142.20542,-36.79704],[142.2051,-36.79702],[142.20448,-36.79703],[142.19676,-36.79699],[142.1963,-36.79697],[142.19611,-36.79695],[142.19601,-36.79691],[142.19594,-36.79686],[142.19586,-36.79682]]]},"properties":{"id":"27-28_Grading_Programme.179","Road_name":"Reynolds Rd (Bungalally)","From":"Pave Change (Entry to Residence 241)","To":"Old Hamilton Rd"}},{"type":"Feature","id":101,"geometry":{"type":"MultiLineString","coordinates":[[[142.23439,-36.82647],[142.23036,-36.82644]]]},"properties":{"id":"27-28_Grading_Programme.167","Road_name":"Eagles Rd","From":"Pave Change","To":"Laharum Rd"}},{"type":"Feature","id":102,"geometry":{"type":"MultiLineString","coordinates":[[[142.19378,-36.81161],[142.1939,-36.80371],[142.19398,-36.79886],[142.19386,-36.7986],[142.19384,-36.79851],[142.19373,-36.7984]]]},"properties":{"id":"27-28_Grading_Programme.187","Road_name":"Pennys Rd","From":"Exells Rd","To":"Old Hamilton Rd"}},{"type":"Feature","id":103,"geometry":{"type":"MultiLineString","coordinates":[[[142.18087,-36.81115],[142.18101,-36.81142],[142.18118,-36.81172],[142.18181,-36.81262],[142.18225,-36.81326],[142.18243,-36.81373],[142.18253,-36.81411]]]},"properties":{"id":"27-28_Grading_Programme.197","Road_name":"Mc Kenzie Ck Reserve Rd","From":"Exells Rd","To":"Entry to Residence (101)"}},{"type":"Feature","id":104,"geometry":{"type":"MultiLineString","coordinates":[[[142.18722,-36.78729],[142.18721,-36.78981]]]},"properties":{"id":"27-28_Grading_Programme.176","Road_name":"Hardinghams Rd","From":"End of Seal","To":"Property Entrance"}},{"type":"Feature","id":105,"geometry":{"type":"MultiLineString","coordinates":[[[142.17397,-36.79945],[142.15488,-36.79936]]]},"properties":{"id":"27-28_Grading_Programme.156","Road_name":"A Smiths Rd","From":"Henty Hwy","To":"Walshs Rd"}},{"type":"Feature","id":106,"geometry":{"type":"MultiLineString","coordinates":[[[142.1671,-36.78217],[142.16717,-36.78654],[142.16726,-36.78914],[142.16727,-36.78926]]]},"properties":{"id":"27-28_Grading_Programme.175","Road_name":"Curran Rd (McKenzie Creek)","From":"Nunkerri Rd","To":"Fence & Gate"}},{"type":"Feature","id":107,"geometry":{"type":"MultiLineString","coordinates":[[[142.15518,-36.78207],[142.15493,-36.7821],[142.15487,-36.7822],[142.15489,-36.78239]]]},"properties":{"id":"27-28_Grading_Programme.158","Road_name":"Walshs Rd (Mc Kenzie Crk)","From":"Start Gravel","To":"Nunkerri Rd"}},{"type":"Feature","id":108,"geometry":{"type":"MultiLineString","coordinates":[[[142.15487,-36.79508],[142.15486,-36.79646],[142.15485,-36.79811],[142.15488,-36.79936]]]},"properties":{"id":"27-28_Grading_Programme.159","Road_name":"Walshs Rd (Mc Kenzie Crk)","From":"A Smiths Rd","To":"Pave Change"}},{"type":"Feature","id":109,"geometry":{"type":"MultiLineString","coordinates":[[[142.13245,-36.75573],[142.13296,-36.75564],[142.13418,-36.75551],[142.13538,-36.75536],[142.13551,-36.7552],[142.13549,-36.75502],[142.13545,-36.75467],[142.13543,-36.75194],[142.1354,-36.75117],[142.13543,-36.74981],[142.13538,-36.7495]]]},"properties":{"id":"27-28_Grading_Programme.48","Road_name":"Fultons Rd Extension","From":"Three Bridges Rd","To":"Pave Change (Entry to Residence)"}},{"type":"Feature","id":110,"geometry":{"type":"MultiLineString","coordinates":[[[142.09956,-36.777],[142.09954,-36.77579]]]},"properties":{"id":"27-28_Grading_Programme.23","Road_name":"Tuckers Rd South (Vectis)","From":"Horsham-Noradjuha Rd","To":"Pave Ends (Entry to Residence 13)"}},{"type":"Feature","id":111,"geometry":{"type":"MultiLineString","coordinates":[[[142.09922,-36.73917],[142.09933,-36.75554],[142.09928,-36.75752],[142.09931,-36.75781],[142.09933,-36.75861],[142.09933,-36.76001],[142.09936,-36.76085],[142.09937,-36.76225],[142.09939,-36.76454],[142.09941,-36.76601],[142.09939,-36.7674]]]},"properties":{"id":"27-28_Grading_Programme.40","Road_name":"Tuckers Rd North (Vectis)","From":"Wimmera Hwy","To":"Pave Change"}},{"type":"Feature","id":112,"geometry":{"type":"MultiLineString","coordinates":[[[142.09933,-36.75554],[142.09794,-36.75552],[142.0973,-36.75552],[142.09398,-36.75553],[142.09095,-36.75555],[142.08723,-36.75556],[142.08604,-36.75557],[142.08567,-36.75558],[142.08506,-36.75562],[142.08287,-36.75559],[142.08124,-36.75559],[142.08038,-36.75558],[142.07958,-36.75559],[142.0785,-36.75561],[142.07674,-36.75558],[142.07591,-36.75559],[142.0751,-36.75562],[142.07401,-36.75563],[142.0735,-36.75562],[142.07281,-36.7556],[142.07162,-36.7556],[142.06969,-36.75561],[142.06703,-36.75563],[142.06316,-36.75564],[142.0612,-36.75563],[142.06006,-36.75566],[142.0574,-36.75567],[142.05469,-36.7557],[142.05427,-36.75569],[142.05358,-36.75567],[142.05322,-36.75567],[142.05295,-36.75568],[142.05252,-36.7557],[142.05205,-36.75572],[142.05174,-36.75569],[142.05141,-36.75567],[142.05102,-36.75567],[142.05064,-36.7557],[142.04899,-36.7557],[142.04677,-36.75568],[142.04507,-36.75571]]]},"properties":{"id":"27-28_Grading_Programme.39","Road_name":"Lanes Ave","From":"Tuckers Rd","To":"Hutchinsons Rd"}},{"type":"Feature","id":113,"geometry":{"type":"MultiLineString","coordinates":[[[142.08133,-36.7687],[142.08139,-36.76994]]]},"properties":{"id":"27-28_Grading_Programme.54","Road_name":"Lindners Rd","From":"Lindners Rd","To":"Gate"}},{"type":"Feature","id":114,"geometry":{"type":"MultiLineString","coordinates":[[[142.04515,-36.76897],[142.04515,-36.76906],[142.04515,-36.76986],[142.04516,-36.77004],[142.04516,-36.77012],[142.04522,-36.77022],[142.04535,-36.77027],[142.0455,-36.77027],[142.04748,-36.77026],[142.04938,-36.77026],[142.05004,-36.77024],[142.05072,-36.77023],[142.05102,-36.77026],[142.05125,-36.77027],[142.05143,-36.77024],[142.05162,-36.7702],[142.05201,-36.77019],[142.05236,-36.77022],[142.05252,-36.77026]]]},"properties":{"id":"27-28_Grading_Programme.21","Road_name":"Hutchinsons Rd (Quantong)","From":"Seal Ends","To":"Pave Ends (Entry to Res. @ 4120)"}},{"type":"Feature","id":115,"geometry":{"type":"MultiLineString","coordinates":[[[142.06321,-36.76358],[142.06324,-36.76428],[142.06322,-36.76492],[142.06321,-36.76546],[142.06323,-36.76593],[142.06323,-36.7661],[142.0632,-36.7663],[142.06315,-36.76653],[142.06314,-36.76667],[142.06295,-36.76695],[142.06293,-36.76708],[142.06295,-36.76738],[142.06286,-36.76791],[142.06285,-36.768],[142.06285,-36.76813],[142.06293,-36.76834],[142.06313,-36.76859],[142.06322,-36.76869],[142.06329,-36.76883],[142.0633,-36.76894],[142.06326,-36.7692],[142.06324,-36.76934],[142.06323,-36.76966],[142.06322,-36.77024]]]},"properties":{"id":"27-28_Grading_Programme.22","Road_name":"Pelchens Rd","From":"Seal Ends","To":"Pave Ends"}},{"type":"Feature","id":116,"geometry":{"type":"MultiLineString","coordinates":[[[142.02831,-36.74177],[142.03111,-36.74175],[142.03279,-36.74176],[142.03321,-36.74172],[142.03334,-36.74175],[142.0334,-36.74179],[142.03342,-36.74186],[142.03337,-36.74193],[142.03325,-36.74194],[142.03314,-36.74188],[142.03297,-36.7418],[142.03279,-36.74176]]]},"properties":{"id":"27-28_Grading_Programme.43","Road_name":"Jones Ln","From":"Asplins Rd","To":"End (Entry to Residence)"}},{"type":"Feature","id":117,"geometry":{"type":"MultiLineString","coordinates":[[[142.04514,-36.76865],[142.04471,-36.76866],[142.04422,-36.76864],[142.04348,-36.76868],[142.04215,-36.76873],[142.04096,-36.76878],[142.04045,-36.76887],[142.03934,-36.76909],[142.03866,-36.76922],[142.03847,-36.76924],[142.03823,-36.76924],[142.03769,-36.76922],[142.03731,-36.76923],[142.03679,-36.76926],[142.03618,-36.76928],[142.03586,-36.76929],[142.03539,-36.76939],[142.03451,-36.76953],[142.0344,-36.76953],[142.03418,-36.76944],[142.03405,-36.76942],[142.03374,-36.76932],[142.03358,-36.76921],[142.03326,-36.76901],[142.03312,-36.76896],[142.033,-36.76897],[142.03275,-36.76897],[142.03243,-36.76892],[142.03229,-36.76889],[142.03211,-36.76889],[142.03163,-36.76904],[142.03029,-36.76951],[142.03012,-36.7696],[142.0296,-36.76972]]]},"properties":{"id":"27-28_Grading_Programme.42","Road_name":"Netherway Dr","From":"Hutchinsons Rd","To":"Eltze Dr"}},{"type":"Feature","id":118,"geometry":{"type":"MultiLineString","coordinates":[[[142.02831,-36.74069],[142.02659,-36.74072],[142.02374,-36.74072],[142.02266,-36.74072],[142.02061,-36.74073],[142.01885,-36.74073]]]},"properties":{"id":"27-28_Grading_Programme.41","Road_name":"Robertson Ave","From":"Asplins Rd","To":"Hughes Rd"}},{"type":"Feature","id":119,"geometry":{"type":"MultiLineString","coordinates":[[[141.99438,-36.75571],[142.00092,-36.75572],[142.00389,-36.75572],[142.00493,-36.75572],[142.00619,-36.75571],[142.0065,-36.75572],[142.00685,-36.75575]]]},"properties":{"id":"27-28_Grading_Programme.19","Road_name":"Hateleys Rd","From":"Seal Ends","To":"Ends at Residence"}},{"type":"Feature","id":120,"geometry":{"type":"MultiLineString","coordinates":[[[141.91925,-36.79698],[141.91918,-36.79712],[141.91914,-36.79725],[141.91893,-36.79871],[141.9187,-36.80003],[141.91853,-36.80127],[141.91839,-36.80223],[141.91824,-36.80326]]]},"properties":{"id":"27-28_Grading_Programme.24","Road_name":"Hammonds Rd","From":"Hammond Mc Cuish Rd","To":"Entry to Residence"}},{"type":"Feature","id":121,"geometry":{"type":"MultiLineString","coordinates":[[[141.93113,-36.80705],[141.93117,-36.80699],[141.93121,-36.80696],[141.93127,-36.80687],[141.9313,-36.80676],[141.93131,-36.8066],[141.93132,-36.80567],[141.93131,-36.80519],[141.93126,-36.80465],[141.93128,-36.80392],[141.9313,-36.80228],[141.93128,-36.80063],[141.93127,-36.80034],[141.93125,-36.80004],[141.93125,-36.79988],[141.93128,-36.79953],[141.9313,-36.79879],[141.9313,-36.79804],[141.93131,-36.7978],[141.93133,-36.7977],[141.9314,-36.79754],[141.93243,-36.79591],[141.93337,-36.79445],[141.93389,-36.79366],[141.93415,-36.79323],[141.93421,-36.79311],[141.93423,-36.79301],[141.93426,-36.79277],[141.93426,-36.79069],[141.93427,-36.79056],[141.93429,-36.78513],[141.93429,-36.78168],[141.93431,-36.78112],[141.9343,-36.78095],[141.9343,-36.77611],[141.93434,-36.7759],[141.9345,-36.77571],[141.93518,-36.77508],[141.94206,-36.76854],[141.94241,-36.76819],[141.94244,-36.76803],[141.94236,-36.76211],[141.94227,-36.75624],[141.9423,-36.75613],[141.94246,-36.75605]]]},"properties":{"id":"27-28_Grading_Programme.29","Road_name":"Keytes Rd","From":"Hammond Mccuish Rd","To":"J Sudholz Rd"}},{"type":"Feature","id":122,"geometry":{"type":"MultiLineString","coordinates":[[[141.96625,-36.75587],[141.96393,-36.75589],[141.9628,-36.7559],[141.95165,-36.75598],[141.95119,-36.75598],[141.94246,-36.75605]]]},"properties":{"id":"27-28_Grading_Programme.32","Road_name":"J Sudholz Rd","From":"Natimuk-Hamilton Rd","To":"Keytes Rd"}},{"type":"Feature","id":123,"geometry":{"type":"MultiLineString","coordinates":[[[141.95105,-36.74294],[141.95105,-36.74299],[141.95119,-36.75598]]]},"properties":{"id":"27-28_Grading_Programme.15","Road_name":"Old Noradjuha Rd","From":"End of Seal","To":"J Sudholz Rd"}},{"type":"Feature","id":124,"geometry":{"type":"MultiLineString","coordinates":[[[141.96907,-36.76782],[141.94786,-36.76798],[141.94244,-36.76803]]]},"properties":{"id":"27-28_Grading_Programme.16","Road_name":"Browns Rd (Natimuk)","From":"Natimuk-Hamilton Rd","To":"Keytes Rd"}},{"type":"Feature","id":125,"geometry":{"type":"MultiLineString","coordinates":[[[141.96992,-36.77126],[141.97159,-36.77125],[141.97339,-36.77125],[141.98406,-36.77123]]]},"properties":{"id":"27-28_Grading_Programme.20","Road_name":"Moody School Rd","From":"Natimuk-Hamilton Rd","To":"Gym Club Rd"}},{"type":"Feature","id":126,"geometry":{"type":"MultiLineString","coordinates":[[[141.94227,-36.69256],[141.94246,-36.69251],[141.94308,-36.69239],[141.94825,-36.69144],[141.96051,-36.68918]]]},"properties":{"id":"27-28_Grading_Programme.10","Road_name":"Natimuk Lake School Rd","From":"Lake Rd","To":"Polkemmet Rd"}},{"type":"Feature","id":127,"geometry":{"type":"MultiLineString","coordinates":[[[141.94536,-36.73215],[141.94547,-36.73187],[141.94556,-36.73174],[141.94569,-36.73159],[141.94584,-36.73146],[141.94603,-36.73133],[141.94693,-36.73086],[141.94893,-36.72985],[141.94951,-36.72956],[141.95093,-36.72852],[141.95187,-36.72783],[141.95221,-36.72762],[141.95243,-36.72746],[141.9525,-36.7273],[141.95247,-36.72718],[141.95241,-36.72709],[141.95225,-36.72693],[141.95206,-36.72676],[141.9505,-36.72511],[141.94971,-36.72426],[141.94854,-36.72293],[141.94809,-36.72242],[141.94791,-36.72227],[141.94766,-36.72222],[141.94689,-36.72222],[141.94562,-36.72221],[141.94516,-36.72206],[141.94488,-36.72185],[141.94476,-36.72172],[141.94422,-36.72087],[141.94402,-36.72069],[141.94359,-36.7204],[141.9423,-36.71954],[141.94211,-36.71944],[141.94183,-36.7194],[141.94152,-36.71941],[141.9411,-36.7194],[141.94088,-36.71932],[141.9406,-36.71916],[141.94042,-36.71901],[141.94036,-36.71884],[141.94055,-36.71856],[141.9405,-36.71844],[141.94038,-36.71836],[141.93932,-36.71769],[141.93915,-36.71758],[141.93903,-36.71747],[141.93893,-36.71725],[141.93888,-36.71704],[141.9389,-36.71674],[141.93894,-36.71639],[141.93895,-36.71584],[141.93891,-36.71544]]]},"properties":{"id":"27-28_Grading_Programme.30","Road_name":"Lake Ave","From":"Seal Ends","To":"Entry to Natimuk Lake Toilets"}},{"type":"Feature","id":128,"geometry":{"type":"MultiLineString","coordinates":[[[141.92818,-36.6915],[141.92817,-36.6914],[141.92819,-36.69132],[141.92825,-36.69123],[141.9287,-36.69076],[141.92898,-36.6905],[141.92912,-36.69039],[141.92926,-36.69029],[141.92961,-36.69008],[141.93022,-36.68976],[141.93099,-36.68936],[141.9317,-36.68901],[141.93227,-36.68881],[141.93439,-36.68873],[141.93451,-36.68869]]]},"properties":{"id":"27-28_Grading_Programme.31","Road_name":"Lake Ave","From":"Start Gravel","To":"Lake Rd"}},{"type":"Feature","id":129,"geometry":{"type":"MultiLineString","coordinates":[[[141.93223,-36.6776],[141.93097,-36.67762],[141.92979,-36.67763],[141.92008,-36.6776],[141.91914,-36.67759],[141.91901,-36.67761],[141.91891,-36.67766],[141.91887,-36.67776],[141.91886,-36.67783],[141.91947,-36.67967],[141.91992,-36.68117],[141.92019,-36.68198],[141.92026,-36.68207],[141.92042,-36.68229],[141.92082,-36.68268],[141.92077,-36.68283],[141.92062,-36.68288],[141.91977,-36.68288],[141.9163,-36.68288]]]},"properties":{"id":"27-28_Grading_Programme.49","Road_name":"Kuhne Rd","From":"Lake Rd","To":"Wyn Wyn Rd"}},{"type":"Feature","id":130,"geometry":{"type":"MultiLineString","coordinates":[[[142.0169,-36.72992],[142.01639,-36.72941],[142.0153,-36.72771],[142.01422,-36.72598],[142.0135,-36.72483],[142.01252,-36.72321],[142.01229,-36.72293],[142.01212,-36.72283],[142.01167,-36.72255],[142.0112,-36.72223],[142.01109,-36.72203],[142.01105,-36.72183],[142.01104,-36.7209],[142.01106,-36.72],[142.01106,-36.71802],[142.01108,-36.71613],[142.01108,-36.71442],[142.01109,-36.71237],[142.01111,-36.71051],[142.01111,-36.70908],[142.01112,-36.70665],[142.01109,-36.70452],[142.01108,-36.70314],[142.01109,-36.70237],[142.01109,-36.70129],[142.01108,-36.69918],[142.01102,-36.69763],[142.01056,-36.69624],[142.01037,-36.69574],[142.00955,-36.69392],[142.00878,-36.69225],[142.0086,-36.69182],[142.00805,-36.69062],[142.00571,-36.68555],[142.00496,-36.68392],[142.00487,-36.68376],[142.00449,-36.68302],[142.00372,-36.68128],[142.00219,-36.67804],[142.00144,-36.67634],[142.00085,-36.67513],[142.00017,-36.67386],[141.99978,-36.67304],[141.99903,-36.67151],[141.99872,-36.67085],[141.9971,-36.66743],[141.99603,-36.66519],[141.99577,-36.66467],[141.99469,-36.66242],[141.99383,-36.66064],[141.99348,-36.65989],[141.9926,-36.65809],[141.99149,-36.65576],[141.99115,-36.65505],[141.99075,-36.65425],[141.99063,-36.65397],[141.99063,-36.65379]]]},"properties":{"id":"27-28_Grading_Programme.36","Road_name":"Quantong-Polkemmet Rd","From":"Seal Ends","To":"Polkemmet Rd"}},{"type":"Feature","id":131,"geometry":{"type":"MultiLineString","coordinates":[[[142.01102,-36.69763],[141.99165,-36.69769],[141.98795,-36.6977],[141.98374,-36.6977],[141.98158,-36.6977],[141.97606,-36.69771],[141.97534,-36.6977],[141.9751,-36.69773],[141.97491,-36.69781],[141.97482,-36.69797],[141.97481,-36.69822],[141.97488,-36.69866],[141.97495,-36.69924],[141.97489,-36.69947],[141.97481,-36.69961],[141.97463,-36.69968],[141.97443,-36.69973],[141.97413,-36.69975],[141.97372,-36.69977],[141.97337,-36.69979],[141.97294,-36.69986],[141.97202,-36.70004],[141.96794,-36.70084],[141.96471,-36.70147],[141.96439,-36.70146],[141.96415,-36.70141],[141.96375,-36.70128]]]},"properties":{"id":"27-28_Grading_Programme.35","Road_name":"O Brees Rd","From":"Quantong-Polkemmet Rd","To":"Polkemmet Rd"}},{"type":"Feature","id":132,"geometry":{"type":"MultiLineString","coordinates":[[[142.01136,-36.69763],[142.01102,-36.69763]]]},"properties":{"id":"27-28_Grading_Programme.198","Road_name":"O Brees Rd","From":"Seal Ends","To":"Quantong-Polkemmet Rd"}},{"type":"Feature","id":133,"geometry":{"type":"MultiLineString","coordinates":[[[142.05201,-36.71386],[142.04488,-36.71386]]]},"properties":{"id":"27-28_Grading_Programme.4","Road_name":"Remlaw Rd","From":"Pave Change (Res. 1235 @ 12350)","To":"Quantong Cemetery Rd"}},{"type":"Feature","id":134,"geometry":{"type":"MultiLineString","coordinates":[[[142.063,-36.72655],[142.04494,-36.72661]]]},"properties":{"id":"27-28_Grading_Programme.2","Road_name":"Rudolphs Rd","From":"Vectis Station Rd","To":"Quantong Cemetery Rd"}},{"type":"Feature","id":135,"geometry":{"type":"MultiLineString","coordinates":[[[142.06305,-36.7389],[142.06305,-36.73495],[142.063,-36.72655],[142.06295,-36.71383]]]},"properties":{"id":"27-28_Grading_Programme.47","Road_name":"Vectis Station Rd","From":"Wimmera Hwy","To":"Remlaw Rd"}},{"type":"Feature","id":136,"geometry":{"type":"MultiLineString","coordinates":[[[142.07028,-36.7138],[142.06295,-36.71383]]]},"properties":{"id":"27-28_Grading_Programme.3","Road_name":"Remlaw Rd","From":"Entry to Residence (1043)","To":"Vectis Station Rd"}},{"type":"Feature","id":137,"geometry":{"type":"MultiLineString","coordinates":[[[142.06288,-36.69746],[142.06287,-36.69532],[142.06285,-36.69189],[142.06282,-36.68292],[142.06282,-36.68189],[142.0628,-36.67674]]]},"properties":{"id":"27-28_Grading_Programme.46","Road_name":"Vectis Station Rd","From":"O Brees","To":"Entry to Residence (696)"}},{"type":"Feature","id":138,"geometry":{"type":"MultiLineString","coordinates":[[[142.06785,-36.6829],[142.06282,-36.68292],[142.06027,-36.68291],[142.05967,-36.68293],[142.04913,-36.68296],[142.04477,-36.68296]]]},"properties":{"id":"27-28_Grading_Programme.53","Road_name":"Three Mile Rd","From":"Pave Change","To":"Quantong Cemetery Rd"}},{"type":"Feature","id":139,"geometry":{"type":"MultiLineString","coordinates":[[[141.9478,-36.62353],[141.94581,-36.62355],[141.94565,-36.62351],[141.94557,-36.62344],[141.94552,-36.62331],[141.9455,-36.62035],[141.94553,-36.60661],[141.94551,-36.60325]]]},"properties":{"id":"27-28_Grading_Programme.7","Road_name":"Duchembegarra Rd","From":"Seal Ends","To":"Wiles Rd"}},{"type":"Feature","id":140,"geometry":{"type":"MultiLineString","coordinates":[[[141.94891,-36.62372],[141.95667,-36.6237],[141.95934,-36.62371],[141.96367,-36.62371],[141.96795,-36.6237],[141.9713,-36.6237],[141.97175,-36.62371]]]},"properties":{"id":"27-28_Grading_Programme.9","Road_name":"Mackleys Rd (Grass Flat)","From":"Duchembegarra Rd","To":"Fence & Gate"}},{"type":"Feature","id":141,"geometry":{"type":"MultiLineString","coordinates":[[[141.94551,-36.60325],[141.94525,-36.60321],[141.94269,-36.60296],[141.93974,-36.60268]]]},"properties":{"id":"27-28_Grading_Programme.8","Road_name":"Wiles Rd","From":"Duchembegarra Rd","To":"Pave Change (Entry to Residence 514)"}},{"type":"Feature","id":142,"geometry":{"type":"MultiLineString","coordinates":[[[141.86121,-36.6321],[141.86161,-36.62953],[141.86228,-36.62503],[141.86248,-36.62387]]]},"properties":{"id":"27-28_Grading_Programme.11","Road_name":"Quades Rd","From":"Cooack Rd","To":"Entry to Residence (79)"}},{"type":"Feature","id":143,"geometry":{"type":"MultiLineString","coordinates":[[[141.82112,-36.6281],[141.82618,-36.62862],[141.82736,-36.62873],[141.83114,-36.62911],[141.83592,-36.6296],[141.84129,-36.63012],[141.8416,-36.63016],[141.84962,-36.63095],[141.85217,-36.63121]]]},"properties":{"id":"27-28_Grading_Programme.27","Road_name":"Cooack Rd","From":"Council Boundary","To":"Seal Starts"}},{"type":"Feature","id":144,"geometry":{"type":"MultiLineString","coordinates":[[[141.7663,-36.72747],[141.76609,-36.72722],[141.76589,-36.72692],[141.76577,-36.72682],[141.76559,-36.72669],[141.76541,-36.7266],[141.76468,-36.72633],[141.76383,-36.72599],[141.76303,-36.72567],[141.76272,-36.7255],[141.76124,-36.72438],[141.76094,-36.72416],[141.76068,-36.72397],[141.75859,-36.72293],[141.75696,-36.72214]]]},"properties":{"id":"27-28_Grading_Programme.50","Road_name":"Lears Rd","From":"Natimuk-Frances Rd","To":"Fence & Gate"}},{"type":"Feature","id":145,"geometry":{"type":"MultiLineString","coordinates":[[[141.78049,-36.70606],[141.78057,-36.70573],[141.78072,-36.70466],[141.78181,-36.69756],[141.78246,-36.6934],[141.78297,-36.69006],[141.78318,-36.68874],[141.78313,-36.68853],[141.78306,-36.68842],[141.78292,-36.68833],[141.78257,-36.68814],[141.78144,-36.68749],[141.7798,-36.68655],[141.77954,-36.68636],[141.77943,-36.68623],[141.77933,-36.68604],[141.77909,-36.68548],[141.77901,-36.68537],[141.77887,-36.6853],[141.77677,-36.6851],[141.77627,-36.68504],[141.77591,-36.6849],[141.7757,-36.68478],[141.77475,-36.68412],[141.77451,-36.68388],[141.77419,-36.68351],[141.7737,-36.68297],[141.77347,-36.68272],[141.77335,-36.68264],[141.77243,-36.6825],[141.77113,-36.68239],[141.76747,-36.68203],[141.7602,-36.68126],[141.75961,-36.68122],[141.75952,-36.68127],[141.75944,-36.68137],[141.7594,-36.68159],[141.75924,-36.68281],[141.75919,-36.6831],[141.75908,-36.68316],[141.75891,-36.68318],[141.75338,-36.68264],[141.74433,-36.68172],[141.7439,-36.68169],[141.74357,-36.68169],[141.74307,-36.68164],[141.74092,-36.68141],[141.73878,-36.68118],[141.73869,-36.6812],[141.73865,-36.68131]]]},"properties":{"id":"27-28_Grading_Programme.33","Road_name":"Mc Creddens Rd","From":"Mitre-Nurcoung Rd South","To":"Mitre-Nurcoung Rd (North)"}},{"type":"Feature","id":146,"geometry":{"type":"MultiLineString","coordinates":[[[141.80496,-36.70701],[141.80283,-36.70681]]]},"properties":{"id":"27-28_Grading_Programme.13","Road_name":"G Webbs Rd","From":"Mitre-Grass Flat Rd","To":"Pave Change"}},{"type":"Feature","id":147,"geometry":{"type":"MultiLineString","coordinates":[[[141.80777,-36.68883],[141.80628,-36.68868],[141.80357,-36.68839],[141.8016,-36.6882]]]},"properties":{"id":"27-28_Grading_Programme.14","Road_name":"Combes Rd (Mitre)","From":"Mitre-Grass Flat Rd","To":"Pave Change"}},{"type":"Feature","id":148,"geometry":{"type":"MultiLineString","coordinates":[[[141.80777,-36.68883],[141.80794,-36.68767],[141.80852,-36.68408],[141.80897,-36.68117],[141.80948,-36.67784],[141.80999,-36.67453],[141.81021,-36.67312],[141.8105,-36.67129],[141.81073,-36.66983],[141.81082,-36.66929],[141.81144,-36.66535],[141.81237,-36.65936]]]},"properties":{"id":"27-28_Grading_Programme.28","Road_name":"Cooack-Mitre Rd","From":"Mitre-Grass Flat Rd","To":"Oliver Schmidts Rd"}},{"type":"Feature","id":149,"geometry":{"type":"MultiLineString","coordinates":[[[141.83386,-36.66152],[141.82297,-36.66042],[141.82028,-36.66014],[141.81609,-36.65973],[141.81237,-36.65936],[141.8062,-36.65873],[141.80187,-36.65829],[141.79777,-36.65789],[141.7961,-36.65772],[141.79592,-36.65764]]]},"properties":{"id":"27-28_Grading_Programme.52","Road_name":"Oliver Schmidts Rd","From":"Seal Ends","To":"Cooack Extension Rd"}}]}