{"type":"FeatureCollection","features":[{"type":"Feature","id":0,"geometry":{"type":"MultiLineString","coordinates":[[[142.05211,-37.02092],[142.05316,-37.021],[142.05349,-37.02104],[142.05373,-37.02106],[142.05407,-37.02108],[142.05558,-37.02123],[142.05613,-37.02127],[142.05762,-37.02142],[142.05899,-37.02157],[142.06062,-37.02175],[142.06723,-37.0224],[142.06843,-37.02249],[142.07022,-37.0227],[142.07802,-37.02345],[142.07927,-37.02358],[142.08275,-37.02392],[142.08656,-37.0243],[142.0885,-37.02449],[142.08955,-37.02458]]]},"properties":{"id":"27-28_Grading_Programme.154","Road_name":"Mt Talbot Reserve Rd","From":"Mt Talbot Rd","To":"Red Rock Rd"}},{"type":"Feature","id":1,"geometry":{"type":"MultiLineString","coordinates":[[[142.21616,-37.0131],[142.23534,-37.01317]]]},"properties":{"id":"27-28_Grading_Programme.171","Road_name":"H H Smith Rd","From":"Roberts Rd","To":"Grahams Bridge Rd"}},{"type":"Feature","id":2,"geometry":{"type":"MultiLineString","coordinates":[[[142.21207,-36.84103],[142.21214,-36.84735],[142.21216,-36.84909],[142.21238,-36.85019],[142.21266,-36.85154],[142.21265,-36.85243],[142.21252,-36.85328],[142.2125,-36.85418],[142.21275,-36.85822],[142.21287,-36.859],[142.21313,-36.85943],[142.21328,-36.85992],[142.21327,-36.86094],[142.21335,-36.86134],[142.21324,-36.86191],[142.21302,-36.86304],[142.2132,-36.86388],[142.21319,-36.86509],[142.21341,-36.86671],[142.2135,-36.86781],[142.2136,-36.87098],[142.21378,-36.873],[142.21388,-36.87532],[142.214,-36.87802],[142.21409,-36.87947],[142.21442,-36.8836],[142.21736,-36.88877],[142.22189,-36.89699],[142.22421,-36.90117],[142.2293,-36.91028],[142.23565,-36.92166],[142.23596,-36.92235],[142.236,-36.92289],[142.23595,-36.92599],[142.23591,-36.93503],[142.23582,-36.94539],[142.23549,-36.9464]],[[142.21205,-36.84103],[142.21205,-36.84015],[142.21204,-36.83987],[142.21208,-36.83764],[142.2121,-36.83742],[142.21214,-36.83721],[142.21225,-36.83683]],[[142.23541,-36.94871],[142.23542,-36.95484],[142.23534,-36.95848],[142.23535,-36.96275],[142.2353,-36.97717],[142.2352,-36.98207],[142.23542,-36.98304],[142.23545,-36.98452],[142.23542,-36.98528],[142.2354,-36.99525],[142.23538,-37.00426],[142.23534,-37.01317],[142.23528,-37.02269]]]},"properties":{"id":"27-28_Grading_Programme.196","Road_name":"Grahams Bridge Rd","From":"Channel Xing","To":"Seal Starts"}},{"type":"Feature","id":3,"geometry":{"type":"MultiLineString","coordinates":[[[142.17135,-36.96265],[142.17157,-36.96258],[142.17196,-36.96253],[142.17824,-36.96255],[142.18895,-36.96259],[142.19758,-36.96261],[142.20324,-36.96263],[142.21122,-36.96266],[142.23142,-36.96272],[142.23534,-36.96271]]]},"properties":{"id":"27-28_Grading_Programme.184","Road_name":"O Biernes Rd","From":"Donald Swamp Rd","To":"Grahams Bridge Rd"}},{"type":"Feature","id":4,"geometry":{"type":"MultiLineString","coordinates":[[[142.17148,-36.94159],[142.19066,-36.94159],[142.19744,-36.94164],[142.20762,-36.94165]]]},"properties":{"id":"27-28_Grading_Programme.191","Road_name":"Hammonds Woolshed Rd","From":"Donald Swamp Rd","To":"Entry to Residence"}},{"type":"Feature","id":5,"geometry":{"type":"MultiLineString","coordinates":[[[142.17135,-36.96265],[142.17136,-36.95559],[142.1714,-36.94647],[142.17148,-36.94159],[142.17147,-36.93706],[142.1715,-36.93666],[142.17171,-36.93643],[142.17445,-36.93402],[142.17584,-36.93271],[142.17607,-36.93227],[142.17613,-36.93184],[142.17617,-36.92582],[142.17619,-36.91873],[142.1762,-36.91617],[142.17624,-36.90783],[142.17623,-36.90767],[142.17632,-36.90758],[142.17648,-36.90752],[142.17775,-36.90756],[142.17791,-36.90741],[142.17792,-36.90352],[142.17795,-36.90131]]]},"properties":{"id":"27-28_Grading_Programme.190","Road_name":"Donald Swamp Rd","From":"O Biernes Rd","To":"Curtis Rd"}},{"type":"Feature","id":6,"geometry":{"type":"MultiLineString","coordinates":[[[142.13982,-36.92573],[142.15804,-36.92575],[142.17617,-36.92582]]]},"properties":{"id":"27-28_Grading_Programme.194","Road_name":"Tullys Ln","From":"Henty Hwy","To":"Donald Swamp Rd"}},{"type":"Feature","id":7,"geometry":{"type":"MultiLineString","coordinates":[[[142.17134,-36.96266],[142.17104,-36.96302]]]},"properties":{"id":"27-28_Grading_Programme.177","Road_name":"O Biernes Rd","From":"End of seal","To":"Donald Swamp Rd"}},{"type":"Feature","id":8,"geometry":{"type":"MultiLineString","coordinates":[[[142.16908,-36.96636],[142.17047,-36.96382]]]},"properties":{"id":"27-28_Grading_Programme.170","Road_name":"O Biernes Rd","From":"Henty Hwy","To":"Seal Starts"}},{"type":"Feature","id":9,"geometry":{"type":"MultiLineString","coordinates":[[[142.05789,-36.98299],[142.0699,-36.98416],[142.07661,-36.98478],[142.08164,-36.98532]]]},"properties":{"id":"27-28_Grading_Programme.123","Road_name":"Speirs Rd","From":"Mt Talbot Rd","To":"Pave Change"}},{"type":"Feature","id":10,"geometry":{"type":"MultiLineString","coordinates":[[[142.1233,-36.97405],[142.12227,-36.97393],[142.12061,-36.97376],[142.11721,-36.97342],[142.11634,-36.97335],[142.11495,-36.97324],[142.11305,-36.97304],[142.11143,-36.97288],[142.10739,-36.97249],[142.10545,-36.97229],[142.10268,-36.97202],[142.10085,-36.97206],[142.09913,-36.97208],[142.09675,-36.97209],[142.0951,-36.9721],[142.09478,-36.97207]]]},"properties":{"id":"27-28_Grading_Programme.127","Road_name":"Bells Rd (Mockinya)","From":"Clarkes Ln","To":"Pave Change"}},{"type":"Feature","id":11,"geometry":{"type":"MultiLineString","coordinates":[[[142.10919,-36.96317],[142.10877,-36.96381],[142.10799,-36.96493],[142.10758,-36.9656],[142.10745,-36.96574],[142.10727,-36.96585],[142.10691,-36.96584],[142.10566,-36.96571],[142.10449,-36.96558],[142.10387,-36.96552],[142.10371,-36.9656],[142.10366,-36.9657],[142.10363,-36.96589]]]},"properties":{"id":"27-28_Grading_Programme.110","Road_name":"Dip Swamp Rd","From":"Pave Change","To":"Pave Change"}},{"type":"Feature","id":12,"geometry":{"type":"MultiLineString","coordinates":[[[142.13816,-36.94116],[142.1372,-36.94115],[142.1356,-36.94111],[142.13127,-36.94104],[142.12898,-36.94099],[142.12711,-36.94096],[142.1255,-36.94093],[142.12432,-36.94091],[142.12236,-36.94089],[142.12027,-36.94086],[142.11824,-36.94082],[142.11522,-36.94076]]]},"properties":{"id":"27-28_Grading_Programme.133","Road_name":"Howards Rd","From":"Seal Ends (Entry to Res @ 302)","To":"Hills Rd"}},{"type":"Feature","id":13,"geometry":{"type":"MultiLineString","coordinates":[[[142.11485,-36.95733],[142.11479,-36.95719],[142.11485,-36.95522],[142.11487,-36.95422],[142.11489,-36.95329],[142.11498,-36.95023],[142.11501,-36.94885],[142.11504,-36.94829],[142.11505,-36.94714],[142.11514,-36.94398],[142.11517,-36.94263],[142.11519,-36.94188],[142.1152,-36.94101],[142.11522,-36.94076],[142.11549,-36.93042],[142.11566,-36.92412],[142.1157,-36.92272],[142.11572,-36.92183],[142.11574,-36.92087]]]},"properties":{"id":"27-28_Grading_Programme.132","Road_name":"Hills Rd","From":"Jallumba-Mockinya Rd","To":"Heards Rd"}},{"type":"Feature","id":14,"geometry":{"type":"MultiLineString","coordinates":[[[142.1256,-36.95902],[142.12534,-36.96071],[142.12517,-36.96174],[142.12497,-36.96294],[142.1239,-36.97001],[142.1233,-36.97405]]]},"properties":{"id":"27-28_Grading_Programme.113","Road_name":"Clarkes Ln (Mockinya)","From":"Jallumba-Mockinya Rd","To":"Bells Rd"}},{"type":"Feature","id":15,"geometry":{"type":"MultiLineString","coordinates":[[[142.13978,-36.91997],[142.13901,-36.91997],[142.13599,-36.92044],[142.13284,-36.92093],[142.13149,-36.92115],[142.13053,-36.92137],[142.1303,-36.92147],[142.13004,-36.92168],[142.12976,-36.92191],[142.12947,-36.92207],[142.12925,-36.92214],[142.12903,-36.92218],[142.1286,-36.92216],[142.12605,-36.92188],[142.12287,-36.92156],[142.11574,-36.92087],[142.11195,-36.92051],[142.10778,-36.92011],[142.10682,-36.92001],[142.10245,-36.91958],[142.0983,-36.91916],[142.09565,-36.91889],[142.08754,-36.91812],[142.08437,-36.91781],[142.0801,-36.91738],[142.06878,-36.91627],[142.06452,-36.91586],[142.05916,-36.91534],[142.05785,-36.9152],[142.04862,-36.91428],[142.04084,-36.91355],[142.04047,-36.9135],[142.04035,-36.91347],[142.04026,-36.9134],[142.04022,-36.91333],[142.04023,-36.91324],[142.04028,-36.91315],[142.04052,-36.91265],[142.04056,-36.91246],[142.04055,-36.91227],[142.04051,-36.91217],[142.04041,-36.91209]]]},"properties":{"id":"27-28_Grading_Programme.130","Road_name":"Heards Rd (Nurrabiel)","From":"Henty Hwy","To":"Wonwondah-Toolondo Rd"}},{"type":"Feature","id":16,"geometry":{"type":"MultiLineString","coordinates":[[[142.1782,-36.86534],[142.17812,-36.87561],[142.17807,-36.87805],[142.17796,-36.89305],[142.17795,-36.90131]]]},"properties":{"id":"27-28_Grading_Programme.193","Road_name":"Nixons South Rd","From":"Nixons Rd","To":"Curtis Rd"}},{"type":"Feature","id":17,"geometry":{"type":"MultiLineString","coordinates":[[[142.21313,-36.85943],[142.2303,-36.85939],[142.24852,-36.85942]]]},"properties":{"id":"27-28_Grading_Programme.195","Road_name":"Zippels Rd","From":"Grahams Bridge Rd","To":"Peuckers Rd"}},{"type":"Feature","id":18,"geometry":{"type":"MultiLineString","coordinates":[[[142.24849,-36.8595],[142.24847,-36.86766]]]},"properties":{"id":"27-28_Grading_Programme.165","Road_name":"Peuckers Rd","From":"Zippels Rd","To":"End (Entry to Residence)"}},{"type":"Feature","id":19,"geometry":{"type":"MultiLineString","coordinates":[[[142.26665,-36.86779],[142.26666,-36.87196],[142.26665,-36.8783]]]},"properties":{"id":"27-28_Grading_Programme.188","Road_name":"One Tree Rd","From":"Channel Xing (Rocklands Channel)","To":"Laharum Rd"}},{"type":"Feature","id":20,"geometry":{"type":"MultiLineString","coordinates":[[[142.28506,-36.84126],[142.26932,-36.84117],[142.2684,-36.84121],[142.26792,-36.84125]]]},"properties":{"id":"27-28_Grading_Programme.168","Road_name":"Mc Kenzies Rd","From":"Green Lake Rd","To":"One Tree Rd Slip Ln"}},{"type":"Feature","id":21,"geometry":{"type":"MultiLineString","coordinates":[[[142.30308,-36.84146],[142.30254,-36.84139],[142.30221,-36.8413],[142.29352,-36.83389],[142.28513,-36.82658]]]},"properties":{"id":"27-28_Grading_Programme.181","Road_name":"Old Wartook Rd","From":"Taylors Rd","To":"Green Lake Rd"}},{"type":"Feature","id":22,"geometry":{"type":"MultiLineString","coordinates":[[[142.31885,-36.87693],[142.31898,-36.87686],[142.31897,-36.87671],[142.31825,-36.8751],[142.31302,-36.86321]]]},"properties":{"id":"27-28_Grading_Programme.180","Road_name":"Old Wartook Rd","From":"Laharum Rd","To":"Pave Change"}},{"type":"Feature","id":23,"geometry":{"type":"MultiLineString","coordinates":[[[142.25987,-36.87832],[142.25977,-36.90104],[142.25977,-36.9135],[142.25977,-36.91362],[142.25987,-36.91371],[142.26026,-36.91373],[142.26057,-36.91372],[142.26084,-36.91373],[142.26116,-36.91381],[142.26141,-36.91388],[142.26212,-36.91414],[142.26209,-36.9173],[142.2622,-36.91759],[142.26261,-36.91761],[142.27213,-36.91761],[142.27481,-36.91761],[142.27489,-36.91761]]]},"properties":{"id":"27-28_Grading_Programme.183","Road_name":"Franciscos Rd","From":"Laharum Rd","To":"Entry to Residence"}},{"type":"Feature","id":24,"geometry":{"type":"MultiLineString","coordinates":[[[142.23777,-36.87826],[142.2348,-36.88263],[142.2346,-36.88303],[142.23471,-36.88382],[142.23497,-36.88593],[142.23483,-36.88807],[142.23484,-36.88869],[142.23513,-36.88942],[142.23528,-36.89058]]]},"properties":{"id":"27-28_Grading_Programme.172","Road_name":"Dunns Rd","From":"Laharum Rd","To":"Pave Change (Entry to Residence)"}},{"type":"Feature","id":25,"geometry":{"type":"MultiLineString","coordinates":[[[142.25977,-36.90104],[142.24001,-36.90098],[142.23953,-36.90099],[142.2392,-36.90117],[142.23905,-36.90123],[142.23886,-36.90123],[142.23855,-36.90119],[142.23773,-36.90117],[142.22421,-36.90117]]]},"properties":{"id":"27-28_Grading_Programme.189","Road_name":"Hickeys Rd","From":"Franciscos Rd","To":"Grahams Bridge Rd"}},{"type":"Feature","id":26,"geometry":{"type":"MultiLineString","coordinates":[[[142.24799,-36.95346],[142.24829,-36.95446],[142.24857,-36.9551],[142.24903,-36.95566],[142.24924,-36.95593],[142.24928,-36.95632],[142.24945,-36.9567],[142.25037,-36.9581],[142.25071,-36.95847],[142.25106,-36.95875],[142.25135,-36.95916],[142.25173,-36.95994],[142.25221,-36.96026],[142.25282,-36.96043],[142.25345,-36.96061],[142.25397,-36.96086],[142.25467,-36.9615],[142.25484,-36.96195],[142.25491,-36.9621],[142.25494,-36.96254],[142.25516,-36.96273],[142.25542,-36.96301],[142.25577,-36.96372],[142.25576,-36.96448],[142.25552,-36.96509],[142.25555,-36.96608],[142.25564,-36.96679],[142.25566,-36.96705],[142.25533,-36.9675],[142.25488,-36.96908],[142.25471,-36.9709],[142.25463,-36.97286]]]},"properties":{"id":"27-28_Grading_Programme.182","Road_name":"Unnamed Rd 051","From":"Laharum Grahams Bridge Rd","To":"Fire Crossing No. 18"}},{"type":"Feature","id":27,"geometry":{"type":"MultiLineString","coordinates":[[[142.24799,-36.95346],[142.2479,-36.95322],[142.24781,-36.95298],[142.24767,-36.95275],[142.24727,-36.95218],[142.24651,-36.95177],[142.24498,-36.95097],[142.24432,-36.9507],[142.24349,-36.95035],[142.24252,-36.9496],[142.24169,-36.94915],[142.24089,-36.94878],[142.24039,-36.94822],[142.23975,-36.94768],[142.23909,-36.94744],[142.23828,-36.94732],[142.23737,-36.94731],[142.23677,-36.9472],[142.23616,-36.947],[142.23575,-36.94676],[142.23549,-36.9464]]]},"properties":{"id":"27-28_Grading_Programme.192","Road_name":"Laharum-Grahams Bridge Rd","From":"Unnamed Rd 51","To":"Grahams Bridge Rd"}},{"type":"Feature","id":28,"geometry":{"type":"MultiLineString","coordinates":[[[142.32639,-36.85964],[142.33118,-36.85967]]]},"properties":{"id":"27-28_Grading_Programme.174","Road_name":"Combes Rd (Laharum)","From":"Northern Grampians Rd","To":"Pave Change"}},{"type":"Feature","id":29,"geometry":{"type":"MultiLineString","coordinates":[[[142.33997,-36.82668],[142.32593,-36.82668]]]},"properties":{"id":"27-28_Grading_Programme.173","Road_name":"Uebergangs Rd","From":"Northern Grampians Rd","To":"Pave Change (Entry to Residence 99)"}},{"type":"Feature","id":30,"geometry":{"type":"MultiLineString","coordinates":[[[142.30349,-36.79723],[142.29735,-36.79728]]]},"properties":{"id":"27-28_Grading_Programme.169","Road_name":"Green Lake Tip Rd","From":"Taylors Rd","To":"Tip Gate"}},{"type":"Feature","id":31,"geometry":{"type":"MultiLineString","coordinates":[[[142.23047,-36.81178],[142.24149,-36.81181]]]},"properties":{"id":"27-28_Grading_Programme.166","Road_name":"Millers Rd","From":"Laharum Rd","To":"Pave Ends (Entry to Res. 100)"}},{"type":"Feature","id":32,"geometry":{"type":"MultiLineString","coordinates":[[[142.2435,-36.68045],[142.24378,-36.68059],[142.24413,-36.6808],[142.24438,-36.68098],[142.24504,-36.6813],[142.24779,-36.68268],[142.24809,-36.68282],[142.24845,-36.68296],[142.24858,-36.68296]]]},"properties":{"id":"27-28_Grading_Programme.93","Road_name":"River Heights Rd","From":"Seal Ends","To":"End"}},{"type":"Feature","id":33,"geometry":{"type":"MultiLineString","coordinates":[[[142.2551,-36.66109],[142.25466,-36.66055],[142.25417,-36.65997],[142.25299,-36.65862],[142.25258,-36.65813],[142.25231,-36.65783],[142.25165,-36.65709],[142.25042,-36.65565],[142.24892,-36.65392],[142.2482,-36.65307],[142.24512,-36.64951],[142.23575,-36.63864],[142.23171,-36.63415],[142.23103,-36.63311],[142.23012,-36.63224]]]},"properties":{"id":"27-28_Grading_Programme.85","Road_name":"Wail-Dooen Rd","From":"Henty Hwy","To":"Pave Change (Entry to Residence 390)"}},{"type":"Feature","id":34,"geometry":{"type":"MultiLineString","coordinates":[[[142.25937,-36.65307],[142.26244,-36.65307],[142.26366,-36.65307],[142.26406,-36.65303],[142.26467,-36.65273],[142.26488,-36.6529]]]},"properties":{"id":"27-28_Grading_Programme.103","Road_name":"Creamery Rd","From":"Henty Hwy","To":"End"}},{"type":"Feature","id":35,"geometry":{"type":"MultiLineString","coordinates":[[[142.35822,-36.60784],[142.35823,-36.60892],[142.35822,-36.60916]]]},"properties":{"id":"27-28_Grading_Programme.58","Road_name":"Railway St","From":"Main St","To":"Entry to Railway & Jung Silos"}},{"type":"Feature","id":36,"geometry":{"type":"MultiLineString","coordinates":[[[142.36013,-36.60736],[142.36131,-36.60737]]]},"properties":{"id":"27-28_Grading_Programme.57","Road_name":"Store St","From":"Baker St","To":"End"}},{"type":"Feature","id":37,"geometry":{"type":"MultiLineString","coordinates":[[[142.36011,-36.60976],[142.37152,-36.60975]]]},"properties":{"id":"27-28_Grading_Programme.56","Road_name":"Jung Tip Rd","From":"Jung North Rd","To":"Pave Change (Jung Rubbish Tip)"}},{"type":"Feature","id":38,"geometry":{"type":"MultiLineString","coordinates":[[[142.32137,-36.59651],[142.32127,-36.59647],[142.32116,-36.59637],[142.32113,-36.59626],[142.32119,-36.59324],[142.3212,-36.58877],[142.32132,-36.57408],[142.32143,-36.56533],[142.32146,-36.56162],[142.32152,-36.55296]],[[142.32147,-36.55296],[142.32148,-36.54991],[142.32154,-36.54516],[142.32155,-36.53874]]]},"properties":{"id":"27-28_Grading_Programme.87","Road_name":"Whytes Rd","From":"Greenhills Rd","To":"Smiths Rd"}},{"type":"Feature","id":39,"geometry":{"type":"MultiLineString","coordinates":[[[142.3719,-36.5567],[142.3719,-36.55309]]]},"properties":{"id":"27-28_Grading_Programme.61","Road_name":"Jung Cemetery Rd","From":"Pave Change","To":"Banyena Rd"}},{"type":"Feature","id":40,"geometry":{"type":"MultiLineString","coordinates":[[[142.37188,-36.56078],[142.36059,-36.56076],[142.35947,-36.56075],[142.35839,-36.56076],[142.35799,-36.5608]]]},"properties":{"id":"27-28_Grading_Programme.63","Road_name":"Lierschs Rd","From":"Jung North Rd","To":"Jung Cemetery Rd"}},{"type":"Feature","id":41,"geometry":{"type":"MultiLineString","coordinates":[[[142.35064,-36.59076],[142.36024,-36.59091],[142.37216,-36.59094],[142.38135,-36.59095],[142.38334,-36.59104],[142.38666,-36.59134],[142.38744,-36.59135]]]},"properties":{"id":"27-28_Grading_Programme.100","Road_name":"Greenhills Rd","From":"Pave Change (Entry to Residence)","To":"Major Culvert (Yarriambiack Crk) Council Boundary"}},{"type":"Feature","id":42,"geometry":{"type":"MultiLineString","coordinates":[[[142.32442,-36.52451],[142.32463,-36.52454],[142.33727,-36.52447],[142.3512,-36.52463],[142.35549,-36.5246],[142.37372,-36.52474],[142.37691,-36.52479],[142.39062,-36.52486],[142.39174,-36.52488],[142.39209,-36.52486],[142.39219,-36.5247],[142.39208,-36.52385],[142.39194,-36.52316],[142.39149,-36.5225],[142.39126,-36.52201],[142.39127,-36.52159],[142.39135,-36.52124],[142.39177,-36.52038],[142.39209,-36.51993],[142.39249,-36.51881],[142.39277,-36.5181],[142.39417,-36.51407],[142.39424,-36.51384],[142.39432,-36.51376],[142.39442,-36.51369],[142.39456,-36.51365],[142.3947,-36.51362]]]},"properties":{"id":"27-28_Grading_Programme.81","Road_name":"Mokepilly Rd","From":"Henty Hwy","To":"Maj Culvert-Yarriambiack Crk (Boundary)"}},{"type":"Feature","id":43,"geometry":{"type":"MultiLineString","coordinates":[[[142.39874,-36.47029],[142.39702,-36.47048],[142.39636,-36.47052],[142.39536,-36.47055],[142.38769,-36.47048],[142.38218,-36.47052],[142.38063,-36.47049],[142.37968,-36.47037],[142.37886,-36.47032],[142.36987,-36.47032],[142.36827,-36.47035]]]},"properties":{"id":"27-28_Grading_Programme.96","Road_name":"Daveys Rd","From":"Council Boundary (Yarriambiack Creek)","To":"Henty Hwy"}},{"type":"Feature","id":44,"geometry":{"type":"MultiLineString","coordinates":[[[142.35198,-36.47049],[142.352,-36.46332],[142.35198,-36.46279],[142.35184,-36.46268]]]},"properties":{"id":"27-28_Grading_Programme.64","Road_name":"Exells Rd (Kewell)","From":"Old Minyip Rd","To":"Unnamed Rd 04"}},{"type":"Feature","id":45,"geometry":{"type":"MultiLineString","coordinates":[[[142.35494,-36.4627],[142.35184,-36.46268]]]},"properties":{"id":"27-28_Grading_Programme.77","Road_name":"Unnamed Rd 004","From":"Crafters Rd","To":"Exells Rd"}},{"type":"Feature","id":46,"geometry":{"type":"MultiLineString","coordinates":[[[142.35494,-36.4627],[142.35498,-36.45407],[142.35499,-36.44911]]]},"properties":{"id":"27-28_Grading_Programme.95","Road_name":"Crafters Rd","From":"Unnamed Rd 04","To":"Dimboola-Minyip Rd"}},{"type":"Feature","id":47,"geometry":{"type":"MultiLineString","coordinates":[[[142.32856,-36.50169],[142.32858,-36.49932],[142.3286,-36.49684],[142.32861,-36.49415],[142.32863,-36.49025],[142.32863,-36.48515]]]},"properties":{"id":"27-28_Grading_Programme.74","Road_name":"Byrnes Rd (Kewell)","From":"Byrneville Rd","To":"Byrneville West Rd"}},{"type":"Feature","id":48,"geometry":{"type":"MultiLineString","coordinates":[[[142.32052,-36.50567],[142.32055,-36.50584],[142.32052,-36.51327],[142.32049,-36.51826],[142.32048,-36.52177],[142.32049,-36.523]]]},"properties":{"id":"27-28_Grading_Programme.68","Road_name":"Sleeps Rd","From":"Byrneville Rd","To":"Kalkee East Rd"}},{"type":"Feature","id":49,"geometry":{"type":"MultiLineString","coordinates":[[[142.34625,-36.50184],[142.34608,-36.50175],[142.34588,-36.50173],[142.32856,-36.50169],[142.32162,-36.50168],[142.32088,-36.50167],[142.32067,-36.50168],[142.32056,-36.5018],[142.32054,-36.50375],[142.32055,-36.5054],[142.32052,-36.50567]]]},"properties":{"id":"27-28_Grading_Programme.105","Road_name":"Byrneville Rd","From":"Henty Hwy","To":"Sleeps Rd"}}]}