{"type":"FeatureCollection","features":[{"type":"Feature","id":150,"geometry":{"type":"MultiLineString","coordinates":[[[141.91557,-36.67943],[141.91469,-36.67943],[141.9145,-36.67946],[141.91365,-36.67969],[141.91334,-36.67977],[141.9129,-36.67982],[141.91219,-36.6799],[141.91164,-36.67995],[141.9112,-36.67995],[141.91082,-36.67992],[141.91008,-36.67982],[141.9069,-36.6794],[141.90611,-36.67917],[141.90588,-36.67912],[141.90173,-36.67861],[141.90138,-36.67853],[141.89881,-36.67779],[141.89835,-36.67767],[141.8981,-36.67762],[141.89783,-36.6776],[141.89754,-36.6776],[141.89554,-36.67762],[141.8927,-36.67761],[141.88995,-36.67763],[141.88814,-36.67787],[141.88769,-36.67787],[141.88689,-36.67769],[141.88667,-36.67766],[141.88641,-36.67763],[141.88418,-36.67761],[141.88415,-36.6774],[141.88412,-36.67708],[141.88389,-36.67547],[141.88347,-36.67345],[141.88344,-36.67301],[141.88343,-36.67287],[141.88353,-36.67073],[141.88356,-36.67029],[141.88372,-36.66922],[141.88425,-36.66603],[141.88443,-36.66504],[141.88507,-36.66108],[141.88638,-36.65319],[141.88693,-36.64975],[141.887,-36.64957],[141.88708,-36.64951],[141.88733,-36.64942],[141.88755,-36.64938],[141.88783,-36.64938],[141.88953,-36.64956],[141.88972,-36.64951],[141.89019,-36.64925],[141.8904,-36.64911],[141.89049,-36.64897],[141.89053,-36.64882],[141.8904,-36.64702],[141.89039,-36.64534],[141.89038,-36.64437],[141.89042,-36.64384],[141.8905,-36.64319],[141.89051,-36.64254],[141.89052,-36.64157],[141.89046,-36.6412],[141.89044,-36.64081],[141.89045,-36.63958],[141.89045,-36.63714],[141.89052,-36.63687],[141.89054,-36.63658],[141.89055,-36.63576],[141.89053,-36.63502]]]},"properties":{"id":"27-28_Grading_Programme.34","Road_name":"Wyn Wyn Rd","From":"Seal Ends","To":"Cooack Rd"}},{"type":"Feature","id":151,"geometry":{"type":"MultiLineString","coordinates":[[[141.86334,-36.67761],[141.88198,-36.67762],[141.88418,-36.67761]]]},"properties":{"id":"27-28_Grading_Programme.12","Road_name":"Rasmussen Rd (Grass Flat)","From":"Arapiles Grass Flat Rd","To":"Wyn Wyn Rd"}},{"type":"Feature","id":152,"geometry":{"type":"MultiLineString","coordinates":[[[141.9048,-36.74155],[141.90473,-36.74136],[141.90472,-36.74094],[141.90473,-36.73982],[141.90475,-36.73926],[141.90468,-36.73913],[141.90455,-36.73909],[141.89952,-36.73903],[141.89941,-36.73895],[141.89935,-36.73882],[141.89932,-36.73529],[141.89927,-36.73209],[141.8992,-36.72697],[141.89905,-36.71478],[141.89903,-36.7146]]]},"properties":{"id":"27-28_Grading_Programme.26","Road_name":"A Keytes Rd","From":"Natimuk-Frances Rd","To":"Three Chain Rd"}},{"type":"Feature","id":153,"geometry":{"type":"MultiLineString","coordinates":[[[141.90322,-36.77723],[141.90251,-36.77777],[141.90212,-36.77805],[141.90194,-36.77821],[141.90186,-36.77837],[141.90186,-36.77857],[141.90191,-36.77925],[141.9019,-36.77934],[141.90187,-36.7794],[141.9018,-36.77946],[141.90157,-36.77956],[141.90132,-36.77964]]]},"properties":{"id":"27-28_Grading_Programme.18","Road_name":"Werners Ln","From":"365m North - East of Creek Rd Intersection (Res. Driveway)","To":"Creek Rd"}},{"type":"Feature","id":154,"geometry":{"type":"MultiLineString","coordinates":[[[141.88581,-36.76568],[141.88651,-36.76673],[141.88885,-36.77011],[141.88921,-36.77062],[141.8895,-36.77095],[141.89104,-36.77323],[141.89131,-36.77375],[141.89147,-36.77405],[141.89176,-36.77449],[141.8919,-36.77466],[141.89206,-36.77481],[141.89222,-36.77497],[141.89292,-36.77602],[141.89358,-36.77701],[141.89426,-36.77797],[141.89526,-36.77945],[141.89621,-36.78084],[141.89648,-36.78124],[141.89658,-36.78145],[141.89667,-36.7819],[141.89674,-36.78198]]]},"properties":{"id":"27-28_Grading_Programme.44","Road_name":"Hammond McCuish Rd","From":"Wimmera Hwy","To":"Creek Rd"}},{"type":"Feature","id":155,"geometry":{"type":"MultiLineString","coordinates":[[[141.90132,-36.77964],[141.90136,-36.77983],[141.90131,-36.77994],[141.9012,-36.78002],[141.89971,-36.78069],[141.89784,-36.7815],[141.89674,-36.78198]]]},"properties":{"id":"27-28_Grading_Programme.25","Road_name":"Creek Rd","From":"Unnamed Rd","To":"Hammond Mccuish Rd"}},{"type":"Feature","id":156,"geometry":{"type":"MultiLineString","coordinates":[[[141.89865,-36.7894],[141.90032,-36.78941],[141.90353,-36.78941],[141.90666,-36.78942],[141.90688,-36.78937]]]},"properties":{"id":"27-28_Grading_Programme.17","Road_name":"Fergusons Sandhill Rd","From":"Pave Change","To":"Hammond Mccuish Rd"}},{"type":"Feature","id":157,"geometry":{"type":"MultiLineString","coordinates":[[[141.79324,-36.99823],[141.79346,-36.99831],[141.79567,-36.99853],[141.79735,-36.99867],[141.798,-36.99872],[141.79838,-36.99878],[141.79944,-36.99891],[141.80145,-36.99911],[141.80247,-36.9992],[141.80291,-36.99926],[141.80313,-36.99932],[141.8033,-36.99939],[141.80345,-36.99945],[141.80364,-36.99949],[141.80389,-36.99947],[141.80412,-36.9994],[141.80435,-36.99936],[141.80498,-36.99942],[141.80624,-36.99954],[141.80764,-36.99966],[141.80918,-36.99983],[141.8101,-36.99991],[141.81094,-36.99999],[141.81529,-37.00046],[141.81695,-37.00061],[141.81785,-37.00069],[141.81876,-37.00079],[141.81966,-37.00088],[141.82073,-37.00096],[141.82241,-37.00113],[141.8236,-37.00126],[141.82527,-37.00144],[141.82555,-37.00147],[141.82573,-37.00144],[141.82584,-37.00135],[141.82598,-37.00123],[141.82611,-37.00119],[141.82628,-37.00119],[141.83172,-37.00174],[141.8336,-37.00192],[141.83543,-37.00211],[141.83735,-37.0023],[141.83753,-37.00232],[141.84134,-37.0027],[141.844,-37.00297],[141.8444,-37.00301],[141.84593,-37.00317],[141.84677,-37.00325],[141.84804,-37.00337],[141.84871,-37.00345],[141.85266,-37.00383],[141.85814,-37.0044],[141.85885,-37.00446],[141.85981,-37.00455],[141.86156,-37.00471],[141.86226,-37.00476],[141.86345,-37.00486],[141.86501,-37.00502],[141.86532,-37.00506],[141.86629,-37.00522],[141.86655,-37.00525],[141.86683,-37.00526],[141.86729,-37.00529],[141.868,-37.00538],[141.86839,-37.00542],[141.86869,-37.00542],[141.87101,-37.00565],[141.87159,-37.0057],[141.87254,-37.00584],[141.87306,-37.00586],[141.87343,-37.00587],[141.87389,-37.00591],[141.87446,-37.00602],[141.8751,-37.00609],[141.87821,-37.00639],[141.87898,-37.00644],[141.87948,-37.00646],[141.8801,-37.00655],[141.88217,-37.00678],[141.8838,-37.00693],[141.88709,-37.00726],[141.88897,-37.00743],[141.88916,-37.00743],[141.88956,-37.00748],[141.88982,-37.00753],[141.88997,-37.00755],[141.8901,-37.00753],[141.89035,-37.00757],[141.89272,-37.00783],[141.89297,-37.00782],[141.89327,-37.00776]]]},"properties":{"id":"27-28_Grading_Programme.142","Road_name":"Digger Jims Rd","From":"Harrow-Clear Lake Rd","To":"Officer Station Rd"}},{"type":"Feature","id":158,"geometry":{"type":"MultiLineString","coordinates":[[[142.00385,-36.95246],[142.0027,-36.95237]]]},"properties":{"id":"27-28_Grading_Programme.124","Road_name":"Russells Rd","From":"Seal Ends","To":"Pave Ends"}},{"type":"Feature","id":159,"geometry":{"type":"MultiLineString","coordinates":[[[142.03154,-36.9407],[142.0315,-36.94111],[142.03109,-36.94383],[142.03053,-36.94745],[142.03029,-36.94913],[142.02975,-36.95269],[142.02921,-36.95617],[142.02846,-36.96117],[142.02811,-36.96349],[142.02756,-36.96713],[142.02749,-36.96748]]]},"properties":{"id":"27-28_Grading_Programme.141","Road_name":"Connangorach Rd","From":"Jallumba-Mockinya Rd","To":"Pave Change"}},{"type":"Feature","id":160,"geometry":{"type":"MultiLineString","coordinates":[[[142.01278,-36.95958],[142.01311,-36.95967],[142.01671,-36.95999],[142.01824,-36.96015],[142.02197,-36.96053],[142.02846,-36.96117],[142.03046,-36.96135],[142.03305,-36.9616],[142.03657,-36.96196],[142.03762,-36.96207],[142.04155,-36.96244],[142.06049,-36.96432],[142.0607,-36.96437],[142.06074,-36.96452],[142.06058,-36.96535],[142.06059,-36.96571],[142.06044,-36.96594],[142.06029,-36.96701],[142.06025,-36.96754],[142.06009,-36.96792],[142.06002,-36.96865]]]},"properties":{"id":"27-28_Grading_Programme.140","Road_name":"White Swamp Rd","From":"Wonwondah Toolondo Rd","To":"Mt Talbot Rd"}},{"type":"Feature","id":161,"geometry":{"type":"MultiLineString","coordinates":[[[142.06002,-36.96865],[142.05992,-36.96923],[142.05982,-36.96979],[142.0598,-36.97031],[142.05963,-36.97133],[142.05946,-36.97257],[142.05933,-36.97291],[142.05938,-36.97331],[142.05926,-36.97405],[142.05917,-36.97433],[142.05907,-36.97464],[142.05905,-36.97474],[142.05905,-36.97487],[142.05904,-36.97536],[142.05891,-36.97622],[142.0586,-36.97799],[142.0586,-36.97827],[142.05814,-36.98103],[142.05789,-36.98299],[142.05741,-36.98613],[142.05667,-36.99076],[142.05652,-36.9914],[142.05642,-36.99221]],[[142.05642,-36.9922],[142.05636,-36.99291],[142.05604,-36.9949],[142.0559,-36.99631],[142.05576,-36.99726],[142.05552,-36.99816],[142.05549,-36.9987],[142.05542,-36.99924]]]},"properties":{"id":"27-28_Grading_Programme.153","Road_name":"Mt Talbot Rd (Nurrabiel)","From":"White Swamp Rd (Bend Left)","To":"Camerons Rd"}},{"type":"Feature","id":162,"geometry":{"type":"MultiLineString","coordinates":[[[142.05505,-37.00226],[142.06393,-37.0031]]]},"properties":{"id":"27-28_Grading_Programme.126","Road_name":"Camerons Rd (Nurrabiel)","From":"Mt Talbot Rd (Nth Leg)","To":"Mt Talbot Rd"}},{"type":"Feature","id":163,"geometry":{"type":"MultiLineString","coordinates":[[[142.02693,-36.97099],[142.02645,-36.97437],[142.0259,-36.9779],[142.02584,-36.97825]]]},"properties":{"id":"27-28_Grading_Programme.109","Road_name":"Connangorach Rd","From":"Pave Change","To":"Miss Williamsons Rd"}},{"type":"Feature","id":164,"geometry":{"type":"MultiLineString","coordinates":[[[142.0099,-36.97756],[142.00999,-36.97696],[142.01008,-36.97673],[142.01037,-36.9767],[142.01519,-36.9772],[142.02584,-36.97825],[142.03253,-36.97891]]]},"properties":{"id":"27-28_Grading_Programme.155","Road_name":"Miss Williamsons Rd","From":"Holmes Rd (Bend Left)","To":"Connangorach Swamp"}},{"type":"Feature","id":165,"geometry":{"type":"MultiLineString","coordinates":[[[141.92038,-37.06913],[141.9096,-37.06805],[141.89896,-37.06699]]]},"properties":{"id":"27-28_Grading_Programme.106","Road_name":"Jeffries Rd","From":"Natimuk-Hamilton Rd","To":"End Gravel"}},{"type":"Feature","id":166,"geometry":{"type":"MultiLineString","coordinates":[[[141.91938,-37.09117],[141.91922,-37.0923],[141.91914,-37.09281],[141.91896,-37.09397],[141.91878,-37.0951],[141.91849,-37.09692],[141.91828,-37.09828],[141.91794,-37.10046],[141.91752,-37.10305],[141.91743,-37.10386],[141.91742,-37.10394]]]},"properties":{"id":"27-28_Grading_Programme.125","Road_name":"Murrays Rd","From":"Telangatuk East Rd","To":"Pave Ends (Entry to Residence)"}},{"type":"Feature","id":167,"geometry":{"type":"MultiLineString","coordinates":[[[141.93576,-37.10191],[141.93369,-37.11543],[141.93374,-37.11548]]]},"properties":{"id":"27-28_Grading_Programme.118","Road_name":"B Ross Rd","From":"Seal Ends","To":"E Ross Rd"}},{"type":"Feature","id":168,"geometry":{"type":"MultiLineString","coordinates":[[[141.95373,-37.10208],[141.95035,-37.10172],[141.94401,-37.10107],[141.93886,-37.10058],[141.93601,-37.10029]]]},"properties":{"id":"27-28_Grading_Programme.149","Road_name":"Robertsons Rd","From":"Seal Ends","To":"B Ross Rd"}},{"type":"Feature","id":169,"geometry":{"type":"MultiLineString","coordinates":[[[141.93887,-37.08201],[141.94055,-37.07111]]]},"properties":{"id":"27-28_Grading_Programme.121","Road_name":"Tonkins Rd (Telangatuk East)","From":"Seal Ends (Entry to Residence 116)","To":"Derwent Ln"}},{"type":"Feature","id":170,"geometry":{"type":"MultiLineString","coordinates":[[[141.93389,-37.07045],[141.94055,-37.07111],[141.94725,-37.07178],[141.95106,-37.07217],[141.9584,-37.07292],[141.96991,-37.07405],[141.97652,-37.07472]]]},"properties":{"id":"27-28_Grading_Programme.150","Road_name":"Derwent Ln","From":"Seal Ends","To":"Telangatuk East-Rocklands Rd"}},{"type":"Feature","id":171,"geometry":{"type":"MultiLineString","coordinates":[[[141.95511,-37.09475],[141.95397,-37.1021]]]},"properties":{"id":"27-28_Grading_Programme.117","Road_name":"Ross Rd (Telangatuk East)","From":"Telangatuk East Rd","To":"Robertsons Rd"}},{"type":"Feature","id":172,"geometry":{"type":"MultiLineString","coordinates":[[[141.97171,-37.02401],[141.97168,-37.02396],[141.97167,-37.02388],[141.97169,-37.02382],[141.97179,-37.02368],[141.97189,-37.02357],[141.97198,-37.02349],[141.9721,-37.02337],[141.97226,-37.02323],[141.97237,-37.02315],[141.97257,-37.02301],[141.97276,-37.02286],[141.97281,-37.02281],[141.97289,-37.02274],[141.97294,-37.02269],[141.97299,-37.02262],[141.97303,-37.02257],[141.97307,-37.0225],[141.97311,-37.02243],[141.97315,-37.02232],[141.97315,-37.0223],[141.97317,-37.02226],[141.9732,-37.02213],[141.97331,-37.0217],[141.97336,-37.02147],[141.9734,-37.0213],[141.97345,-37.02114],[141.97352,-37.02103],[141.97357,-37.02098],[141.97363,-37.02092],[141.97367,-37.02089],[141.97376,-37.02083],[141.97388,-37.02078],[141.97398,-37.02075],[141.97409,-37.02074],[141.97424,-37.02073],[141.9744,-37.02074],[141.97462,-37.02078],[141.97484,-37.02081],[141.97503,-37.02084],[141.97512,-37.02085],[141.97526,-37.02089]],[[141.97508,-37.02633],[141.97487,-37.02632],[141.97471,-37.02629],[141.9745,-37.02622],[141.97427,-37.0261],[141.97397,-37.0259],[141.97391,-37.02585],[141.97367,-37.02565],[141.97359,-37.02557],[141.97349,-37.02545],[141.97341,-37.02531],[141.97324,-37.02499],[141.97307,-37.02481],[141.97296,-37.02471],[141.97285,-37.02464],[141.97276,-37.02458],[141.97262,-37.02451],[141.97245,-37.02443],[141.97235,-37.02439],[141.9722,-37.02431],[141.97203,-37.02423],[141.97181,-37.02413],[141.97172,-37.02404],[141.9717,-37.02401]]]},"properties":{"id":"27-28_Grading_Programme.152","Road_name":"John McPhees Dr","From":"Seal Ends","To":"North End"}},{"type":"Feature","id":173,"geometry":{"type":"MultiLineString","coordinates":[[[142.02634,-37.06697],[142.02592,-37.06681],[142.02556,-37.06676],[142.02522,-37.06664],[142.02486,-37.06629],[142.02427,-37.06601],[142.02378,-37.06581],[142.0235,-37.06561],[142.02337,-37.06538],[142.02328,-37.06499],[142.02319,-37.0647],[142.01609,-37.06394],[142.01577,-37.06387],[142.01039,-37.06333],[141.99886,-37.06228],[141.99833,-37.06221],[141.99167,-37.06158],[141.99146,-37.06155]]]},"properties":{"id":"27-28_Grading_Programme.144","Road_name":"Dyers Rd","From":"Pave Change","To":"Seal Starts (Res. @ 5230)"}},{"type":"Feature","id":174,"geometry":{"type":"MultiLineString","coordinates":[[[142.05443,-37.00547],[142.05404,-37.00814],[142.05378,-37.00973],[142.05248,-37.01829],[142.05212,-37.02066],[142.05211,-37.02092],[142.05204,-37.02112],[142.0519,-37.02182],[142.05185,-37.02234],[142.05173,-37.02336],[142.0515,-37.02473],[142.05113,-37.02713],[142.05112,-37.02746],[142.05104,-37.02781],[142.05094,-37.02826],[142.05092,-37.02865],[142.05088,-37.02918],[142.05084,-37.02944],[142.05073,-37.03019],[142.05067,-37.03048],[142.05059,-37.03069],[142.05047,-37.03146],[142.05018,-37.03378],[142.05004,-37.03434],[142.04994,-37.03478],[142.04984,-37.03545],[142.04973,-37.03654],[142.04952,-37.03771],[142.04947,-37.03816],[142.04937,-37.03891],[142.04927,-37.03935],[142.04909,-37.04065],[142.04895,-37.04162],[142.0484,-37.04521],[142.04828,-37.04623],[142.04808,-37.04726],[142.04797,-37.04806],[142.04787,-37.04856],[142.04771,-37.0498],[142.04769,-37.05021],[142.04757,-37.05064],[142.04716,-37.05336],[142.04678,-37.05579],[142.04667,-37.05691],[142.0466,-37.05725],[142.04637,-37.05833],[142.04641,-37.05866]]]},"properties":{"id":"27-28_Grading_Programme.136","Road_name":"Mt Talbot Rd (Nurrabiel)","From":"Seal Ends","To":"Pave Change"}},{"type":"Feature","id":175,"geometry":{"type":"MultiLineString","coordinates":[[[142.03248,-37.08022],[142.0426,-37.08127],[142.04282,-37.08124]]]},"properties":{"id":"27-28_Grading_Programme.122","Road_name":"Brennans Rd","From":"Pave Change","To":"Mt Talbot Rd"}},{"type":"Feature","id":176,"geometry":{"type":"MultiLineString","coordinates":[[[142.0436,-37.07673],[142.04352,-37.07717],[142.04331,-37.07878],[142.04293,-37.08113],[142.04282,-37.08124]]]},"properties":{"id":"27-28_Grading_Programme.112","Road_name":"Mt Talbot Rd (Nurrabiel)","From":"Pave Change","To":"Brennans Rd"}},{"type":"Feature","id":177,"geometry":{"type":"MultiLineString","coordinates":[[[142.04538,-37.06484],[142.0453,-37.06548],[142.04519,-37.06663],[142.04504,-37.0673],[142.04465,-37.06965],[142.04456,-37.0704]]]},"properties":{"id":"27-28_Grading_Programme.111","Road_name":"Mt Talbot Rd (Nurrabiel)","From":"Pave Change","To":"Dyers Rd"}},{"type":"Feature","id":178,"geometry":{"type":"MultiLineString","coordinates":[[[142.00533,-37.09603],[142.01271,-37.09674],[142.02115,-37.09756]]]},"properties":{"id":"27-28_Grading_Programme.147","Road_name":"Rees Rd","From":"Dunstans Rd","To":"Vermin Fence"}},{"type":"Feature","id":179,"geometry":{"type":"MultiLineString","coordinates":[[[141.97652,-37.07472],[142.00816,-37.0778],[142.01375,-37.07835]]]},"properties":{"id":"27-28_Grading_Programme.128","Road_name":"Brennans Rd","From":"Telangatuk East-Rocklands Rd","To":"Culvert"}},{"type":"Feature","id":180,"geometry":{"type":"MultiLineString","coordinates":[[[142.00816,-37.0778],[142.00605,-37.09143],[142.00533,-37.09603],[142.00433,-37.10254],[142.00332,-37.11005],[142.00208,-37.11724],[142.00154,-37.12145],[142.00146,-37.12212],[142.00117,-37.12338],[142.00111,-37.12378],[142.00016,-37.12921],[141.99967,-37.13246]]]},"properties":{"id":"27-28_Grading_Programme.143","Road_name":"Dunstans Rd","From":"Brennans Rd","To":"Roy Blakes Rd"}},{"type":"Feature","id":181,"geometry":{"type":"MultiLineString","coordinates":[[[141.97044,-37.11413],[141.98851,-37.11586],[141.99107,-37.11612],[142.00208,-37.11724]]]},"properties":{"id":"27-28_Grading_Programme.148","Road_name":"Scholfields Rd","From":"Telangatuk East-Rocklands Rd","To":"Dunstans Rd"}},{"type":"Feature","id":182,"geometry":{"type":"MultiLineString","coordinates":[[[141.99706,-37.17669],[141.99829,-37.16865]]]},"properties":{"id":"27-28_Grading_Programme.115","Road_name":"Yulong East West Rd","From":"Seal Ends","To":"Fence & Gate (Entry to Residence 296)"}},{"type":"Feature","id":183,"geometry":{"type":"MultiLineString","coordinates":[[[141.97153,-37.19483],[141.97134,-37.19652],[141.97068,-37.20063],[141.9707,-37.20085],[141.97096,-37.20107],[141.97197,-37.20111],[141.97321,-37.20123],[141.97514,-37.20143],[141.97744,-37.20162],[141.97892,-37.20176],[141.98023,-37.20185],[141.98074,-37.20201],[141.98127,-37.20199],[141.98158,-37.2019],[141.98189,-37.20179],[141.98261,-37.20185],[141.98344,-37.20197],[141.98398,-37.20197],[141.98458,-37.202],[141.98507,-37.20205],[141.98731,-37.20226],[141.99055,-37.20261],[141.99371,-37.2029],[141.99786,-37.20334],[141.99923,-37.20347],[142.00179,-37.20374],[142.00513,-37.20403],[142.01105,-37.20461]]]},"properties":{"id":"27-28_Grading_Programme.138","Road_name":"Silcocks Rd","From":"Telangatuk East-Rocklands Rd","To":"Entry to Residence"}},{"type":"Feature","id":184,"geometry":{"type":"MultiLineString","coordinates":[[[141.96874,-37.1969],[141.96945,-37.19703],[141.97017,-37.19706],[141.97045,-37.19702],[141.97082,-37.19691],[141.97122,-37.19665],[141.97134,-37.19652]]]},"properties":{"id":"27-28_Grading_Programme.114","Road_name":"Silcocks Rd Slip Ln","From":"Telangatuk East-Rocklands Rd","To":"Silcocks Rd"}},{"type":"Feature","id":185,"geometry":{"type":"MultiLineString","coordinates":[[[141.96435,-37.15373],[141.97053,-37.15436],[141.97549,-37.15486],[141.97663,-37.15497],[141.97747,-37.15524],[141.97879,-37.15535],[141.98043,-37.15546],[141.98274,-37.15569],[141.98441,-37.1558],[141.98521,-37.15599],[141.98672,-37.156],[141.98838,-37.15606]]]},"properties":{"id":"27-28_Grading_Programme.116","Road_name":"Wilsons Rd","From":"Telangatuk East Rocklands Rd","To":"Entry to Residence (220)"}},{"type":"Feature","id":186,"geometry":{"type":"MultiLineString","coordinates":[[[141.96697,-37.13679],[141.97158,-37.13726]]]},"properties":{"id":"27-28_Grading_Programme.120","Road_name":"Creaseys Rd","From":"Telangatuk East-Rocklands Rd","To":"Fence & Gate"}},{"type":"Feature","id":187,"geometry":{"type":"MultiLineString","coordinates":[[[141.96805,-37.12942],[141.96968,-37.12957],[141.99967,-37.13246]]]},"properties":{"id":"27-28_Grading_Programme.146","Road_name":"Roy Blakes Rd","From":"Telangatuk East-Rocklands Rd","To":"Dunstans Rd"}},{"type":"Feature","id":188,"geometry":{"type":"MultiLineString","coordinates":[[[141.96435,-37.15373],[141.95426,-37.15271],[141.95226,-37.15246],[141.95042,-37.15243],[141.94935,-37.15223],[141.94805,-37.15208],[141.9468,-37.15196],[141.9461,-37.15192],[141.94474,-37.15181],[141.94351,-37.15172],[141.94321,-37.1517],[141.94272,-37.15165],[141.94157,-37.15157],[141.94075,-37.15144],[141.93934,-37.15137],[141.93767,-37.15119],[141.93692,-37.15109],[141.93598,-37.15096],[141.9349,-37.15085],[141.93193,-37.15055],[141.93165,-37.1504],[141.93132,-37.15008]]]},"properties":{"id":"27-28_Grading_Programme.134","Road_name":"Les Mutchs Rd","From":"Telangatuk East-Rocklands Rd","To":"Channel Access Rd"}},{"type":"Feature","id":189,"geometry":{"type":"MultiLineString","coordinates":[[[141.93374,-37.11548],[141.95161,-37.11731]]]},"properties":{"id":"27-28_Grading_Programme.119","Road_name":"E Ross Rd","From":"Ross Rd","To":"B Ross Rd"}},{"type":"Feature","id":190,"geometry":{"type":"MultiLineString","coordinates":[[[141.93728,-37.20671],[141.93836,-37.1999],[141.93886,-37.19503],[141.93905,-37.19401],[141.94022,-37.19228],[141.94216,-37.19095],[141.94351,-37.18973],[141.94354,-37.18874],[141.94368,-37.18765]]]},"properties":{"id":"27-28_Grading_Programme.145","Road_name":"Smiths Rd (Telangatuk East)","From":"Rocklands Rd","To":"Fence & Gate"}},{"type":"Feature","id":191,"geometry":{"type":"MultiLineString","coordinates":[[[141.92479,-37.03667],[141.92213,-37.03637],[141.9192,-37.03606],[141.91779,-37.03587],[141.91553,-37.03563],[141.91368,-37.03544],[141.91207,-37.0353],[141.91144,-37.03524],[141.91014,-37.03514],[141.90986,-37.03515],[141.90955,-37.03519],[141.90875,-37.03539],[141.90838,-37.03547],[141.90766,-37.03563],[141.90657,-37.03582],[141.90568,-37.03604],[141.90481,-37.03622],[141.90428,-37.03632],[141.90371,-37.03649],[141.90311,-37.03666],[141.90155,-37.0371],[141.90059,-37.03741],[141.89973,-37.03764],[141.89847,-37.03798],[141.89809,-37.03806],[141.89777,-37.03811],[141.89723,-37.03822],[141.89493,-37.03883],[141.89367,-37.03916],[141.89251,-37.03946],[141.89224,-37.03952],[141.89173,-37.03961],[141.89083,-37.03981],[141.88949,-37.04019],[141.88856,-37.04046],[141.88826,-37.04052],[141.88789,-37.04053],[141.88754,-37.0405],[141.88644,-37.04026],[141.88609,-37.04024],[141.88584,-37.04033],[141.88558,-37.04048],[141.88532,-37.0407],[141.88446,-37.04144],[141.88425,-37.04158],[141.88377,-37.04176],[141.88337,-37.04189],[141.88276,-37.04209],[141.88005,-37.0427]]]},"properties":{"id":"27-28_Grading_Programme.137","Road_name":"Rich Millers Rd","From":"Natimuk-Hamilton Rd","To":"Pave Ends"}},{"type":"Feature","id":192,"geometry":{"type":"MultiLineString","coordinates":[[[141.85426,-37.12372],[141.85425,-37.12353],[141.85559,-37.11498],[141.85697,-37.10606],[141.85735,-37.10381],[141.8572,-37.10127],[141.857,-37.09849],[141.85697,-37.09792],[141.85751,-37.09313],[141.85758,-37.09244],[141.85759,-37.09208],[141.8576,-37.09049],[141.85756,-37.08847],[141.8575,-37.08754],[141.85734,-37.08701],[141.85631,-37.0845],[141.85583,-37.08359],[141.85528,-37.08277],[141.85493,-37.08236],[141.85376,-37.08127],[141.85266,-37.08037],[141.85194,-37.07996],[141.8489,-37.07876],[141.84789,-37.0785],[141.84692,-37.07834],[141.84593,-37.0782],[141.84434,-37.07809],[141.84331,-37.07805],[141.84125,-37.07823],[141.83911,-37.07893],[141.8382,-37.0797],[141.83764,-37.0804],[141.8368,-37.08191],[141.83203,-37.0849],[141.83138,-37.08524],[141.82866,-37.08503],[141.82388,-37.08451],[141.8167,-37.08379],[141.81429,-37.08354],[141.8134,-37.08348]]]},"properties":{"id":"27-28_Grading_Programme.131","Road_name":"Fulham No 1 Rd (Lake Kanagulk)","From":"Natimuk-Hamilton Rd","To":"Wades Rd"}},{"type":"Feature","id":193,"geometry":{"type":"MultiLineString","coordinates":[[[141.8134,-37.08348],[141.81327,-37.08358],[141.81179,-37.09289],[141.81118,-37.09695],[141.81083,-37.09909],[141.81044,-37.1017],[141.80881,-37.11201],[141.80814,-37.11651],[141.80761,-37.11968],[141.80753,-37.11986],[141.80733,-37.12002]]]},"properties":{"id":"27-28_Grading_Programme.139","Road_name":"Wades Rd","From":"Wombelano Rd","To":"Fulhams No 1"}},{"type":"Feature","id":194,"geometry":{"type":"MultiLineString","coordinates":[[[141.77881,-37.05855],[141.77886,-37.05841],[141.77912,-37.05827],[141.781,-37.05847],[141.78258,-37.05859],[141.78341,-37.05872],[141.78456,-37.05881],[141.78816,-37.05917],[141.79071,-37.05944],[141.79212,-37.05955],[141.79318,-37.05962],[141.79435,-37.05974]]]},"properties":{"id":"27-28_Grading_Programme.151","Road_name":"Hobbs & Flynns Rd","From":"Mc Kechnies Rd","To":"Pave Ends (Entry to Res. @ 2160)"}},{"type":"Feature","id":195,"geometry":{"type":"MultiLineString","coordinates":[[[141.77357,-37.09334],[141.77364,-37.09306],[141.77383,-37.09151],[141.7746,-37.08682],[141.77461,-37.08668],[141.7747,-37.0861],[141.77508,-37.08333],[141.77555,-37.08011],[141.77605,-37.07706],[141.77758,-37.06666],[141.77881,-37.05855]]]},"properties":{"id":"27-28_Grading_Programme.135","Road_name":"Mc Kechnies Rd (Boundary Road)","From":"Wombelano Rd","To":"Hobbs and Flynns Rd"}},{"type":"Feature","id":196,"geometry":{"type":"MultiLineString","coordinates":[[[141.7736,-37.09338],[141.77348,-37.09403],[141.77336,-37.09452],[141.77346,-37.09485],[141.77314,-37.09649],[141.77308,-37.09721],[141.77296,-37.09732],[141.77294,-37.09764],[141.77299,-37.09792],[141.77281,-37.09822],[141.77247,-37.10024],[141.77226,-37.10179],[141.77218,-37.1022],[141.77213,-37.103],[141.77212,-37.10363],[141.77241,-37.10469],[141.77246,-37.10516],[141.77278,-37.10575],[141.77309,-37.10639],[141.77324,-37.10699],[141.77325,-37.1073],[141.77319,-37.10742],[141.77263,-37.10813],[141.77214,-37.10927],[141.77188,-37.11011],[141.77195,-37.11088],[141.77193,-37.11115],[141.77189,-37.11135],[141.77161,-37.11175],[141.77155,-37.11211],[141.77154,-37.11238],[141.77139,-37.1126],[141.77081,-37.11312],[141.7707,-37.11324],[141.77059,-37.11356],[141.77025,-37.11505],[141.7701,-37.11701],[141.76986,-37.11867],[141.76959,-37.11989],[141.76947,-37.12055],[141.76948,-37.12105],[141.76923,-37.12218],[141.76919,-37.12262],[141.76916,-37.12299],[141.76904,-37.12368],[141.76895,-37.12439],[141.76882,-37.12533],[141.76857,-37.1265],[141.76832,-37.12802],[141.76814,-37.12902],[141.76794,-37.13088],[141.76792,-37.13111],[141.76779,-37.13153],[141.76774,-37.13166],[141.76778,-37.13193],[141.7677,-37.13273],[141.76756,-37.13335],[141.76735,-37.13508],[141.76687,-37.13792],[141.76671,-37.13905],[141.76657,-37.13972],[141.76648,-37.1403],[141.76644,-37.14045],[141.76629,-37.14153],[141.76582,-37.1445],[141.76538,-37.14735],[141.76528,-37.14822],[141.76518,-37.14874],[141.76522,-37.14885],[141.76534,-37.14894],[141.76599,-37.14923],[141.76744,-37.14992],[141.76836,-37.1504]]]},"properties":{"id":"27-28_Grading_Programme.129","Road_name":"Elliotts Back Ln","From":"Wombelano Rd","To":"Jaspers Lane"}},{"type":"Feature","id":197,"geometry":{"type":"MultiLineString","coordinates":[[[141.78833,-37.11522],[141.78499,-37.11492],[141.78352,-37.11476],[141.78161,-37.1146],[141.78023,-37.11443],[141.77642,-37.11407],[141.77553,-37.11399]]]},"properties":{"id":"27-28_Grading_Programme.107","Road_name":"Elliotts Rd","From":"Mine Entrance","To":"Pave Change"}},{"type":"Feature","id":198,"geometry":{"type":"MultiLineString","coordinates":[[[141.81103,-37.15753],[141.81108,-37.15763],[141.81118,-37.15778],[141.81092,-37.15887],[141.8108,-37.15975],[141.81075,-37.16045],[141.81071,-37.16075],[141.81059,-37.16115],[141.81041,-37.16194],[141.80996,-37.16551],[141.80989,-37.16592],[141.80983,-37.16678]]]},"properties":{"id":"27-28_Grading_Programme.108","Road_name":"Fords Ln","From":"Jaspers Ln","To":"Fence & Gate (Entry to Residence)"}}]}