{"type":"FeatureCollection","name":"horsham-lga","features":[{"type":"Feature","properties":{"name":"Horsham Rural City","lga_code":"332","abs_lga_code":"23190"},"geometry":{"type":"Polygon","coordinates":[[[142.325217511302,-36.4399280796713],[142.330782110956,-36.440425060703],[142.336284849027,-36.4399128521483],[142.341285320158,-36.439938684229],[142.342626327909,-36.4402239032158],[142.343965348586,-36.4408799930238],[142.344865622198,-36.4416482386448],[142.350085282258,-36.4481203970192],[142.351195719425,-36.448830980968],[142.35214716377,-36.4490678461368],[142.379195637299,-36.4491366563376],[142.380365640854,-36.4494135498125],[142.382402849239,-36.4491135999015],[142.404820069999,-36.4491618733132],[142.404826336646,-36.4498930970057],[142.403572587648,-36.4511517701814],[142.402430804668,-36.4514721558648],[142.401536874061,-36.4520222971589],[142.401372279344,-36.452725410249],[142.401979799191,-36.4532312877515],[142.402069161799,-36.4536385268488],[142.401064284763,-36.4545539607244],[142.400237331645,-36.4560450077119],[142.398459999584,-36.4568091358118],[142.397679342042,-36.4576504062161],[142.396944424919,-36.4577266210433],[142.396265182681,-36.4583438582445],[142.397391501164,-36.4596562431492],[142.397776058259,-36.4596380406592],[142.397959993703,-36.4600411409311],[142.398414498118,-36.460100900895],[142.398844141657,-36.4608621287259],[142.398872325401,-36.4621635761702],[142.399216775413,-36.463154100962],[142.400233161665,-36.4645897219218],[142.40189781265,-36.4661823139705],[142.401445437243,-36.4670167742526],[142.400544805204,-36.4673534911926],[142.400087109075,-36.4679307390185],[142.398942304161,-36.4683190828093],[142.398745114075,-36.4704505149535],[142.398062225576,-36.471279731012],[142.397859886346,-36.4720140770481],[142.397933200552,-36.4732373701571],[142.398565292017,-36.4737975127204],[142.399577184895,-36.4737653719748],[142.400101869293,-36.4749188302214],[142.399981918152,-36.4761118548004],[142.399449410326,-36.4770072827698],[142.399391141105,-36.4782701538638],[142.3984120017,-36.4795968549101],[142.398252927131,-36.4801973057847],[142.398637129391,-36.4806042927417],[142.400095225353,-36.4805980867592],[142.400707284387,-36.481455021914],[142.401989093161,-36.4814670646512],[142.402533607869,-36.481829562226],[142.402222329047,-36.4822909732466],[142.401011739607,-36.4827093843148],[142.399874580255,-36.4835845377717],[142.400333445092,-36.4857317241713],[142.400273207662,-36.4867404631599],[142.399257699963,-36.4879503359021],[142.399885543295,-36.4885854241567],[142.399737161373,-36.4894346111516],[142.40041399343,-36.4904869448203],[142.400701723816,-36.4916114497955],[142.401682343644,-36.4930610190691],[142.401968678946,-36.4942339147316],[142.403116670184,-36.4948995611357],[142.404149217128,-36.4948217847056],[142.404199721311,-36.4949782243048],[142.404101438433,-36.4953539269097],[142.403266229797,-36.4960913038791],[142.402730732378,-36.4973206793262],[142.400948150563,-36.4975132627747],[142.399966592893,-36.4983911591787],[142.398720613424,-36.498703788948],[142.39872447079,-36.4991545557177],[142.400130064715,-36.5004940061817],[142.399463332416,-36.5012730119541],[142.398885564772,-36.501573479997],[142.397282823879,-36.5016768257549],[142.396415988258,-36.5020529536708],[142.395782337317,-36.5032659608093],[142.395790850651,-36.504548608944],[142.39472850659,-36.5056926979013],[142.394479260929,-36.5062830831821],[142.395474476585,-36.5067665112601],[142.395584486071,-36.5076135667059],[142.396341081339,-36.5087303441458],[142.396627030366,-36.5100434967628],[142.395645906582,-36.5115086001558],[142.394687395191,-36.5135626590527],[142.39465325921,-36.5142320076812],[142.395316570724,-36.5150823270677],[142.395150398566,-36.516208097124],[142.395417605142,-36.5165541807251],[142.394520773875,-36.5172292112654],[142.39400954624,-36.5172245582576],[142.393886722286,-36.5189081288896],[142.39201767493,-36.5211780888638],[142.391864749329,-36.5216812520192],[142.392226665286,-36.5224692113541],[142.393163641365,-36.5231133376816],[142.39294764415,-36.5253798969457],[142.394382394694,-36.5274149029939],[142.395598370432,-36.5279359572206],[142.397536626693,-36.5275808810722],[142.39815851689,-36.5279388237119],[142.398121758726,-36.5289131892632],[142.396913465381,-36.5306382100736],[142.396953876992,-36.5311091846453],[142.397549598366,-36.5318254246741],[142.397306721761,-36.5332754319498],[142.396009110723,-36.535081087677],[142.396591483132,-36.536593616202],[142.396459045408,-36.5386122977249],[142.395287615328,-36.539988985743],[142.394146463863,-36.540435829025],[142.393469991131,-36.5429340492224],[142.39348697468,-36.5442413709523],[142.392172831946,-36.5445645688566],[142.392096667386,-36.5459048961491],[142.39087438278,-36.546411973079],[142.390507003269,-36.5468648146444],[142.390574480222,-36.5478251397882],[142.391380249269,-36.5493414090497],[142.391160552791,-36.5504671633107],[142.390547311574,-36.5517338862437],[142.389375028095,-36.5526493531098],[142.387779389283,-36.5558456669573],[142.386734719575,-36.5609524658117],[142.386102260699,-36.5617048859657],[142.38580642212,-36.5632228000032],[142.384972781045,-36.5638655500434],[142.384880353385,-36.5662966019697],[142.383997495412,-36.5680745491744],[142.384130614957,-36.5692758253449],[142.382999215603,-36.5701533281074],[142.382975651895,-36.5723863473283],[142.381993903782,-36.5733643709091],[142.381859515816,-36.5737847172391],[142.382195494715,-36.5743432737824],[142.385160952944,-36.5750782552888],[142.385592869221,-36.576273616655],[142.387391267673,-36.576914831166],[142.388425834928,-36.5788478928399],[142.38827246017,-36.5803816603359],[142.387798975251,-36.5819469117918],[142.387754290354,-36.5839084043576],[142.386545744582,-36.5852055619069],[142.386982292572,-36.5863991709415],[142.385974769099,-36.587054906326],[142.386627852395,-36.5878460691107],[142.388637646892,-36.5889561181595],[142.389048391675,-36.5897825392056],[142.38882340412,-36.59023389607],[142.387384179067,-36.591269267116],[142.386468361008,-36.5941636853199],[142.386380606385,-36.5951445559511],[142.386637988087,-36.5960963547353],[142.386349088095,-36.598168942823],[142.386639314898,-36.5985127923416],[142.385335165023,-36.6002099387081],[142.384064238441,-36.6001470949488],[142.382492908939,-36.6006538158338],[142.381655475177,-36.6012452198931],[142.380701326005,-36.6024778963458],[142.378543428962,-36.6035131117587],[142.378228661083,-36.6043590439039],[142.37896929239,-36.606213634869],[142.378381222866,-36.6076541618679],[142.37724457735,-36.608641474219],[142.375563419822,-36.6089339903032],[142.375214798931,-36.6095115399536],[142.375364310934,-36.6107404363493],[142.373284831426,-36.6113845141859],[142.372493377931,-36.6119878612776],[142.372191952729,-36.6126080801847],[142.371986258292,-36.61401776228],[142.373342950628,-36.6155622542158],[142.373387055213,-36.6161753227409],[142.372744025862,-36.6175559719646],[142.373555810926,-36.619449424083],[142.372594370129,-36.6220090258035],[142.373014141183,-36.6226847207134],[142.372902407829,-36.6237238529552],[142.373213453988,-36.6248102677659],[142.372833567234,-36.6259646909062],[142.371206418217,-36.6270599127372],[142.370742859683,-36.6276534212637],[142.370740408181,-36.6282412717721],[142.371541378427,-36.6290657119131],[142.370641994148,-36.630445126065],[142.370738404039,-36.6310953788213],[142.370201756777,-36.6323448043032],[142.371349094041,-36.633754222826],[142.371301503094,-36.6349627687018],[142.371926234661,-36.6372432948748],[142.370830742766,-36.6406632922663],[142.370277222447,-36.6411838320232],[142.370100714273,-36.6417589899494],[142.370628222975,-36.6437655251515],[142.369938102139,-36.64607433831],[142.372480260731,-36.649744960006],[142.373740067069,-36.6505161120706],[142.375534779734,-36.6511500112838],[142.37794202215,-36.6514448027551],[142.378996546377,-36.6521672519657],[142.379250757027,-36.6529407011092],[142.380504069443,-36.6549012812239],[142.382635253284,-36.6571996087709],[142.382872475893,-36.6594655432727],[142.383317153637,-36.6602374937159],[142.382899348096,-36.6617868357284],[142.383117751,-36.6630623280873],[142.384050398996,-36.6643774759492],[142.385734556897,-36.6658994928922],[142.385527525767,-36.6664157988225],[142.385548982926,-36.6683429620964],[142.384841262297,-36.669499155332],[142.382175059839,-36.6722821529247],[142.382329450592,-36.6728806173554],[142.384410917174,-36.6741778200906],[142.385020802285,-36.6750583551562],[142.387042855192,-36.6768485558486],[142.388540080869,-36.6765436396721],[142.389824829829,-36.6774978563243],[142.392027116223,-36.676368517711],[142.393183638761,-36.6762981192433],[142.393804816594,-36.6765696499688],[142.394485388338,-36.6776079566528],[142.396346494587,-36.6782426421331],[142.39593667507,-36.6797845462709],[142.397330427403,-36.6808603502837],[142.397154520202,-36.6815734468518],[142.395808270781,-36.6827861316929],[142.395882971985,-36.6834262581545],[142.397841908363,-36.6843423130179],[142.400558194593,-36.6873927299383],[142.400966528297,-36.6882276836835],[142.401005324737,-36.6890396700917],[142.402429241599,-36.6897602587528],[142.402273491695,-36.6902010837866],[142.401381998217,-36.690294750866],[142.400689295624,-36.6908692019009],[142.400546685377,-36.6925774342978],[142.399501483866,-36.6927819017287],[142.398903771826,-36.6931713080429],[142.399239202753,-36.6938428808627],[142.399243181391,-36.6948405227504],[142.400029810034,-36.6951771457058],[142.401523019344,-36.6963363670768],[142.401477233112,-36.6971066151194],[142.400189950903,-36.6990752158822],[142.400303085629,-36.6994311180271],[142.402493331903,-36.7002205677732],[142.403806310421,-36.6997096709117],[142.404272103065,-36.6997839502621],[142.404768294699,-36.7000645646547],[142.405075950616,-36.7009768561358],[142.405406856729,-36.7011616150084],[142.406302211166,-36.7005608036734],[142.408170552446,-36.7006908742379],[142.408673441919,-36.7013743206989],[142.407816060167,-36.7021467797761],[142.407750067232,-36.7031077491543],[142.409949161013,-36.7044566390169],[142.410569862739,-36.7052623532351],[142.410465051803,-36.7062407287951],[142.411357077982,-36.7064675778611],[142.412415895258,-36.7071059299852],[142.412956868807,-36.706910713228],[142.413550677667,-36.7061004978181],[142.415282975387,-36.7067270887821],[142.417029824915,-36.7065539778921],[142.417940780394,-36.7073366200904],[142.418186440878,-36.707815505657],[142.417975674552,-36.7079373676566],[142.418368672218,-36.708063363969],[142.419096380362,-36.7078710800302],[142.419969985687,-36.7069740431753],[142.420657266948,-36.7069897006498],[142.420672405357,-36.7082675547158],[142.421878625392,-36.7105834283124],[142.421655836015,-36.711146746285],[142.421870230635,-36.7116247252175],[142.421765620922,-36.7122706902281],[142.422860094128,-36.7142297549936],[142.424183544307,-36.7152407638603],[142.426646597255,-36.7154604220582],[142.427348935179,-36.7159301311936],[142.428303967395,-36.7161712930835],[142.428744910842,-36.716888245884],[142.428786421093,-36.7178227883218],[142.430394488995,-36.7182056158901],[142.431943252817,-36.7193138066492],[142.432268696275,-36.7198325392246],[142.432382891012,-36.7207516640758],[142.433088982096,-36.7218418847242],[142.433565179927,-36.722112165922],[142.43494159208,-36.722043132769],[142.435814626077,-36.7223496830136],[142.437077015969,-36.7237997441836],[142.437976395757,-36.7242372800747],[142.439798620226,-36.7262618701284],[142.44060703571,-36.7266580339096],[142.440638044655,-36.7269330998045],[142.441680862936,-36.7271654921989],[142.441837875871,-36.7269441891648],[142.444237337979,-36.7271681180122],[142.447340844809,-36.7290890502748],[142.448778548115,-36.729475913285],[142.449983629984,-36.7294468221299],[142.452053663708,-36.7301319063306],[142.452600679325,-36.7300211410934],[142.453540140144,-36.7293569926973],[142.454057662274,-36.7294236289707],[142.455071258359,-36.7301062568574],[142.454919204124,-36.7303771518969],[142.454001990981,-36.7306910333429],[142.45461903836,-36.731550650982],[142.456930327229,-36.7327842889029],[142.458314785592,-36.7328746240427],[142.458559301623,-36.733600271056],[142.459486023433,-36.7337874892381],[142.460400298186,-36.7344728838723],[142.462599816871,-36.73483981683],[142.462433027571,-36.7358019092746],[142.463649249447,-36.7367734232662],[142.463315904408,-36.7375287032079],[142.463830659727,-36.738314164954],[142.463461392857,-36.7396940579222],[142.464618350179,-36.7400787208389],[142.46514983662,-36.7416607728412],[142.46668635371,-36.743719765213],[142.466565247335,-36.7443618280247],[142.466884487926,-36.7449295936878],[142.46739671808,-36.7455477253129],[142.468691371864,-36.7461338821108],[142.468804901848,-36.7468179781025],[142.468621121813,-36.7470940903477],[142.469406872802,-36.747809827352],[142.469195208161,-36.7480743890521],[142.469350728995,-36.7486685039947],[142.470627272743,-36.7500238822992],[142.470758341434,-36.7504514042394],[142.471566647324,-36.7507465399306],[142.472013086664,-36.7518347526501],[142.473146471295,-36.7529216752559],[142.473800948776,-36.7532280057667],[142.474860738928,-36.7527291797319],[142.475466862793,-36.753557656241],[142.475342870131,-36.7542659297231],[142.474613630359,-36.7547032272106],[142.47459178962,-36.7550794617],[142.475087632707,-36.7554783880645],[142.474003799147,-36.7560110800305],[142.475018516329,-36.756983471756],[142.474997730212,-36.7574997338496],[142.475416866157,-36.7580032422033],[142.475356062789,-36.7586070839858],[142.474502886051,-36.7589255970995],[142.474220375776,-36.7593758548421],[142.473603145141,-36.7594791649163],[142.472913007237,-36.7592363088701],[142.472424536623,-36.7597460937311],[142.471340786607,-36.7597125548652],[142.470606965427,-36.7607177990351],[142.469257137119,-36.7617048569574],[142.469950234073,-36.7621579698461],[142.470114842264,-36.7627019443042],[142.471014146593,-36.7630412557516],[142.471063192811,-36.7636404657813],[142.471556227765,-36.7645545626422],[142.472343684654,-36.7652442018144],[142.472031202988,-36.7660191366858],[142.472529343966,-36.7671001718863],[142.472151342776,-36.7678745187898],[142.473558112595,-36.7679790213234],[142.473649100256,-36.768144958858],[142.473195786109,-36.7686860700041],[142.474118926336,-36.768503751836],[142.474470257443,-36.7688524953378],[142.474671358794,-36.769575713178],[142.475115811959,-36.7690863547249],[142.475355430375,-36.7691048836891],[142.475838306281,-36.770299499867],[142.476129137651,-36.7701950379147],[142.476057221224,-36.7696233366711],[142.476767414915,-36.7696256026739],[142.477008072681,-36.7700925071997],[142.47638881904,-36.7706018543487],[142.477600663426,-36.7712223688965],[142.477187155426,-36.7716872330577],[142.477334841154,-36.7720486733141],[142.477764289759,-36.7721402322767],[142.477842742327,-36.7713885577405],[142.478441523363,-36.77125508025],[142.478851009606,-36.7716022713454],[142.478472556563,-36.7725484919146],[142.479467066143,-36.7717545902898],[142.480139403929,-36.7718619629505],[142.480362372969,-36.772118329258],[142.478993353951,-36.7730615090646],[142.480691385433,-36.773638256107],[142.480556115321,-36.7745401921463],[142.479677341988,-36.7746126139261],[142.47986028659,-36.7754253019269],[142.480811026656,-36.7759245588615],[142.480378140199,-36.7765398619481],[142.480576412755,-36.7778496261408],[142.480139375183,-36.7781087857276],[142.479372134878,-36.7779574262916],[142.479218752934,-36.7782595706931],[142.479836535134,-36.7784854011406],[142.479972752969,-36.7789007846463],[142.478778538919,-36.7792384933067],[142.479846552248,-36.7798841801049],[142.479890745767,-36.7802151197406],[142.479404205632,-36.7807960809733],[142.480071361936,-36.7818430937192],[142.479938788566,-36.7829208818693],[142.481910386697,-36.7824714422809],[142.482413716344,-36.7829941943476],[142.482279351734,-36.7835050709721],[142.481344882853,-36.7837761357933],[142.481241555934,-36.784200193904],[142.481805817409,-36.7848641496598],[142.481221358213,-36.7862534300121],[142.482052864891,-36.7873954902552],[142.481999002805,-36.7885889832758],[142.48147279756,-36.7890239131305],[142.482082580263,-36.7896712908208],[142.481853598798,-36.7910145032677],[142.482848208989,-36.7913800406769],[142.482547132334,-36.792391064962],[142.483365450845,-36.7929061218162],[142.483687112396,-36.7937624570038],[142.484932245651,-36.7946043947031],[142.485456865371,-36.7943370880106],[142.485368186381,-36.7941001757055],[142.485818199219,-36.7937918928094],[142.485871781031,-36.793370055967],[142.486455113739,-36.7926453497856],[142.485922443318,-36.7917664292029],[142.486681022964,-36.7913534002152],[142.487911109439,-36.7922588182191],[142.487815376878,-36.7925594746727],[142.488269398897,-36.7932824256786],[142.48984779814,-36.793253058737],[142.490467673415,-36.7943134188256],[142.488961878709,-36.7953171338959],[142.488683418937,-36.7958474809669],[142.488725400803,-36.7963706079142],[142.489518649132,-36.7967177866685],[142.49090542425,-36.7962496092378],[142.492526744099,-36.7974030931174],[142.493797994973,-36.7976513606426],[142.495509623356,-36.7988372949701],[142.495813620435,-36.7987005520877],[142.496584002148,-36.7992001019301],[142.497235216948,-36.7993055990087],[142.497757235146,-36.8004456189518],[142.4976457111,-36.8011612421262],[142.497880784939,-36.8023929493182],[142.498618755436,-36.8029633552565],[142.499907491119,-36.8030816237281],[142.500884894979,-36.8037771063447],[142.500914107294,-36.8048656726807],[142.501433004745,-36.8060590790941],[142.501116804952,-36.8074957922619],[142.50164013469,-36.8084932556541],[142.503196175764,-36.808883545961],[142.503911790787,-36.8086931573084],[142.506932594221,-36.8090011961057],[142.507257640623,-36.8097337099946],[142.50792870909,-36.8100342633316],[142.509386010043,-36.8115290816905],[142.509825523372,-36.8126124373195],[142.509043197659,-36.8135447689647],[142.509089381844,-36.8142744108651],[142.507754696436,-36.8160846439134],[142.508100528057,-36.8169644727424],[142.50762989529,-36.8184581180656],[142.508486750629,-36.8192895791222],[142.508566974676,-36.8217530779184],[142.50827908978,-36.8223076121962],[142.508556594642,-36.8230503342767],[142.50938795759,-36.8240006072038],[142.511586320143,-36.8245715899348],[142.51208408293,-36.8249656072055],[142.512309550185,-36.825692962896],[142.514039696439,-36.8267354596482],[142.514462058235,-36.8275467778989],[142.514240560635,-36.8282349858811],[142.514587571745,-36.8288615078926],[142.515741402031,-36.8289845251419],[142.516182575447,-36.8295361790631],[142.517587111157,-36.8304502520428],[142.517426522927,-36.8319015498226],[142.517047998019,-36.8328079522794],[142.518383855729,-36.8330663298799],[142.518377559437,-36.8338558897554],[142.518848448224,-36.8341957791173],[142.519372484038,-36.8351066638291],[142.520006710798,-36.8354444518178],[142.51980130472,-36.8359370999155],[142.520877151359,-36.8359393538913],[142.521608231778,-36.83633834827],[142.522302563018,-36.8371942013139],[142.521729103693,-36.8379141469701],[142.521851230554,-36.8383087310777],[142.521537454415,-36.8385601587306],[142.521691429248,-36.8388908678452],[142.522681600864,-36.8387396716563],[142.523709947285,-36.8389066457844],[142.523587628184,-36.8392685280946],[142.523828691091,-36.8394688080523],[142.52537869369,-36.8400694621696],[142.527467342302,-36.8398784918307],[142.52818712461,-36.8406074793353],[142.528363116252,-36.8412409619847],[142.530156744651,-36.8419160832896],[142.530536040313,-36.8423531732383],[142.53086203893,-36.8435147747575],[142.532090645879,-36.843878464136],[142.532100151852,-36.8448535812019],[142.531693160231,-36.8455265923264],[142.531904287679,-36.8457224441308],[142.531833910066,-36.8461893456488],[142.53275829985,-36.8472059031768],[142.533680134825,-36.8474702518988],[142.533905827557,-36.8479957900943],[142.534790383345,-36.8486369276971],[142.534848175561,-36.8489860813111],[142.535362282296,-36.8489378019663],[142.535127811227,-36.8494188436561],[142.535582863614,-36.8500535062452],[142.535155099351,-36.8501855417342],[142.535230427579,-36.8512118459112],[142.534625785934,-36.8520651819575],[142.534735128871,-36.8529493181885],[142.535462554943,-36.8529543333371],[142.535508465143,-36.8535558576622],[142.536496035237,-36.854013893803],[142.537310099327,-36.854972256651],[142.538732413594,-36.8549525897639],[142.53979638181,-36.8552471670151],[142.540509757333,-36.8550538000349],[142.541592299116,-36.8562513683023],[142.541700555989,-36.8570983106729],[142.541905378162,-36.8572310312022],[142.542718385834,-36.8567081591832],[142.543610145213,-36.8573444898969],[142.543955059654,-36.8573493890351],[142.545007877083,-36.8564023329195],[142.545636852292,-36.856243174922],[142.546008533834,-36.8564364576713],[142.545654125996,-36.8569736250858],[142.546091056669,-36.8574778568908],[142.546831808351,-36.8576976698053],[142.548437058237,-36.8576808269368],[142.54830405727,-36.8582660197419],[142.547612055362,-36.8591784469688],[142.548533601079,-36.859607595961],[142.547865326373,-36.8605288908021],[142.548046196766,-36.8610638926532],[142.548386596275,-36.8612060253053],[142.549565786002,-36.8609613621162],[142.550383188232,-36.8615328142612],[142.550360387193,-36.8620723528688],[142.549672485197,-36.8630470006946],[142.550359531997,-36.8631418266754],[142.550878703434,-36.8635434332145],[142.551114717809,-36.8643841886648],[142.551965744878,-36.8641169941407],[142.552329397278,-36.8646729116759],[142.552913408214,-36.8645793733535],[142.553139283304,-36.8656109046428],[142.553743703065,-36.8657146866515],[142.553833903801,-36.8661478350864],[142.554237242872,-36.8661764208764],[142.554477515261,-36.8656216102863],[142.555012841102,-36.8656061461793],[142.555355698401,-36.8663473417575],[142.556300700029,-36.8665594708679],[142.555671304408,-36.8676822922352],[142.555827005803,-36.8678133687474],[142.556494506161,-36.8674960881287],[142.557122781583,-36.8683587682927],[142.557168249811,-36.8689041783178],[142.55665202934,-36.8691698519475],[142.556898115625,-36.8697069938173],[142.557605968306,-36.8700620993473],[142.558619055046,-36.8700576487435],[142.558754105969,-36.8692472047777],[142.559089659067,-36.8692461857202],[142.55977245504,-36.8696805832775],[142.559867809411,-36.8703444710507],[142.560993411038,-36.8704870772755],[142.562002178678,-36.8702522296466],[142.561573475675,-36.8708318098739],[142.5621556262,-36.8713746129895],[142.562721981647,-36.8713327156445],[142.563388292636,-36.8723222761996],[142.564176742164,-36.8717974722684],[142.564523796393,-36.8720888786621],[142.564527784015,-36.8727144427643],[142.565106092445,-36.8727326678293],[142.565395066099,-36.8717544059366],[142.566197167324,-36.8715167731736],[142.566495151979,-36.871743824039],[142.566243748565,-36.8726522967047],[142.566615030357,-36.8727938293073],[142.567254199648,-36.8724995970841],[142.567656216399,-36.8726665571239],[142.566548788588,-36.8739402431375],[142.567121513989,-36.8741621070436],[142.567432186448,-36.8746278158547],[142.566957097139,-36.8755118283118],[142.567285573309,-36.8756085107711],[142.567898009636,-36.8752692179866],[142.5681663957,-36.8755013633479],[142.567943208369,-36.876407110261],[142.568821897261,-36.8776248370562],[142.568219000145,-36.8781213861132],[142.568559901812,-36.8784911681513],[142.569497780698,-36.8785038401565],[142.569802388631,-36.8790526103372],[142.570655605793,-36.8786427836875],[142.57110953798,-36.8793800027202],[142.559447294552,-36.8795069231187],[142.559431883055,-36.9427729859373],[142.53899218212,-36.9494035156571],[142.511745736072,-36.9493390249124],[142.511937733896,-36.9490107301942],[142.511870553387,-36.9398735790492],[142.506021109634,-36.939887108916],[142.506129383576,-36.9395903459151],[142.503888545083,-36.9394001736442],[142.500645670026,-36.9416006912078],[142.499599217162,-36.9408788271056],[142.497804341003,-36.942009160234],[142.497757005178,-36.9309608942255],[142.499503512448,-36.9309681812745],[142.499337450783,-36.9166379692883],[142.506594029072,-36.916656244198],[142.507403270107,-36.9162745221176],[142.508890784098,-36.9162308567441],[142.508903734211,-36.9168548769935],[142.51063057736,-36.9170559483073],[142.51044966295,-36.9164010931686],[142.511137538895,-36.9153238011176],[142.510608777943,-36.9149866377008],[142.510234415828,-36.9139131560335],[142.50922728402,-36.9139766511153],[142.509309310087,-36.9133768846518],[142.508878413398,-36.9129495511321],[142.508461125287,-36.9127348236979],[142.507462440338,-36.9127638352081],[142.507147347269,-36.9123656147803],[142.506377030235,-36.9124172168975],[142.506231266004,-36.9114321472538],[142.5056008481,-36.9109745839733],[142.505458689706,-36.9093190851275],[142.50736810286,-36.9067246480521],[142.493302653146,-36.9067768293476],[142.493275721654,-36.8976047057841],[142.479310019072,-36.897548179128],[142.480424626218,-36.8983643981398],[142.480443565399,-36.9166406862854],[142.455911485882,-36.9164793849757],[142.455925252563,-36.8977396116861],[142.455638693581,-36.8975811777405],[142.449615336887,-36.8975723178149],[142.449753953224,-36.8749615027799],[142.441678168888,-36.8688158058904],[142.415623392862,-36.8688005357501],[142.415714114621,-36.8778160069966],[142.414869239215,-36.8777495917023],[142.41261269278,-36.8763201743553],[142.411815941921,-36.8764066941968],[142.406133424012,-36.8735248959379],[142.402827551901,-36.8728047761209],[142.399811760169,-36.8699861551802],[142.398054138942,-36.8687586671772],[142.389527023939,-36.8689891643135],[142.376903978415,-36.8688679369248],[142.376956275636,-36.8760325588809],[142.377310412183,-36.8764746886833],[142.38093016823,-36.8777686426493],[142.382015858608,-36.8807537233294],[142.37493547498,-36.8807753143195],[142.372644066727,-36.878783034042],[142.367111127296,-36.8791744797685],[142.363109782187,-36.8809376611527],[142.358297554821,-36.8808032932099],[142.358275054718,-36.8849615732406],[142.352756338313,-36.8849651040011],[142.352685588798,-36.89674720804],[142.358203836282,-36.8967724640911],[142.358324057817,-36.8886583739933],[142.362146296824,-36.8887551957178],[142.365101695719,-36.8914330099202],[142.36831515095,-36.8920822822675],[142.370802150288,-36.8913020888944],[142.372689228629,-36.8901516098351],[142.374202323046,-36.8904179287352],[142.374592173015,-36.8910364750078],[142.374193170112,-36.8922948176692],[142.374080856447,-36.9032979306668],[142.364811833631,-36.9032375047768],[142.362819853624,-36.9035518691585],[142.358165964208,-36.9034373699834],[142.358144115384,-36.9266649520318],[142.375440074845,-36.9271142368363],[142.37452166874,-36.9475131737374],[142.378789868285,-36.9476897233347],[142.379039922429,-36.9504364592418],[142.377828618829,-36.952701557349],[142.376334319863,-36.9602883763554],[142.376295668949,-36.9655218839558],[142.358134144983,-36.9655968839447],[142.358143556632,-36.9731232167347],[142.394692715912,-36.9732448511977],[142.394663531445,-36.9783640452231],[142.382217807968,-36.9783160522276],[142.382308822578,-36.9788335198545],[142.380583036746,-36.9805189897361],[142.377891558391,-36.982003369299],[142.376044924001,-36.9821581790527],[142.375379114272,-36.9825427256519],[142.376156138128,-36.9837470852622],[142.372108895396,-36.9816840591042],[142.368615128067,-36.9803822439552],[142.351515402885,-36.9802546180696],[142.351488810956,-36.9912707327113],[142.358317468674,-36.9912545191623],[142.358366273245,-36.9975261308223],[142.358111159789,-36.9975782858196],[142.358127304312,-36.9999242056434],[142.35030820728,-36.9998841437806],[142.351025129352,-36.9988413850599],[142.350938851559,-36.9912733222007],[142.340000740081,-36.9913003543406],[142.33993765589,-37.0032197508532],[142.346329171832,-37.0032075300096],[142.346650221629,-37.0033865208729],[142.346902896159,-37.0137460637295],[142.338696418628,-37.0138810158225],[142.336385809783,-37.0112333811279],[142.335042887722,-37.0190382907767],[142.359471183977,-37.021380629972],[142.360868533164,-37.0218381290149],[142.361594470728,-37.021347408834],[142.361417098376,-37.0144230898703],[142.368379683225,-37.0143073427867],[142.368416568949,-37.0090147130913],[142.380512121941,-37.0091088117281],[142.380479673895,-37.0153805086819],[142.393194046642,-37.015409514099],[142.393214742928,-37.016204509122],[142.40495770268,-37.0162963430346],[142.405097476047,-37.021347931691],[142.411003245066,-37.0213638311333],[142.41094257375,-37.0343212893034],[142.405990059181,-37.0314353349959],[142.403427004877,-37.0302554300751],[142.397547755921,-37.0284183280757],[142.395925759641,-37.0283155197847],[142.395804319991,-37.0430252812059],[142.391052657041,-37.0430521228566],[142.39104490997,-37.0462570818105],[142.406821594605,-37.0460030361296],[142.406925012254,-37.0583228629055],[142.37457068172,-37.058561827343],[142.365573493601,-37.0654668061287],[142.365267264209,-37.0669646160414],[142.36465210419,-37.0676383206978],[142.362881065726,-37.0677063846842],[142.35400925098,-37.0744500447082],[142.346346889304,-37.0680452758668],[142.344487549142,-37.0695921120733],[142.340324340196,-37.0661097947836],[142.315268836617,-37.0857597830002],[142.308346463953,-37.0859709058061],[142.308294072409,-37.0969122036884],[142.308082382616,-37.098457682883],[142.300252757329,-37.0984617912733],[142.2881638357,-37.0885145873023],[142.286610040414,-37.0894641109845],[142.284957584059,-37.0909446032723],[142.284161356917,-37.091206703134],[142.284169517213,-37.0915557970273],[142.283659348692,-37.0920682257542],[142.28267700859,-37.0925372988913],[142.276530899807,-37.0974363468939],[142.274526963224,-37.1000362671118],[142.270647118851,-37.1075685763444],[142.26821870494,-37.1071122237907],[142.235039231393,-37.106894222107],[142.234567597005,-37.1060499691234],[142.234723478961,-37.1078239238694],[142.234579594904,-37.1135253298227],[142.234854530584,-37.1163351729895],[142.234648540602,-37.1186645333012],[142.234925386101,-37.1192656199209],[142.234535991578,-37.1209025186987],[142.231440752842,-37.1206490690241],[142.229164709373,-37.1198099032217],[142.226396211261,-37.1172502970947],[142.224981383554,-37.1170191192214],[142.223342166569,-37.1161893049687],[142.223019486329,-37.1158683209814],[142.222499916939,-37.1140329071237],[142.221337242738,-37.1121891518185],[142.218158370849,-37.110267684095],[142.217701185861,-37.1094996398479],[142.217607169082,-37.1089349030776],[142.217812771891,-37.1085403318958],[142.216786197845,-37.1065525378888],[142.217062946326,-37.1059552448347],[142.217203582076,-37.1045184527459],[142.217803274902,-37.1032454171761],[142.219913250417,-37.1024416951586],[142.220948733954,-37.1013093716587],[142.220689456807,-37.1005871598457],[142.220737776287,-37.0991806150069],[142.220332496855,-37.0986854230772],[142.220316346045,-37.0976080903402],[142.220004937865,-37.0973106909692],[142.220347072919,-37.0968017713446],[142.220256319719,-37.0956056839904],[142.219319234944,-37.0920255117889],[142.218531932565,-37.0910130712627],[142.217294116087,-37.0907306753364],[142.215567355583,-37.0889926927872],[142.214209599642,-37.0886511929649],[142.213068764384,-37.0880191071043],[142.211906754936,-37.0869186053475],[142.211726461262,-37.0864276673405],[142.210635150126,-37.0858220003347],[142.210354521821,-37.0850695140746],[142.209424382819,-37.0842961628216],[142.207861206427,-37.0838067872926],[142.204872683953,-37.0839196629464],[142.202190813978,-37.0846929478112],[142.198825227257,-37.0869200672228],[142.196040160619,-37.0881540490124],[142.194689466334,-37.0893021340207],[142.1939616468,-37.0905019918711],[142.194262842033,-37.0911321710234],[142.194094138423,-37.0918400959259],[142.194693301242,-37.0929935013554],[142.194237540983,-37.0934136288176],[142.194351263206,-37.0940347009192],[142.19319177533,-37.1016363016951],[142.19255953744,-37.1024525538065],[142.19133276485,-37.1053819088231],[142.19048299632,-37.1059865246824],[142.189921233061,-37.1077867981736],[142.18673363314,-37.1094410382447],[142.186516797797,-37.1102009972452],[142.186829769045,-37.1115703819612],[142.186675861586,-37.1119849971088],[142.185896708723,-37.111076440869],[142.185595642847,-37.1101208329661],[142.183540485225,-37.1109454347326],[142.181856434223,-37.110955529935],[142.177735936575,-37.1076802151874],[142.176422952667,-37.1076446769847],[142.172551043113,-37.10880534466],[142.165024118636,-37.1061618437589],[142.163733922292,-37.1059527086883],[142.15371254785,-37.1070071636712],[142.141356988278,-37.11195761965],[142.13897892404,-37.1117571786978],[142.137618883683,-37.1103852047674],[142.133575910644,-37.1095381430415],[142.122236015079,-37.1096921892907],[142.117561577599,-37.1118657918687],[142.114641135746,-37.1120234589222],[142.114087664834,-37.1158890609312],[142.11123454183,-37.1192858976432],[142.107931706025,-37.1301088067634],[142.108291925064,-37.1361768840165],[142.10938175937,-37.1378191503518],[142.110168682661,-37.141172267258],[142.109860919844,-37.1420635827649],[142.108051057092,-37.1440683531738],[142.107231943571,-37.1460834581245],[142.108131270359,-37.1493320987536],[142.107874827396,-37.1527151990248],[142.1079873872,-37.154100183817],[142.109225807345,-37.1571269653098],[142.109713616799,-37.1594239461474],[142.109453739577,-37.1615181211365],[142.108852119865,-37.1634817459977],[142.108191134089,-37.164385402218],[142.106580520362,-37.1649447470955],[142.098128729096,-37.166744737133],[142.095616758389,-37.1688411359613],[142.092487301027,-37.1706796219623],[142.090288015904,-37.1835440327361],[142.087679496965,-37.1883073762676],[142.086750990203,-37.1910168257181],[142.086435666266,-37.1954947682802],[142.087555392912,-37.1982349918789],[142.087574512654,-37.1991352257206],[142.084568337387,-37.2052733071045],[142.084921593584,-37.2062090562435],[142.088846738201,-37.2100442500234],[142.088825870337,-37.2127615930382],[142.088268486364,-37.2135904843288],[142.085695064603,-37.2148239088547],[142.085067309307,-37.2157402041178],[142.084717296027,-37.2180751019979],[142.083165616274,-37.2208661259616],[142.081770988084,-37.2223877951269],[142.07964978722,-37.2236837470507],[142.076182727703,-37.2227930722887],[142.071686523162,-37.2208861110485],[142.064778827174,-37.2184729690286],[142.061504020602,-37.2191213970265],[142.059275594131,-37.2199259796599],[142.05734838086,-37.2203195613271],[142.054936845395,-37.221674856779],[142.053230013117,-37.2222716223348],[142.052711394144,-37.2228901860635],[142.052257952437,-37.2230539221671],[142.048302852599,-37.2218716028905],[142.047384695327,-37.2223088828284],[142.045429160869,-37.222065744703],[142.044586667795,-37.2221787417706],[142.043347041212,-37.2226316117685],[142.042176822061,-37.2236778779283],[142.039308153711,-37.2241370557935],[142.037373581441,-37.2237046441268],[142.036039585939,-37.2229507663173],[142.034369350128,-37.2229073708603],[142.032537398701,-37.223045409186],[142.029661987596,-37.2236762427286],[142.025354209178,-37.2240835701889],[142.020510239841,-37.2233270151709],[142.01664761707,-37.2231319702999],[142.015416636772,-37.2232036191444],[142.013869067709,-37.2236848343226],[142.011813128553,-37.2234571149052],[142.004351498122,-37.224449922895],[142.000580316661,-37.2244907659795],[141.998040932964,-37.2240083198926],[141.995693821078,-37.2224332567337],[141.994857344022,-37.2211212591112],[141.994624270731,-37.2199788430008],[141.99366126956,-37.2185460029421],[141.99215605786,-37.2154704753013],[141.991407292308,-37.2145862158106],[141.991136821254,-37.2132198622536],[141.990066710358,-37.2126130758048],[141.981096568715,-37.2118968743213],[141.97942172814,-37.2114563789952],[141.974056986568,-37.2108869060268],[141.968328024861,-37.2104031130465],[141.96689455801,-37.2105043508028],[141.965515432944,-37.2101494932874],[141.960530930266,-37.2101189061271],[141.957909037209,-37.2098243900516],[141.954726164224,-37.2089030269505],[141.953429401196,-37.2087596133111],[141.952834879971,-37.2092213216644],[141.951662954021,-37.2096180062556],[141.94492219825,-37.2107157981586],[141.943982485004,-37.2098083240874],[141.942490566573,-37.2076243291835],[141.941891399262,-37.2072150726658],[141.937180570132,-37.2066674546892],[141.938286494163,-37.1999768322041],[141.921290867552,-37.1981985710027],[141.920565758235,-37.2031931216804],[141.912750782674,-37.2021574629774],[141.913423497753,-37.2016908279898],[141.913555162925,-37.2010684040564],[141.912385878022,-37.1997885281433],[141.911212633346,-37.1992161672081],[141.910378802726,-37.1983912360153],[141.910821989266,-37.1976144442636],[141.910940734869,-37.1967599241045],[141.910418961012,-37.1927461091512],[141.91101324059,-37.1915500996729],[141.913491979022,-37.1885779149513],[141.917773255343,-37.1866429847322],[141.919800699938,-37.186065336267],[141.919798717356,-37.1845275882519],[141.918844394809,-37.1839882207303],[141.919234037267,-37.1827118098202],[141.919628970802,-37.1826803548494],[141.920633586429,-37.1819989453562],[141.927468776696,-37.1806883861375],[141.92988714295,-37.1797087378844],[141.930031375554,-37.1794273663496],[141.929826628839,-37.1783834540974],[141.930402875636,-37.1777996192612],[141.930509376303,-37.1770869568052],[141.929859496399,-37.1767359210782],[141.929922841101,-37.1762706692876],[141.930920492988,-37.1752559869607],[141.931209877172,-37.1745308946752],[141.931709371012,-37.174377517246],[141.932506436283,-37.1733605332895],[141.932449584603,-37.1727492039602],[141.932988166837,-37.1725325151422],[141.932977260391,-37.172222794181],[141.934873474598,-37.171503417122],[141.935498517881,-37.1708829282835],[141.934945839284,-37.1699534592734],[141.934352746381,-37.1696918646516],[141.930473873086,-37.1698846389026],[141.928304225181,-37.1695865313418],[141.927788698209,-37.1692464172066],[141.928167763005,-37.1686696257006],[141.928308104107,-37.1676572608405],[141.92921591099,-37.1670945300389],[141.933939850134,-37.1667659821297],[141.934747291844,-37.1665717617769],[141.934941610016,-37.1662452761204],[141.93332264016,-37.1657228892642],[141.933540580431,-37.1649810436996],[141.934160131414,-37.1648597958074],[141.93391292493,-37.1644769443535],[141.931899980939,-37.1644824229186],[141.93145042175,-37.1640836692481],[141.931670429943,-37.163674511034],[141.93137794208,-37.1633805239331],[141.930569570614,-37.16304624282],[141.929587436225,-37.1631178606518],[141.92955542476,-37.1624075538835],[141.928635559791,-37.1618227307986],[141.928068665354,-37.1605569431881],[141.928554241596,-37.1579374937517],[141.927643713716,-37.1577709302012],[141.926896320789,-37.156973904801],[141.925902176824,-37.1552505660906],[141.926155619413,-37.154460779032],[141.925268118049,-37.1535099839264],[141.925346643381,-37.1528011527327],[141.924370056089,-37.152734272809],[141.924067012123,-37.1524274957526],[141.924571827584,-37.1503654309563],[141.926001562834,-37.1479698271086],[141.926714499979,-37.1472893798594],[141.928301116112,-37.1464264131972],[141.92909541008,-37.1453952247365],[141.929953923708,-37.1453351307405],[141.930473079874,-37.1446977350375],[141.930288917156,-37.1443800927952],[141.929772879043,-37.1442232399901],[141.928867736562,-37.1445397873188],[141.928223541197,-37.1428620349327],[141.924956779938,-37.1408762176663],[141.925231579973,-37.1402795978439],[141.925102262996,-37.1399960522217],[141.925634090797,-37.1395959878262],[141.925907264882,-37.1386070552409],[141.925786754988,-37.1382071066726],[141.926524155954,-37.1367211330783],[141.927923599114,-37.1358599722659],[141.92771967885,-37.1355091203266],[141.92699318433,-37.1353576059091],[141.926112490398,-37.1347539092262],[141.926101992686,-37.1337085162549],[141.925337927926,-37.1333758127318],[141.9248961733,-37.1324092939068],[141.924858530297,-37.1311479162237],[141.925973300038,-37.130866416909],[141.926194884774,-37.1303902881266],[141.926727622569,-37.1302168779461],[141.926989582086,-37.1290692196489],[141.925777597562,-37.1284836137407],[141.925459079217,-37.1277683233436],[141.924824873118,-37.1280770482547],[141.923991725218,-37.1281246458205],[141.922847979418,-37.1268277993052],[141.92354491667,-37.1261257958865],[141.924502728274,-37.126238740997],[141.925557177042,-37.1251373862957],[141.925268001268,-37.124879954145],[141.924693735256,-37.1229054266908],[141.925197526637,-37.1224106069038],[141.924401577074,-37.1218184700479],[141.924147211915,-37.1208577136823],[141.923013673672,-37.1209585442715],[141.921336679835,-37.1201126437452],[141.920531551287,-37.1201906521553],[141.91958528034,-37.1196632840545],[141.918961806414,-37.1185659911201],[141.918771821714,-37.1175890899906],[141.918195998922,-37.1173583801909],[141.917805981867,-37.1167156428404],[141.917298544224,-37.1164894417994],[141.917503525399,-37.1161079149423],[141.91739588477,-37.1157691956477],[141.916492493106,-37.1157592379066],[141.916599931614,-37.1151944948082],[141.914900384674,-37.1145625831058],[141.913014978996,-37.1149656201388],[141.912221093762,-37.1138745529758],[141.910929909271,-37.1132290739248],[141.909425726142,-37.1136695990623],[141.909184303909,-37.1155238176429],[141.90871586932,-37.1161852476829],[141.908446890367,-37.1174885550501],[141.908062668344,-37.1180675872006],[141.906216592706,-37.1195427772138],[141.905182877054,-37.1198120800405],[141.904737759136,-37.1209339291826],[141.905849261705,-37.1222129920968],[141.905934852287,-37.1228682761572],[141.905534317756,-37.1232824641454],[141.904945630191,-37.1230304270328],[141.904507607167,-37.1231609509867],[141.905078903348,-37.1238805881929],[141.905172498817,-37.1247453956669],[141.906480065884,-37.1252980539859],[141.906934422076,-37.1252524880562],[141.907560404099,-37.1244779017325],[141.908558789909,-37.1248829122429],[141.90989821393,-37.1242390469318],[141.910554169141,-37.1247012017361],[141.910188040085,-37.1253733940654],[141.910456554609,-37.125940106089],[141.909611619015,-37.1260553907013],[141.90934692323,-37.1264191500004],[141.909338912055,-37.1269823153184],[141.909637335087,-37.1274704687068],[141.909466168296,-37.1281149239071],[141.909796026075,-37.1286425038543],[141.909779461141,-37.1291684149449],[141.91040804738,-37.1295494741901],[141.910228963736,-37.130153428687],[141.911029016803,-37.1305074832094],[141.911303171848,-37.1313537660348],[141.910500616973,-37.13281288406],[141.909256720698,-37.1341129538562],[141.90891889037,-37.134915710221],[141.908356957329,-37.135140317911],[141.907166361693,-37.1351398839245],[141.90608507306,-37.1356102071133],[141.904641828046,-37.1358467580024],[141.904142475241,-37.1357112171376],[141.902696547858,-37.1345377109147],[141.901024516315,-37.1343926012878],[141.89908934936,-37.1357850723118],[141.89879304186,-37.1363774601159],[141.899102834869,-37.1373725060717],[141.898716326633,-37.1376874937033],[141.896008116257,-37.1367623508985],[141.89495915889,-37.1368312988172],[141.894082851432,-37.1359189379882],[141.890508621105,-37.1358481401578],[141.889055074212,-37.1370841321407],[141.887722667829,-37.1372067043009],[141.88711364061,-37.1377795071487],[141.885921180969,-37.1383310541106],[141.884843057999,-37.1413403862004],[141.883995908957,-37.1422028459033],[141.884505845713,-37.1426182793138],[141.88449926735,-37.1436965756873],[141.884170080612,-37.1439337550606],[141.883106276788,-37.1439165336684],[141.882885888608,-37.1444273707672],[141.882108400323,-37.1449327151257],[141.882765456868,-37.1460587022701],[141.882040430195,-37.146186148327],[141.881455879372,-37.1469594770519],[141.880560386594,-37.1472546722342],[141.880050473195,-37.1471439817838],[141.879703409085,-37.1466660271397],[141.879199492838,-37.1466837369613],[141.875631928909,-37.147897735236],[141.87512451013,-37.147475567895],[141.875044751411,-37.1467690172876],[141.874047511851,-37.1466191780434],[141.871988787918,-37.1475214849031],[141.871559156955,-37.1475760293489],[141.870729308567,-37.1472267977149],[141.869834367355,-37.1474062602047],[141.869654475228,-37.1478332117239],[141.86867970972,-37.1478180097063],[141.867567564855,-37.1481485811172],[141.865945086179,-37.1494059907508],[141.865146696792,-37.1495444126592],[141.863583328161,-37.1491250398166],[141.862731348877,-37.1485800436814],[141.86097746015,-37.1460521332637],[141.859661289919,-37.1455876477905],[141.857926306237,-37.1462136129362],[141.857679299178,-37.1466459071219],[141.858357175078,-37.14800174333],[141.859107589937,-37.1484908079383],[141.859829073654,-37.1494871208571],[141.860359613271,-37.1506735560189],[141.860155546581,-37.1512389508587],[141.859205194588,-37.151514370043],[141.858439839847,-37.1514094896859],[141.857739880662,-37.1506147500101],[141.856494999833,-37.1497961932005],[141.855808997773,-37.1505559718798],[141.855627661155,-37.1512726227561],[141.855135829046,-37.1518566739953],[141.854413024805,-37.1519705057561],[141.854089765152,-37.1523056298756],[141.851322675599,-37.1520233858974],[141.850359999618,-37.152489558084],[141.849581150385,-37.1525570711544],[141.847646378689,-37.1519233599458],[141.846903058724,-37.1524102877502],[141.845829447992,-37.1525738960718],[141.84550503041,-37.1531617648826],[141.845220828607,-37.1529933349896],[141.844672920963,-37.1531402876649],[141.84448706492,-37.1529438550036],[141.843762691323,-37.1531900288545],[141.843282009103,-37.1527324019459],[141.843002684253,-37.153224655714],[141.842572223247,-37.1533516608245],[141.840826634055,-37.1531001276787],[141.839793931703,-37.1532285040965],[141.838994625136,-37.1536989281808],[141.838128278198,-37.1536671088724],[141.836569730824,-37.1549062656487],[141.837314620146,-37.1557786040355],[141.837306223593,-37.1561509407093],[141.836017710692,-37.1566156899215],[141.834779117172,-37.1574340540623],[141.834539024446,-37.1578645307829],[141.835288639804,-37.1585389227741],[141.835290928712,-37.1596812178075],[141.835897033712,-37.1604254621418],[141.836294638837,-37.1605422699215],[141.837132496604,-37.1603013669224],[141.83761638581,-37.1606237059422],[141.8388875747,-37.1606032717749],[141.839835553345,-37.1610631197427],[141.839352184263,-37.1615234603156],[141.839377047834,-37.1627527787372],[141.83979132569,-37.1635200799848],[141.839684849278,-37.1643199241991],[141.840344050101,-37.1646954566829],[141.841309736337,-37.1647963233474],[141.841566555693,-37.1654280847411],[141.842306523146,-37.1660055753248],[141.842355731959,-37.1662980897248],[141.841448392199,-37.1671441833043],[141.840759300833,-37.1674182216678],[141.840032764092,-37.1684520511506],[141.838758800306,-37.16835542496],[141.838402990198,-37.1689067152901],[141.837684825756,-37.1688276661822],[141.837530380206,-37.1691189427307],[141.836674698067,-37.1693653910426],[141.83649413939,-37.1702539533519],[141.835903783653,-37.1707574021455],[141.832715200976,-37.171662256956],[141.830803568983,-37.171043931882],[141.829795657438,-37.1703363359551],[141.828461871243,-37.1699310247643],[141.826955545632,-37.1698770998821],[141.826461965401,-37.1690604588753],[141.825841849377,-37.1688589000029],[141.82476849736,-37.1698915258101],[141.824250746159,-37.1707142257787],[141.824301254834,-37.1711647518207],[141.823763169369,-37.1717965866749],[141.822825436909,-37.1722025907734],[141.822363963364,-37.1736999439017],[141.82182141956,-37.1740494863003],[141.820790883944,-37.1741986806643],[141.820213939156,-37.1736585078571],[141.819870252712,-37.1727192050597],[141.817972467351,-37.1710794410301],[141.815794945712,-37.1701392450426],[141.81436690738,-37.1701688047394],[141.81204580262,-37.1681083842203],[141.811352086726,-37.1680561602996],[141.811089190267,-37.1683510068271],[141.810852265,-37.1695159647424],[141.811242599161,-37.1704052239171],[141.813927730919,-37.1714184467215],[141.814411544666,-37.1723022727948],[141.814649884779,-37.1743684311619],[141.813588572882,-37.1757998316702],[141.812095828899,-37.1769490262315],[141.810013999398,-37.1775677066631],[141.809433800014,-37.1773225992204],[141.807774282901,-37.1749286641493],[141.806540698386,-37.174377485036],[141.806026169443,-37.1738076092255],[141.806829241747,-37.170356841936],[141.806199504767,-37.1692775606601],[141.805322054652,-37.16921322576],[141.803496534264,-37.1703314891642],[141.802991784381,-37.1702819238911],[141.802703136815,-37.169957812173],[141.802802348552,-37.1688179287409],[141.802527078698,-37.1675833523201],[141.801067142986,-37.1665083136619],[141.800499713154,-37.1664248072912],[141.799918189653,-37.1667982146968],[141.799860206096,-37.1671857560684],[141.799193453136,-37.1677887751211],[141.799134188582,-37.1682466323001],[141.800553039844,-37.1687356196446],[141.801359178098,-37.1693545641843],[141.800731225172,-37.1718734280085],[141.799303158992,-37.1725043936875],[141.797719232415,-37.1727336597927],[141.796542407952,-37.1732112900284],[141.796481978283,-37.1749119071953],[141.795720897726,-37.1756055937371],[141.795276025946,-37.1755489100452],[141.794652900566,-37.1749174279504],[141.794294580566,-37.1730136497294],[141.793285515583,-37.1725171641949],[141.786754035832,-37.1740761341034],[141.785558659362,-37.1736952941672],[141.785114798187,-37.1731581169186],[141.785342246227,-37.1725067980447],[141.787468130906,-37.1714717971437],[141.787644814251,-37.1705696558504],[141.787514148005,-37.1694182683225],[141.787140449745,-37.1689769946952],[141.785262356354,-37.1688360406814],[141.784440722161,-37.16898273278],[141.779936881041,-37.1712009552456],[141.77689655003,-37.1715578648126],[141.776749699736,-37.1722100021498],[141.777035381963,-37.1728286512412],[141.777595086283,-37.1730469003488],[141.780188087724,-37.1730539251156],[141.781048427628,-37.1743208369273],[141.78054629813,-37.1748507472525],[141.778379048727,-37.1760742172825],[141.777577190945,-37.1768956038068],[141.776618002224,-37.1771608703453],[141.776108953902,-37.1770616707093],[141.777341935647,-37.1756020192008],[141.775716726092,-37.1721186726682],[141.77552232258,-37.1710378646814],[141.776754345823,-37.1700702988568],[141.776569523741,-37.1690296517717],[141.774657822578,-37.1680484271046],[141.773331926287,-37.1643503230275],[141.773313138921,-37.161964468912],[141.771120042292,-37.159233718235],[141.772157523682,-37.1559544428424],[141.770549093759,-37.1512967711709],[141.765216502891,-37.1487651487808],[141.770366737553,-37.1145188108878],[141.770748723669,-37.1131002213025],[141.771567785087,-37.112174436932],[141.772157406002,-37.1092482911549],[141.772866754378,-37.1078211391921],[141.773389284616,-37.1072855343054],[141.772461208147,-37.1051074536661],[141.772111511074,-37.1036303682608],[141.772150053292,-37.1027202272959],[141.780824607883,-37.0454347302201],[141.778400875992,-37.0452003512442],[141.779796776196,-37.0364667938629],[141.779884220901,-37.0344880491588],[141.780832299259,-37.0280190929157],[141.77059233686,-37.0269878470879],[141.771683322806,-37.0219880788484],[141.781021165556,-37.0229487251761],[141.783848309282,-37.0030711772575],[141.784730805234,-36.997507441252],[141.785014241672,-36.9973534949792],[141.786284741555,-36.988542510673],[141.791063831867,-36.9890131336896],[141.792189441579,-36.9810959519373],[141.791662197881,-36.9803475101131],[141.785405410368,-36.9796780542253],[141.785836160631,-36.9792291382311],[141.786086271369,-36.9775714188348],[141.780399720025,-36.9770277838179],[141.780505682601,-36.9758584728656],[141.778281689316,-36.9749911447734],[141.776402199943,-36.9735701549513],[141.775653938346,-36.9717992219696],[141.775902338691,-36.9708150338483],[141.778243907972,-36.9690779991914],[141.779621598428,-36.9686723459664],[141.780302777433,-36.9682712531624],[141.779542299646,-36.9686097677618],[141.779572970825,-36.968312088876],[141.779351336681,-36.9686110201877],[141.778913879596,-36.9686769781439],[141.779559443993,-36.9680868268468],[141.781055851305,-36.9675016900815],[141.760931924363,-36.9656925852101],[141.755723908266,-36.9650046961799],[141.751340339885,-36.9647530840513],[141.746482602968,-36.9640752639576],[141.739579456946,-36.9635308987477],[141.735693179737,-36.9628399389156],[141.734518573214,-36.9630554748298],[141.732132629853,-36.9626212118635],[141.730343938596,-36.9626732658983],[141.726376266835,-36.9620689097663],[141.724287229252,-36.9620644272037],[141.703856556386,-36.9599419396743],[141.700889333866,-36.9597521512679],[141.700206545978,-36.9599434090196],[141.657763297574,-36.9556860287894],[141.657645705408,-36.9554681181962],[141.668743473564,-36.8836371112413],[141.671074176823,-36.8838159391812],[141.67238860073,-36.8836682283087],[141.67415916129,-36.8840541451382],[141.679339884772,-36.8842332968712],[141.68016418786,-36.8846396590238],[141.680752692169,-36.8844369531566],[141.683222244429,-36.8845219391144],[141.683512234077,-36.8843219453345],[141.683883175407,-36.8817320589372],[141.706471484805,-36.8838462018542],[141.710037720126,-36.8617642042958],[141.709798552665,-36.8615323959598],[141.710497443752,-36.855708725134],[141.711106650635,-36.8551432162501],[141.711834504306,-36.8506343301512],[141.70276955896,-36.8497380438791],[141.704112328307,-36.8408780997668],[141.704767390592,-36.8409190051577],[141.702295041877,-36.8180585766583],[141.703549929939,-36.8094718013498],[141.70075591069,-36.8091925657316],[141.7022435747,-36.7994499468416],[141.71778245372,-36.8010787637396],[141.725564233836,-36.7500520191485],[141.727631242033,-36.7506934812332],[141.73036701362,-36.7331595559972],[141.728426392095,-36.7332348706766],[141.728465928748,-36.7322478107695],[141.731184211933,-36.715461685838],[141.731027608629,-36.7152228282157],[141.731701004631,-36.7107391652304],[141.732049115278,-36.7105274468564],[141.731836142691,-36.710296059142],[141.731884694835,-36.7095114803324],[141.740985744371,-36.6521846437816],[141.816140592281,-36.659723089145],[141.821059462248,-36.6280702969615],[141.826176260716,-36.6286088387195],[141.83768131514,-36.5542815952345],[141.97004846392,-36.5660894761701],[141.969985350085,-36.5664616430501],[141.973588541199,-36.5663116401539],[141.992031588192,-36.5670585442601],[141.992966234042,-36.5671433973298],[141.993001214439,-36.5673094192686],[141.995878194002,-36.5674435309111],[142.00394961522,-36.5674385800642],[142.004102337802,-36.5664525752803],[142.00588625631,-36.5651806433542],[142.005758106245,-36.5644201378371],[142.005042198371,-36.5633227963448],[142.005073543286,-36.5622012569766],[142.006021054807,-36.561483456973],[142.007849888182,-36.5611807257586],[142.009434124677,-36.560041676309],[142.01019346879,-36.5602529052095],[142.011331790562,-36.5586097289929],[142.010563324057,-36.5582903961155],[142.010421150392,-36.5578705116946],[142.01058726416,-36.5573104181155],[142.012437781069,-36.5558200019571],[142.012024076337,-36.5554727561996],[142.010724771077,-36.5553595581241],[142.010310038673,-36.5527515900697],[142.00968822663,-36.5519511656484],[142.010268339776,-36.551244696849],[142.013107396061,-36.5512637906852],[142.013598442145,-36.550954199919],[142.011713796442,-36.5497396101315],[142.010439308039,-36.5485643499821],[142.010482965264,-36.548167246275],[142.011899127868,-36.5465242042151],[142.012506701614,-36.5454544031221],[142.012740089315,-36.5441354687425],[142.013725054294,-36.5418360099767],[142.013665134868,-36.5405411978858],[142.013363212898,-36.5397398278365],[142.012860813906,-36.5393996681427],[142.012169149764,-36.5394877547068],[142.012056924134,-36.5392146619249],[142.01310191005,-36.5384205823224],[142.014448490051,-36.5388047921473],[142.015228675078,-36.5387006998716],[142.015625403447,-36.5383450271692],[142.015904085103,-36.5371602706769],[142.014663065233,-36.5352804623097],[142.014822635671,-36.5350277770003],[142.019650685065,-36.5361193829914],[142.020117305956,-36.5358563977023],[142.019833218239,-36.5344009697706],[142.020005340837,-36.5333955310675],[142.024030783254,-36.532331843981],[142.025243743347,-36.5315822777846],[142.02530534981,-36.5310538486707],[142.024389306273,-36.5307593621055],[142.023472094029,-36.5300771431845],[142.023684559967,-36.5292075233299],[142.023530861815,-36.5289141608694],[142.022193062846,-36.5280117773587],[142.022882081449,-36.5270838408806],[142.023049417823,-36.5260756447846],[142.023393518391,-36.5256407940951],[142.02430911277,-36.5255668528481],[142.025537225646,-36.5249857558814],[142.026117884069,-36.5244249186999],[142.026431437426,-36.5227803166802],[142.028329091632,-36.5219375493446],[142.028652539034,-36.5211859917145],[142.028145101391,-36.519681033837],[142.028433167746,-36.5195062781294],[142.028684946656,-36.5186066950298],[142.029290270122,-36.5178302562323],[142.030409846749,-36.5176127459324],[142.030686882691,-36.5172013798492],[142.029855368826,-36.5170201858945],[142.02954026857,-36.5164600201539],[142.029703001079,-36.5160222159969],[142.030318621035,-36.5155279388946],[142.030062542788,-36.5147619148011],[142.027541165822,-36.5129203210229],[142.028280794609,-36.5124559077247],[142.029960062981,-36.5121861186881],[142.030350981945,-36.5116849457361],[142.030273149213,-36.511196572987],[142.028120289923,-36.510021682272],[142.027358585935,-36.5085612822425],[142.02479425782,-36.5083790658689],[142.024038314729,-36.5080196471397],[142.021608478785,-36.5055783676772],[142.021596161984,-36.5052872948354],[142.022334092057,-36.5044582918151],[142.022462306801,-36.5037558407557],[142.018064689668,-36.5016157597931],[142.018131149727,-36.5012078152297],[142.019153959832,-36.4998458730211],[142.019071012093,-36.4976145240811],[142.01883203238,-36.4969810213095],[142.01777516894,-36.4966601961486],[142.016842911711,-36.4981241179494],[142.016680483731,-36.4988949131483],[142.016166683321,-36.4991971437376],[142.015693191217,-36.4990629757979],[142.016797561162,-36.4951758607682],[142.018101775716,-36.4940345570937],[142.02018390256,-36.4935493401252],[142.068247493777,-36.4929758362568],[142.071442987194,-36.4959090610441],[142.07547210372,-36.4928046853372],[142.099847909615,-36.4927922558274],[142.099863698405,-36.4941989840503],[142.100221455162,-36.4942109056483],[142.118206795247,-36.4940997959664],[142.118499262449,-36.4940725650248],[142.118469604569,-36.4927254970988],[142.168333029747,-36.4925864670231],[142.164619006291,-36.4818764768755],[142.16453550519,-36.4695870590873],[142.16596656276,-36.4695097260825],[142.165889154932,-36.4326545199853],[142.174128806348,-36.4326712363403],[142.176658684072,-36.4330051109704],[142.198057721052,-36.4375551299937],[142.229068579756,-36.4374418692726],[142.244733683751,-36.4399514177903],[142.268087109836,-36.4401792282201],[142.274252156901,-36.4398881871825],[142.284148826317,-36.4399173190139],[142.291039123735,-36.4403388798383],[142.301091260087,-36.4402927133111],[142.308481817608,-36.4399053991813],[142.325217511302,-36.4399280796713]]]}}]}