{"type":"FeatureCollection","name":"overlay-formed","features":[{"type":"Feature","properties":{"name":"One Tree Rd","surface":"formed","hierarchy":"Minor","length_m":10935},"geometry":{"type":"MultiLineString","coordinates":[[[142.26797,-36.84237],[142.26789,-36.85297],[142.26767,-36.85346],[142.26744,-36.85365],[142.26684,-36.85384],[142.26677,-36.85411]],[[142.26677,-36.85411],[142.26668,-36.85758],[142.26635,-36.85825],[142.26633,-36.8585],[142.26643,-36.85984],[142.2667,-36.86026],[142.26676,-36.86049],[142.26671,-36.86873]],[[142.26671,-36.86873],[142.26668,-36.87829]],[[142.26708,-36.77054],[142.26698,-36.80416]],[[142.26698,-36.80416],[142.26697,-36.80567]],[[142.26697,-36.80567],[142.26697,-36.8069]],[[142.26697,-36.8069],[142.26686,-36.8337]]]}},{"type":"Feature","properties":{"name":"Ross Rd","surface":"formed","hierarchy":"Minor","length_m":1144},"geometry":{"type":"LineString","coordinates":[[142.42888,-36.84135],[142.42787,-36.84141],[142.40483,-36.84143]]}},{"type":"Feature","properties":{"name":"Greenhills Rd","surface":"formed","hierarchy":"Minor","length_m":8080},"geometry":{"type":"MultiLineString","coordinates":[[[142.2688,-36.61916],[142.29599,-36.60738]],[[142.29599,-36.60738],[142.30322,-36.60428]],[[142.30322,-36.60428],[142.32209,-36.59621]],[[142.32209,-36.59621],[142.32769,-36.59378],[142.32894,-36.59348]],[[142.32894,-36.59348],[142.34227,-36.59076],[142.34284,-36.59076]],[[142.34284,-36.59076],[142.35146,-36.59082]]]}},{"type":"Feature","properties":{"name":"Three Mile Rd","surface":"formed","hierarchy":"Minor","length_m":10920},"geometry":{"type":"MultiLineString","coordinates":[[[142.00899,-36.68384],[142.02672,-36.68378]],[[142.02672,-36.68378],[142.03134,-36.68377]],[[142.03134,-36.68377],[142.04229,-36.68375]],[[142.04932,-36.68294],[142.0673,-36.6829]],[[142.0673,-36.6829],[142.08535,-36.68284]],[[142.08535,-36.68284],[142.09802,-36.68278]],[[142.12166,-36.68265],[142.13855,-36.68264]],[[142.13855,-36.68264],[142.14093,-36.68263]],[[142.14093,-36.68263],[142.15334,-36.68258]],[[142.15334,-36.68258],[142.16148,-36.68255]]]}},{"type":"Feature","properties":{"name":"Hermans Rd","surface":"formed","hierarchy":"Minor","length_m":4715},"geometry":{"type":"MultiLineString","coordinates":[[[142.26965,-36.47019],[142.26958,-36.48239]],[[142.2729,-36.43993],[142.27288,-36.45488]],[[142.27288,-36.45488],[142.27278,-36.47019]]]}},{"type":"Feature","properties":{"name":"Mt Talbot Rd","surface":"formed","hierarchy":"Minor","length_m":4080},"geometry":{"type":"MultiLineString","coordinates":[[[142.06748,-36.95761],[142.06735,-36.9585],[142.06776,-36.96116],[142.06785,-36.9614],[142.06812,-36.96158],[142.06817,-36.96182],[142.06736,-36.96738]],[[142.06707,-36.96936],[142.06143,-36.96881]],[[142.06143,-36.96881],[142.06125,-36.96879]],[[142.06125,-36.96879],[142.06008,-36.96868],[142.06,-36.96923]],[[142.0591,-36.97518],[142.05807,-36.98195]],[[142.0464,-37.0585],[142.04617,-37.05983],[142.04613,-37.06061],[142.04583,-37.0618],[142.04542,-37.06452]],[[142.04542,-37.06452],[142.04538,-37.06479]],[[142.04461,-37.07021],[142.04363,-37.07653]]]}},{"type":"Feature","properties":{"name":"Augheys Rd","surface":"formed","hierarchy":"Access","length_m":220},"geometry":{"type":"LineString","coordinates":[[142.38065,-37.02895],[142.38058,-37.03058]]}},{"type":"Feature","properties":{"name":"Hammond McCuish Rd","surface":"formed","hierarchy":"Minor","length_m":2070},"geometry":{"type":"MultiLineString","coordinates":[[[141.88579,-36.76563],[141.89083,-36.7729],[141.89187,-36.77465],[141.89227,-36.775],[141.89526,-36.77939]],[[141.89526,-36.77939],[141.89665,-36.78142],[141.89674,-36.78197],[141.8981,-36.78392],[141.90176,-36.78619]]]}},{"type":"Feature","properties":{"name":"Cooks Ln","surface":"formed","hierarchy":"Minor","length_m":5570},"geometry":{"type":"MultiLineString","coordinates":[[[141.92021,-36.87261],[141.93984,-36.87455]],[[141.93984,-36.87455],[141.95385,-36.87593]],[[141.95385,-36.87593],[141.96587,-36.87712],[141.96615,-36.87742],[141.9666,-36.87949],[141.96699,-36.88029],[141.96736,-36.88065],[141.96831,-36.8809],[141.9689,-36.88087],[141.97041,-36.8804],[141.97055,-36.88029],[141.97077,-36.88001],[141.97146,-36.8778],[141.97163,-36.8777],[141.97732,-36.87826]]]}},{"type":"Feature","properties":{"name":"Flacks Rd","surface":"formed","hierarchy":"Minor","length_m":11995},"geometry":{"type":"MultiLineString","coordinates":[[[142.18656,-36.57733],[142.18655,-36.57836]],[[142.18655,-36.57836],[142.18652,-36.592]],[[142.18652,-36.592],[142.18656,-36.59861]],[[142.18656,-36.59861],[142.1866,-36.60644]],[[142.18661,-36.61148],[142.18661,-36.62097]],[[142.18663,-36.62767],[142.18667,-36.63537]],[[142.18667,-36.63537],[142.18679,-36.65179]],[[142.18679,-36.65179],[142.18682,-36.65917]],[[142.18682,-36.65917],[142.18686,-36.66627]],[[142.18686,-36.66627],[142.1869,-36.67406]],[[142.1869,-36.67406],[142.18694,-36.67959]],[[142.18694,-36.67959],[142.18698,-36.68544]],[[142.18698,-36.68544],[142.18704,-36.69673]],[[142.18704,-36.69673],[142.18704,-36.697]]]}},{"type":"Feature","properties":{"name":"Remlaw Station Rd","surface":"formed","hierarchy":"Minor","length_m":2950},"geometry":{"type":"MultiLineString","coordinates":[[[142.11712,-36.69983],[142.11716,-36.70985]],[[142.11716,-36.70985],[142.1172,-36.71829]],[[142.11729,-36.7309],[142.11734,-36.73901]]]}},{"type":"Feature","properties":{"name":"Wawunna Rd","surface":"formed","hierarchy":"Minor","length_m":25},"geometry":{"type":"LineString","coordinates":[[142.19626,-36.69938],[142.19621,-36.69959]]}},{"type":"Feature","properties":{"name":"Bow Lake Rd","surface":"formed","hierarchy":"Minor","length_m":160},"geometry":{"type":"LineString","coordinates":[[141.85792,-36.92516],[141.85969,-36.9253]]}},{"type":"Feature","properties":{"name":"Mc Kenzies Rd","surface":"formed","hierarchy":"Minor","length_m":4410},"geometry":{"type":"MultiLineString","coordinates":[[[142.18192,-36.84092],[142.18256,-36.84099]],[[142.18256,-36.84099],[142.1822,-36.84121]],[[142.18256,-36.84099],[142.18301,-36.84094],[142.2465,-36.8411],[142.24751,-36.84118],[142.26131,-36.84116],[142.26296,-36.84122],[142.26463,-36.84114],[142.26544,-36.84121],[142.26638,-36.84146],[142.26688,-36.84146],[142.268,-36.84122],[142.26919,-36.84117],[142.28511,-36.84124]]]}},{"type":"Feature","properties":{"name":"Geodetic Rd","surface":"formed","hierarchy":"Minor","length_m":19350},"geometry":{"type":"MultiLineString","coordinates":[[[142.16594,-36.46266],[142.16597,-36.46951]],[[142.16833,-36.49259],[142.16833,-36.49606]],[[142.16833,-36.49606],[142.16832,-36.50092]],[[142.16832,-36.50092],[142.16833,-36.51154]],[[142.16833,-36.51154],[142.16829,-36.52446]],[[142.16829,-36.52446],[142.16831,-36.53774]],[[142.16844,-36.56849],[142.16837,-36.57987]],[[142.16837,-36.57987],[142.16837,-36.58412]],[[142.16837,-36.5883],[142.16836,-36.59397]],[[142.16836,-36.59397],[142.16837,-36.61094]],[[142.16837,-36.61094],[142.16838,-36.62662]],[[142.16841,-36.63646],[142.16845,-36.64302]],[[142.16845,-36.64302],[142.16851,-36.65331]],[[142.16858,-36.66404],[142.16868,-36.68069]],[[142.16868,-36.68069],[142.16872,-36.69564],[142.16987,-36.69701],[142.16935,-36.6972]]]}},{"type":"Feature","properties":{"name":"Vectis Station Rd","surface":"formed","hierarchy":"Minor","length_m":3770},"geometry":{"type":"MultiLineString","coordinates":[[[142.06285,-36.68426],[142.06292,-36.70065]],[[142.06298,-36.72136],[142.06302,-36.72966]],[[142.06302,-36.72966],[142.06306,-36.73892]]]}},{"type":"Feature","properties":{"name":"Bells Rd","surface":"formed","hierarchy":"Minor","length_m":7725},"geometry":{"type":"MultiLineString","coordinates":[[[142.06707,-36.96936],[142.08389,-36.97098],[142.08507,-36.97104],[142.08553,-36.97118],[142.08729,-36.97127],[142.08966,-36.97161],[142.09022,-36.97162]],[[142.09022,-36.97162],[142.09085,-36.97162],[142.09329,-36.97195],[142.09377,-36.97188],[142.09432,-36.97202],[142.09516,-36.97207],[142.10271,-36.97199],[142.12353,-36.97405]],[[142.12353,-36.97405],[142.13428,-36.97512]],[[142.13428,-36.97512],[142.13845,-36.97554],[142.13967,-36.97557],[142.14021,-36.97572],[142.14102,-36.97575],[142.14129,-36.97585]],[[142.28657,-36.57384],[142.30777,-36.574]],[[142.30777,-36.574],[142.34171,-36.57416]],[[142.34171,-36.57416],[142.36037,-36.57428]],[[142.36037,-36.57441],[142.36064,-36.57448],[142.36377,-36.57655],[142.37188,-36.57654]]]}},{"type":"Feature","properties":{"name":"Red Rock Rd","surface":"formed","hierarchy":"Access","length_m":1505},"geometry":{"type":"LineString","coordinates":[[142.13961,-36.99019],[142.13437,-36.98964],[142.13333,-36.98975],[142.13207,-36.98942],[142.13029,-36.98956],[142.12999,-36.98952],[142.12904,-36.98912],[142.12869,-36.98906],[142.12424,-36.98863]]}},{"type":"Feature","properties":{"name":"Browns Rd","surface":"formed","hierarchy":"Access","length_m":4633},"geometry":{"type":"MultiLineString","coordinates":[[[141.95914,-36.76788],[141.95953,-36.76788]],[[141.95953,-36.76788],[141.96126,-36.76786]],[[141.96126,-36.76786],[141.96908,-36.76778]],[[141.92715,-36.768],[141.9406,-36.76802]],[[141.9439,-36.76801],[141.95953,-36.76788]],[[141.96126,-36.76786],[141.96574,-36.76782]],[[142.28548,-36.7091],[142.2365,-36.70902]],[[142.2365,-36.70902],[142.23527,-36.70901]]]}},{"type":"Feature","properties":{"name":"Quades Rd","surface":"formed","hierarchy":"Minor","length_m":590},"geometry":{"type":"LineString","coordinates":[[141.86306,-36.62],[141.86122,-36.63208]]}},{"type":"Feature","properties":{"name":"Drung-Jung Rd","surface":"formed","hierarchy":"Minor","length_m":2728},"geometry":{"type":"LineString","coordinates":[[142.3374,-36.63502],[142.33741,-36.64615],[142.3375,-36.64651],[142.33872,-36.64813],[142.34,-36.65025],[142.34012,-36.6506],[142.34001,-36.65181],[142.33747,-36.65963],[142.33729,-36.66002],[142.337,-36.66036],[142.33595,-36.66122]]}},{"type":"Feature","properties":{"name":"Remlaw Rd","surface":"formed","hierarchy":"Minor","length_m":5240},"geometry":{"type":"MultiLineString","coordinates":[[[142.11484,-36.71354],[142.11559,-36.71344],[142.11639,-36.71346],[142.11702,-36.71354],[142.11718,-36.71363],[142.15089,-36.71349]],[[142.15089,-36.71349],[142.16113,-36.71347]],[[142.16915,-36.71342],[142.17133,-36.71328],[142.17375,-36.7128],[142.18081,-36.71067]]]}},{"type":"Feature","properties":{"name":"Quick Sinclair Russells Rd","surface":"formed","hierarchy":"Minor","length_m":12600},"geometry":{"type":"MultiLineString","coordinates":[[[142.00336,-36.83886],[141.99798,-36.87365]],[[141.99798,-36.87365],[141.99449,-36.89645]],[[141.99321,-36.90484],[141.98936,-36.92993]],[[141.98936,-36.92993],[141.98622,-36.95029],[141.98624,-36.95061],[141.98636,-36.95081],[141.98711,-36.95165],[141.98723,-36.95189],[141.98724,-36.95314],[141.9871,-36.95329],[141.9857,-36.95412],[141.98562,-36.95425],[141.98494,-36.95859]]]}},{"type":"Feature","properties":{"name":"Chapmans Ln","surface":"formed","hierarchy":"Minor","length_m":1100},"geometry":{"type":"LineString","coordinates":[[141.77983,-36.80821],[141.77998,-36.80841],[141.77998,-36.80882],[141.77985,-36.80999],[141.7797,-36.81047],[141.7797,-36.81134],[141.77933,-36.81307],[141.77937,-36.81358],[141.77918,-36.81409],[141.77919,-36.8146],[141.779,-36.81547],[141.77896,-36.8162],[141.77884,-36.81634],[141.77874,-36.81667],[141.77859,-36.81837],[141.77839,-36.81911],[141.77828,-36.82046],[141.7769,-36.82904]]}},{"type":"Feature","properties":{"name":"Staehrs Rd","surface":"formed","hierarchy":"Minor","length_m":6900},"geometry":{"type":"MultiLineString","coordinates":[[[142.28459,-36.97352],[142.28452,-36.9839],[142.28336,-36.98395],[142.2825,-36.98412],[142.28029,-36.98616],[142.27846,-36.98728],[142.27641,-36.98809],[142.2758,-36.98884],[142.27588,-36.98932],[142.27612,-36.98969],[142.2762,-36.99001],[142.2779,-36.99169],[142.27819,-36.9918],[142.27874,-36.99181]],[[142.27874,-36.99181],[142.28448,-36.9919]],[[142.28495,-36.87802],[142.28494,-36.8795]],[[142.28489,-36.89333],[142.28483,-36.90549]],[[142.28483,-36.90549],[142.28481,-36.90971]],[[142.28481,-36.90971],[142.28473,-36.92469]]]}},{"type":"Feature","properties":{"name":"Farnhams Rd","surface":"formed","hierarchy":"Minor","length_m":1340},"geometry":{"type":"MultiLineString","coordinates":[[[141.66971,-36.88377],[141.67066,-36.8838]],[[141.67068,-36.8838],[141.67218,-36.88368]],[[141.67416,-36.88405],[141.67538,-36.88406]],[[141.6759,-36.88407],[141.6765,-36.88407]],[[141.6765,-36.88407],[141.67686,-36.88414]],[[141.67782,-36.88418],[141.67811,-36.88413]],[[141.6786,-36.88426],[141.67934,-36.88423]],[[141.67934,-36.88423],[141.68016,-36.88464],[141.68075,-36.88444],[141.68327,-36.88451]],[[141.68337,-36.88449],[141.6834,-36.88446]],[[141.68347,-36.88439],[141.68428,-36.88464],[141.68486,-36.88523],[141.68524,-36.88647],[141.68604,-36.88782],[141.68701,-36.88842],[141.68772,-36.88906],[141.68945,-36.88874],[141.69006,-36.88841],[141.69156,-36.88825],[141.69268,-36.8879],[141.69433,-36.8878],[141.69504,-36.88765],[141.69629,-36.88776],[141.69676,-36.88758],[141.69811,-36.88746],[141.69847,-36.88725],[141.69897,-36.88712],[141.69969,-36.88702],[141.70021,-36.8871],[141.70104,-36.88709]]]}},{"type":"Feature","properties":{"name":"Peuckers Rd","surface":"formed","hierarchy":"Minor","length_m":8560},"geometry":{"type":"MultiLineString","coordinates":[[[142.24884,-36.78018],[142.24876,-36.79461]],[[142.24876,-36.79461],[142.2487,-36.80931]],[[142.2487,-36.80931],[142.2487,-36.82077]],[[142.2487,-36.82077],[142.2487,-36.82348]],[[142.2487,-36.82348],[142.2487,-36.82457],[142.24837,-36.82493],[142.24866,-36.8255],[142.24869,-36.82648],[142.24862,-36.8387]],[[142.24862,-36.8387],[142.24853,-36.85719]]]}},{"type":"Feature","properties":{"name":"Old Wartook Rd","surface":"formed","hierarchy":"Minor","length_m":5470},"geometry":{"type":"MultiLineString","coordinates":[[[142.29451,-36.8347],[142.29759,-36.83734]],[[142.29759,-36.83734],[142.30217,-36.84129],[142.3031,-36.84143],[142.30362,-36.84191],[142.30433,-36.84372],[142.30501,-36.84504],[142.30724,-36.85012]],[[142.30724,-36.85012],[142.3074,-36.85048]],[[142.3074,-36.85048],[142.31032,-36.85712]],[[142.31392,-36.86523],[142.31832,-36.8751],[142.31933,-36.87756]]]}},{"type":"Feature","properties":{"name":"Dock Lake Rd","surface":"formed","hierarchy":"Minor","length_m":1170},"geometry":{"type":"LineString","coordinates":[[142.30933,-36.78255],[142.30187,-36.78255],[142.30171,-36.78263],[142.30119,-36.78322],[142.29869,-36.7867]]}},{"type":"Feature","properties":{"name":"Arnotts Rd","surface":"formed","hierarchy":"Minor","length_m":7915},"geometry":{"type":"MultiLineString","coordinates":[[[142.30217,-36.84129],[142.28511,-36.84124]],[[142.39481,-36.8414],[142.39374,-36.8414]],[[142.39374,-36.8414],[142.37894,-36.84137]],[[142.35771,-36.84135],[142.33983,-36.84135]],[[142.33983,-36.84135],[142.32152,-36.84133]],[[142.32152,-36.84133],[142.32127,-36.84132]],[[142.32127,-36.84132],[142.32027,-36.84132]],[[142.32027,-36.84132],[142.31959,-36.84132]],[[142.31959,-36.84132],[142.31009,-36.8413]],[[142.31009,-36.8413],[142.30436,-36.84129],[142.30394,-36.84133],[142.30346,-36.84172]]]}},{"type":"Feature","properties":{"name":"Rifle Butts Rd","surface":"formed","hierarchy":"Minor","length_m":5235},"geometry":{"type":"MultiLineString","coordinates":[[[142.08046,-36.85892],[142.11261,-36.86224],[142.11302,-36.85974],[142.11326,-36.85951],[142.11369,-36.85948],[142.11696,-36.85983]],[[142.11696,-36.85983],[142.13147,-36.86137],[142.13998,-36.86237]],[[142.13998,-36.86237],[142.14106,-36.86249]]]}},{"type":"Feature","properties":{"name":"Stubgate Rd","surface":"formed","hierarchy":"Minor","length_m":2208},"geometry":{"type":"LineString","coordinates":[[142.04657,-37.05731],[142.04728,-37.05729],[142.04925,-37.05744],[142.05219,-37.05785],[142.0531,-37.05781],[142.05415,-37.058],[142.05588,-37.05808],[142.05914,-37.05841],[142.06034,-37.05863],[142.06831,-37.05938],[142.07148,-37.05913],[142.07583,-37.05905],[142.08416,-37.05985],[142.09144,-37.05955],[142.09297,-37.05925]]}},{"type":"Feature","properties":{"name":"Pennys Rd","surface":"formed","hierarchy":"Minor","length_m":3265},"geometry":{"type":"MultiLineString","coordinates":[[[142.1936,-36.79849],[142.1939,-36.79866],[142.19398,-36.79888],[142.19397,-36.8002]],[[142.19397,-36.8002],[142.19388,-36.81304]],[[142.19388,-36.81304],[142.19379,-36.82772]]]}},{"type":"Feature","properties":{"name":"Hinnebergs Rd","surface":"formed","hierarchy":"Minor","length_m":4938},"geometry":{"type":"MultiLineString","coordinates":[[[142.00828,-36.5618],[142.01168,-36.56175],[142.01467,-36.56189],[142.01927,-36.56176],[142.02148,-36.56181]],[[142.02844,-36.56181],[142.04038,-36.56177],[142.04078,-36.56184],[142.04091,-36.562],[142.04096,-36.56182],[142.04111,-36.56175],[142.04441,-36.56188],[142.04565,-36.56185]],[[142.05329,-36.56181],[142.05608,-36.56162],[142.06064,-36.56155],[142.06267,-36.56165],[142.0664,-36.56162]],[[142.06981,-36.56162],[142.07107,-36.56153],[142.07956,-36.56163]]]}},{"type":"Feature","properties":{"name":"Rosebrook-Glenisla Rd","surface":"formed","hierarchy":"Minor","length_m":2120},"geometry":{"type":"LineString","coordinates":[[142.30261,-37.07721],[142.30177,-37.07783],[142.30113,-37.07818],[142.29966,-37.07933],[142.29936,-37.07964],[142.29874,-37.08004],[142.29828,-37.08055],[142.29618,-37.08208],[142.29415,-37.08395],[142.29193,-37.08531],[142.29047,-37.0865],[142.28983,-37.08719],[142.28886,-37.08778],[142.2885,-37.08808],[142.28816,-37.08851]]}},{"type":"Feature","properties":{"name":"Jung West Rd","surface":"formed","hierarchy":"Minor","length_m":5320},"geometry":{"type":"LineString","coordinates":[[142.29544,-36.60761],[142.29642,-36.60749],[142.35768,-36.6078]]}},{"type":"Feature","properties":{"name":"Pimpinio School Rd","surface":"formed","hierarchy":"Minor","length_m":230},"geometry":{"type":"LineString","coordinates":[[142.11486,-36.5826],[142.11492,-36.58281],[142.1158,-36.58404],[142.1186,-36.58767]]}},{"type":"Feature","properties":{"name":"Grahams Bridge Rd","surface":"formed","hierarchy":"Minor","length_m":6490},"geometry":{"type":"MultiLineString","coordinates":[[[142.21224,-36.79739],[142.21217,-36.81216]],[[142.21217,-36.81216],[142.21208,-36.82694]],[[142.21208,-36.82694],[142.21203,-36.83424],[142.21207,-36.83481],[142.21225,-36.83531],[142.21226,-36.83583]],[[142.21226,-36.83583],[142.21228,-36.83662],[142.21214,-36.83736]],[[142.21328,-36.86007],[142.21331,-36.86143],[142.21302,-36.86302],[142.21314,-36.86374]],[[142.21314,-36.86374],[142.21322,-36.86418],[142.21408,-36.8788]]]}},{"type":"Feature","properties":{"name":"Joys Rd","surface":"formed","hierarchy":"Minor","length_m":800},"geometry":{"type":"LineString","coordinates":[[142.46491,-36.75807],[142.46536,-36.75914],[142.46608,-36.76024],[142.46619,-36.76206],[142.4663,-36.76276],[142.46652,-36.76345]]}},{"type":"Feature","properties":{"name":"Tyers Rd","surface":"formed","hierarchy":"Minor","length_m":5770},"geometry":{"type":"MultiLineString","coordinates":[[[142.06674,-36.83454],[142.09268,-36.83721]],[[142.09268,-36.83721],[142.11522,-36.83952]],[[142.12263,-36.84026],[142.13262,-36.84128],[142.13288,-36.84113],[142.13303,-36.8408],[142.13315,-36.84071],[142.1334,-36.84069],[142.13491,-36.84139],[142.13547,-36.84147],[142.13863,-36.84147],[142.13991,-36.84139],[142.14166,-36.84154],[142.14276,-36.84153],[142.14468,-36.8414],[142.14739,-36.84148],[142.14917,-36.84144],[142.15937,-36.84157]]]}},{"type":"Feature","properties":{"name":"Hickeys Rd","surface":"formed","hierarchy":"Minor","length_m":4130},"geometry":{"type":"MultiLineString","coordinates":[[[142.20339,-36.90117],[142.20294,-36.901]],[[142.20335,-36.9016],[142.20332,-36.90129],[142.20339,-36.90117]],[[142.31715,-36.9011],[142.3076,-36.90108],[142.29509,-36.90117],[142.28312,-36.90107]],[[142.23317,-36.90117],[142.20541,-36.90108],[142.20339,-36.90117]]]}},{"type":"Feature","properties":{"name":"Centre Rd","surface":"formed","hierarchy":"Minor","length_m":1620},"geometry":{"type":"LineString","coordinates":[[142.30361,-36.75319],[142.28442,-36.75316]]}},{"type":"Feature","properties":{"name":"Smiths Reserve Rd","surface":"formed","hierarchy":"Minor","length_m":4000},"geometry":{"type":"MultiLineString","coordinates":[[[142.0994,-36.78213],[142.09888,-36.78626],[142.09845,-36.78847],[142.09821,-36.79029],[142.0978,-36.7919],[142.09755,-36.79427],[142.09721,-36.7957],[142.09734,-36.79645],[142.0973,-36.79683],[142.09624,-36.80297],[142.09626,-36.80326],[142.09487,-36.81252]],[[142.0994,-36.78213],[142.10028,-36.78157],[142.10036,-36.78136],[142.10084,-36.78107],[142.10207,-36.78063],[142.10266,-36.78073],[142.10287,-36.78088],[142.10297,-36.78123],[142.10317,-36.78141],[142.1037,-36.78166],[142.10398,-36.7817],[142.10489,-36.78154],[142.10579,-36.78146],[142.10628,-36.78149],[142.10897,-36.78117],[142.10929,-36.78099],[142.10956,-36.78062],[142.11015,-36.78025],[142.11098,-36.77997],[142.11197,-36.78003],[142.1129,-36.78027],[142.11434,-36.78024],[142.11464,-36.78031],[142.11568,-36.78064],[142.11689,-36.7814],[142.12027,-36.78246],[142.12061,-36.78267],[142.12081,-36.78321],[142.12081,-36.78338],[142.12063,-36.78368],[142.12076,-36.78421],[142.12074,-36.78536],[142.12097,-36.78611],[142.12155,-36.78701],[142.12157,-36.78725],[142.12175,-36.78762],[142.12199,-36.78782],[142.12254,-36.78805]],[[142.09952,-36.77703],[142.09958,-36.77728],[142.09951,-36.78046],[142.09928,-36.78074],[142.09927,-36.78126],[142.0994,-36.78178],[142.0994,-36.78213]]]}},{"type":"Feature","properties":{"name":"Tuckers Rd","surface":"formed","hierarchy":"Minor","length_m":2625},"geometry":{"type":"LineString","coordinates":[[142.31433,-36.66322],[142.27818,-36.6634]]}},{"type":"Feature","properties":{"name":"Schmidts Swamp Rd","surface":"formed","hierarchy":"Minor","length_m":2130},"geometry":{"type":"LineString","coordinates":[[141.78605,-36.67063],[141.78721,-36.67071],[141.78766,-36.67086],[141.79266,-36.67132],[141.79311,-36.67143],[141.79657,-36.67169],[141.79842,-36.67193],[141.79902,-36.67216],[141.79953,-36.67204],[141.81024,-36.67314]]}},{"type":"Feature","properties":{"name":"Lawsons Rd","surface":"formed","hierarchy":"Minor","length_m":2985},"geometry":{"type":"MultiLineString","coordinates":[[[142.17723,-36.54719],[142.19659,-36.54711]],[[142.19659,-36.54711],[142.20715,-36.54716]],[[142.20715,-36.54716],[142.20924,-36.54716]]]}},{"type":"Feature","properties":{"name":"Plumpton Rd","surface":"formed","hierarchy":"Minor","length_m":660},"geometry":{"type":"LineString","coordinates":[[142.19769,-36.73336],[142.20461,-36.73336],[142.20502,-36.73363]]}},{"type":"Feature","properties":{"name":"Reynolds Rd","surface":"formed","hierarchy":"Minor","length_m":8590},"geometry":{"type":"MultiLineString","coordinates":[[[142.13589,-36.52825],[142.13764,-36.52835]],[[142.13764,-36.52835],[142.15502,-36.52832]],[[142.15513,-36.52831],[142.15796,-36.5283]],[[142.15796,-36.5283],[142.16639,-36.52831]],[[142.16639,-36.52831],[142.16829,-36.52831]],[[142.16829,-36.52831],[142.1814,-36.52824]],[[142.15796,-36.5283],[142.16746,-36.52831]],[[142.16746,-36.52831],[142.16829,-36.52831]],[[142.16829,-36.52831],[142.17318,-36.52828]],[[142.17318,-36.52828],[142.18849,-36.52819],[142.20543,-36.52812]],[[142.20543,-36.52812],[142.21018,-36.5281]],[[142.2368,-36.7971],[142.19659,-36.79699],[142.19591,-36.7968]]]}},{"type":"Feature","properties":{"name":"Carmichaels Rd","surface":"formed","hierarchy":"Minor","length_m":2190},"geometry":{"type":"MultiLineString","coordinates":[[[142.13485,-36.77183],[142.13547,-36.77179],[142.13674,-36.77213],[142.14037,-36.77242]],[[142.14037,-36.77242],[142.14329,-36.77242],[142.14545,-36.77288],[142.14625,-36.77284],[142.14748,-36.77244],[142.15001,-36.77113],[142.15075,-36.77063],[142.15107,-36.77012],[142.15145,-36.76778],[142.15179,-36.76746],[142.15301,-36.76661],[142.15356,-36.76609],[142.15506,-36.76523]]]}},{"type":"Feature","properties":{"name":"Smiths Rd","surface":"formed","hierarchy":"Minor","length_m":5215},"geometry":{"type":"MultiLineString","coordinates":[[[141.93718,-37.20667],[141.93805,-37.20143]],[[141.93829,-37.19998],[141.93897,-37.19485]],[[142.31067,-36.5387],[142.311,-36.53877],[142.32254,-36.53872]],[[142.32254,-36.53872],[142.33712,-36.53867]],[[142.35669,-36.98026],[142.34009,-36.98024]],[[142.34009,-36.98024],[142.32521,-36.98029]],[[142.33715,-36.5391],[142.3526,-36.53912]],[[142.35948,-36.53914],[142.37189,-36.53917]],[[142.36886,-36.98045],[142.36764,-36.98032]],[[142.37397,-36.98267],[142.37211,-36.98168],[142.37011,-36.98091]],[[142.37616,-36.98375],[142.37469,-36.98308]],[[142.39319,-37.01541],[142.39327,-37.0171],[142.39347,-37.01758],[142.39374,-37.0179],[142.39612,-37.01994],[142.39616,-37.02745],[142.39619,-37.02789],[142.39647,-37.02828]]]}},{"type":"Feature","properties":{"name":"Crutes South Rd","surface":"formed","hierarchy":"Minor","length_m":1210},"geometry":{"type":"MultiLineString","coordinates":[[[142.47554,-36.88093],[142.47432,-36.88204],[142.473,-36.883],[142.4722,-36.88378],[142.46698,-36.88812]],[[142.48464,-36.87327],[142.48554,-36.87314],[142.48628,-36.87285]],[[142.4864,-36.87154],[142.48539,-36.87226],[142.48464,-36.87327]]]}},{"type":"Feature","properties":{"name":"Ailsa Wheat Rd","surface":"formed","hierarchy":"Minor","length_m":3345},"geometry":{"type":"LineString","coordinates":[[142.32747,-36.44025],[142.32737,-36.46985],[142.32761,-36.47006],[142.32849,-36.4704]]}},{"type":"Feature","properties":{"name":"Kings Rd","surface":"formed","hierarchy":"Minor","length_m":3870},"geometry":{"type":"MultiLineString","coordinates":[[[142.19299,-36.45578],[142.22399,-36.45587]],[[142.2479,-36.45478],[142.25469,-36.45519],[142.25706,-36.4552]],[[142.25706,-36.4552],[142.2603,-36.45521]],[[142.29654,-36.45525],[142.31085,-36.45527]],[[142.31085,-36.45527],[142.31767,-36.45531]],[[142.31767,-36.45531],[142.3274,-36.45536]]]}},{"type":"Feature","properties":{"name":"Dogwood Rd","surface":"formed","hierarchy":"Minor","length_m":12905},"geometry":{"type":"MultiLineString","coordinates":[[[142.29104,-36.44034],[142.29101,-36.45034]],[[142.29101,-36.45034],[142.29094,-36.48111],[142.29067,-36.48152]],[[142.29067,-36.48152],[142.28511,-36.4899],[142.28168,-36.49429]],[[142.28168,-36.49429],[142.27685,-36.50044],[142.27694,-36.50752]],[[142.27694,-36.50752],[142.27706,-36.51943]],[[142.27706,-36.51943],[142.27715,-36.53061]],[[142.27715,-36.53061],[142.27722,-36.54015]],[[142.27722,-36.54015],[142.2773,-36.54878]],[[142.2773,-36.54878],[142.27733,-36.55301]]]}},{"type":"Feature","properties":{"name":"Mackies Rd","surface":"formed","hierarchy":"Minor","length_m":1110},"geometry":{"type":"MultiLineString","coordinates":[[[142.23613,-36.76774],[142.24232,-36.76779]],[[142.24232,-36.76779],[142.24564,-36.76772]],[[142.24564,-36.76772],[142.24885,-36.76778]]]}},{"type":"Feature","properties":{"name":"Fulbrooks Rd","surface":"formed","hierarchy":"Minor","length_m":3190},"geometry":{"type":"MultiLineString","coordinates":[[[142.48164,-36.8557],[142.47751,-36.85573]],[[142.47452,-36.85572],[142.46667,-36.85569],[142.46528,-36.85575],[142.46468,-36.85568],[142.46367,-36.85578],[142.46304,-36.85571],[142.45875,-36.85579],[142.45622,-36.85574]],[[142.43684,-36.85575],[142.43108,-36.85577],[142.42982,-36.85569],[142.42824,-36.85589],[142.4263,-36.85594],[142.42578,-36.85577],[142.42491,-36.85575],[142.42372,-36.85586]]]}},{"type":"Feature","properties":{"name":"Dunns Rd","surface":"formed","hierarchy":"Access","length_m":1270},"geometry":{"type":"LineString","coordinates":[[142.23536,-36.89059],[142.23656,-36.89343],[142.23653,-36.89382],[142.23675,-36.89423],[142.2367,-36.89459],[142.2374,-36.89581],[142.23785,-36.89783],[142.23791,-36.89892],[142.23809,-36.89946],[142.23835,-36.89987],[142.23945,-36.90044],[142.23985,-36.90097]]}},{"type":"Feature","properties":{"name":"Puls Ln","surface":"formed","hierarchy":"Minor","length_m":360},"geometry":{"type":"LineString","coordinates":[[142.10258,-36.88626],[142.10212,-36.88964]]}},{"type":"Feature","properties":{"name":"Winfields Rd","surface":"formed","hierarchy":"Minor","length_m":2610},"geometry":{"type":"MultiLineString","coordinates":[[[142.3581,-36.99125],[142.35796,-36.99135],[142.35739,-36.99139],[142.35715,-36.99149],[142.35684,-36.9918],[142.3567,-36.99296],[142.35661,-36.99314],[142.35625,-36.99342]],[[142.35817,-36.90349],[142.35816,-36.90833]],[[142.35816,-36.90833],[142.35816,-36.91091]],[[142.35816,-36.91091],[142.35815,-36.9204]],[[142.35815,-36.9204],[142.35815,-36.92095]]]}},{"type":"Feature","properties":{"name":"Dyers Rd","surface":"formed","hierarchy":"Minor","length_m":1770},"geometry":{"type":"MultiLineString","coordinates":[[[141.97849,-37.062],[141.98004,-37.06087],[141.9804,-37.06044]],[[141.9804,-37.06044],[141.9805,-37.0599],[141.9804,-37.05944],[141.97987,-37.05879],[141.97969,-37.05866],[141.97902,-37.05849]],[[141.9804,-37.06044],[141.9952,-37.06191]]]}},{"type":"Feature","properties":{"name":"Tom Smiths Rd","surface":"formed","hierarchy":"Minor","length_m":4440},"geometry":{"type":"MultiLineString","coordinates":[[[142.21394,-37.03572],[142.21336,-37.03982],[142.21318,-37.04054],[142.21168,-37.04999],[142.21189,-37.05126],[142.2118,-37.0646]],[[142.2118,-37.0646],[142.21173,-37.07527]]]}},{"type":"Feature","properties":{"name":"Brennans Rd","surface":"formed","hierarchy":"Minor","length_m":1670},"geometry":{"type":"LineString","coordinates":[[142.00583,-37.07757],[141.98728,-37.07576]]}},{"type":"Feature","properties":{"name":"Dunstans Rd","surface":"formed","hierarchy":"Minor","length_m":800},"geometry":{"type":"LineString","coordinates":[[141.99742,-37.14774],[141.99605,-37.15684]]}},{"type":"Feature","properties":{"name":"Laharum-Grahams Bridge Rd","surface":"formed","hierarchy":"Access","length_m":2250},"geometry":{"type":"MultiLineString","coordinates":[[[142.27243,-36.95221],[142.27244,-36.9526],[142.27231,-36.95287],[142.27182,-36.95324],[142.27144,-36.95332],[142.26756,-36.95339]],[[142.26756,-36.95339],[142.26702,-36.9534]],[[142.26702,-36.9534],[142.26511,-36.95344],[142.26203,-36.95328],[142.25706,-36.95334]],[[142.25706,-36.95334],[142.25499,-36.95343],[142.25061,-36.95332]],[[142.25061,-36.95332],[142.24854,-36.95338]]]}},{"type":"Feature","properties":{"name":"Downies Ln","surface":"formed","hierarchy":"Minor","length_m":3220},"geometry":{"type":"MultiLineString","coordinates":[[[142.14129,-36.97585],[142.14117,-36.97664],[142.14145,-36.97853],[142.14001,-36.98763]],[[142.14001,-36.98763],[142.13955,-36.99058]],[[142.13955,-36.99058],[142.13869,-36.99625],[142.13854,-36.99661],[142.13778,-36.99771],[142.13771,-36.99796],[142.13784,-36.99838],[142.13845,-36.99908]]]}},{"type":"Feature","properties":{"name":"Kelly Rd","surface":"formed","hierarchy":"Minor","length_m":6570},"geometry":{"type":"MultiLineString","coordinates":[[[142.22294,-36.56078],[142.22308,-36.561],[142.22308,-36.57495]],[[142.22308,-36.57495],[142.22309,-36.58053]],[[142.22309,-36.58053],[142.22311,-36.58673]],[[142.22311,-36.58673],[142.2231,-36.59681]],[[142.2231,-36.59681],[142.2231,-36.59834]],[[142.2231,-36.60076],[142.2231,-36.60148]],[[142.2231,-36.60148],[142.22314,-36.62142],[142.22307,-36.62176],[142.22276,-36.62215]]]}},{"type":"Feature","properties":{"name":"Reinheimers Rd","surface":"formed","hierarchy":"Minor","length_m":8830},"geometry":{"type":"MultiLineString","coordinates":[[[141.98897,-36.6249],[141.99126,-36.62495],[141.99243,-36.62487],[141.9928,-36.62494],[141.99907,-36.62488]],[[141.99907,-36.62488],[142.00223,-36.62488],[142.00307,-36.62506],[142.0041,-36.62487]],[[142.0041,-36.62487],[142.01698,-36.62488]],[[142.01698,-36.62488],[142.02262,-36.62486]],[[142.02262,-36.62486],[142.03509,-36.62483]],[[142.03509,-36.62483],[142.05321,-36.62479]],[[142.09831,-36.62468],[142.13258,-36.62459]]]}},{"type":"Feature","properties":{"name":"Drendels Rd","surface":"formed","hierarchy":"Minor","length_m":1430},"geometry":{"type":"LineString","coordinates":[[142.1068,-36.60993],[142.12518,-36.60984]]}},{"type":"Feature","properties":{"name":"St Helens School Rd","surface":"formed","hierarchy":"Minor","length_m":1000},"geometry":{"type":"LineString","coordinates":[[142.4243,-36.78266],[142.41309,-36.78266]]}},{"type":"Feature","properties":{"name":"Wail-Polkemmet Rd","surface":"formed","hierarchy":"Minor","length_m":8220},"geometry":{"type":"MultiLineString","coordinates":[[[142.10261,-36.50943],[142.10113,-36.51089],[142.0973,-36.514],[142.0896,-36.51902],[142.08469,-36.52437],[142.0841,-36.52513],[142.0838,-36.52557],[142.08284,-36.52803]],[[142.08284,-36.52803],[142.08206,-36.5302],[142.08112,-36.5401]],[[142.08112,-36.5401],[142.08036,-36.54734]],[[142.08036,-36.54734],[142.08031,-36.54838],[142.0804,-36.54984],[142.08064,-36.55125],[142.08068,-36.55202],[142.07943,-36.5628]],[[142.07943,-36.5628],[142.0793,-36.56398]],[[142.0793,-36.56398],[142.07789,-36.57661],[142.07594,-36.57958]]]}},{"type":"Feature","properties":{"name":"Wail-Dooen Rd","surface":"formed","hierarchy":"Minor","length_m":15986},"geometry":{"type":"MultiLineString","coordinates":[[[142.11904,-36.51173],[142.11935,-36.51193],[142.12634,-36.51858],[142.12962,-36.5222]],[[142.13596,-36.52831],[142.14387,-36.53586],[142.14443,-36.53625]],[[142.14443,-36.53625],[142.14531,-36.53687],[142.16054,-36.55003]],[[142.16054,-36.55003],[142.16653,-36.55519],[142.16898,-36.55763],[142.17584,-36.56348]],[[142.17584,-36.56348],[142.17917,-36.56633],[142.17976,-36.56693],[142.18014,-36.56757],[142.1804,-36.56823],[142.18085,-36.56987],[142.18116,-36.57047],[142.18172,-36.57104]],[[142.18666,-36.57443],[142.18794,-36.57539],[142.19224,-36.5791],[142.19271,-36.57935],[142.19608,-36.58242]],[[142.19608,-36.58242],[142.19831,-36.58435],[142.19918,-36.58572],[142.2022,-36.59133],[142.20371,-36.59337],[142.20413,-36.59414],[142.20591,-36.5963]],[[142.21184,-36.60353],[142.22035,-36.61456],[142.22055,-36.61492],[142.22108,-36.61663]],[[142.22108,-36.61663],[142.2218,-36.61899]],[[142.2218,-36.61899],[142.22276,-36.62215],[142.22306,-36.62351],[142.22343,-36.6243],[142.22396,-36.62505],[142.22925,-36.63117]],[[142.22972,-36.63171],[142.23031,-36.6324],[142.23114,-36.63316],[142.23181,-36.63408],[142.23773,-36.64096]],[[142.23773,-36.64096],[142.24055,-36.64423]],[[142.24055,-36.64423],[142.24821,-36.65304]]]}},{"type":"Feature","properties":{"name":"Delahuntys Rd","surface":"formed","hierarchy":"Minor","length_m":6990},"geometry":{"type":"MultiLineString","coordinates":[[[142.33997,-36.67161],[142.34908,-36.67162],[142.34907,-36.67463]],[[142.34907,-36.67463],[142.34909,-36.69431]],[[142.34909,-36.69431],[142.34909,-36.6945]],[[142.34909,-36.6945],[142.3491,-36.70098],[142.34895,-36.70118],[142.33621,-36.70122]],[[142.54138,-36.94311],[142.54133,-36.93351],[142.54142,-36.9331],[142.54127,-36.93261],[142.54133,-36.9323],[142.54137,-36.92994]],[[142.54137,-36.92994],[142.54143,-36.92609],[142.54116,-36.92506],[142.54114,-36.91152],[142.54117,-36.91092],[142.54124,-36.9108],[142.54172,-36.9108]]]}},{"type":"Feature","properties":{"name":"Gatehouse Rd","surface":"formed","hierarchy":"Minor","length_m":1390},"geometry":{"type":"MultiLineString","coordinates":[[[142.20534,-36.68235],[142.20775,-36.68234]],[[142.20775,-36.68234],[142.21299,-36.68233]]]}},{"type":"Feature","properties":{"name":"Patterson Rd","surface":"formed","hierarchy":"Minor","length_m":2828},"geometry":{"type":"MultiLineString","coordinates":[[[142.07725,-36.49434],[142.08325,-36.49924],[142.08538,-36.50065],[142.08793,-36.50208],[142.08877,-36.50243]],[[142.08877,-36.50243],[142.09003,-36.50294],[142.0986,-36.506],[142.10104,-36.50707],[142.10163,-36.50718],[142.10177,-36.50668],[142.10189,-36.50647],[142.1021,-36.5063],[142.10239,-36.50618],[142.10323,-36.50615]]]}},{"type":"Feature","properties":{"name":"Hutchinsons Rd","surface":"formed","hierarchy":"Minor","length_m":1930},"geometry":{"type":"MultiLineString","coordinates":[[[142.0119,-36.93454],[142.01126,-36.93886]],[[142.04501,-36.739],[142.04504,-36.74597]],[[142.04504,-36.74597],[142.04514,-36.7646]]]}},{"type":"Feature","properties":{"name":"Hennessys Rd","surface":"formed","hierarchy":"Access","length_m":35},"geometry":{"type":"LineString","coordinates":[[142.14353,-36.53605],[142.14387,-36.53586]]}},{"type":"Feature","properties":{"name":"Bartletts Rd","surface":"formed","hierarchy":"Minor","length_m":1740},"geometry":{"type":"MultiLineString","coordinates":[[[142.1024,-36.56343],[142.10242,-36.56585],[142.10255,-36.56609],[142.10466,-36.56615]],[[142.10466,-36.56615],[142.10882,-36.56616],[142.10903,-36.56629],[142.10912,-36.56653],[142.10908,-36.56862],[142.10912,-36.56876],[142.10927,-36.56886],[142.11362,-36.56886],[142.11598,-36.56894]]]}},{"type":"Feature","properties":{"name":"Lake Ave","surface":"formed","hierarchy":"Minor","length_m":3060},"geometry":{"type":"MultiLineString","coordinates":[[[141.938,-36.71515],[141.93882,-36.7153],[141.9389,-36.71542],[141.93898,-36.71613],[141.93892,-36.71709],[141.939,-36.71734],[141.93922,-36.7176],[141.94044,-36.71836],[141.94053,-36.71846],[141.94041,-36.71878],[141.94045,-36.71901],[141.94102,-36.71936],[141.94205,-36.71942],[141.94231,-36.71954],[141.9439,-36.7206]],[[141.9439,-36.7206],[141.94418,-36.72079],[141.94487,-36.72181],[141.94528,-36.72208],[141.94581,-36.7222],[141.9479,-36.72224],[141.94807,-36.72236],[141.95066,-36.72523],[141.95233,-36.72696],[141.9525,-36.72728],[141.95226,-36.7276],[141.94935,-36.72965],[141.94597,-36.73136],[141.94552,-36.73183],[141.94536,-36.73213],[141.94425,-36.73633]]]}},{"type":"Feature","properties":{"name":"Walshs Rd","surface":"formed","hierarchy":"Minor","length_m":9814},"geometry":{"type":"MultiLineString","coordinates":[[[142.09877,-36.6487],[142.09882,-36.6618]],[[142.09882,-36.6618],[142.09884,-36.66799]],[[142.09866,-36.62468],[142.09877,-36.64965]],[[142.09877,-36.64965],[142.09882,-36.6618]],[[142.09882,-36.6618],[142.09886,-36.67153]],[[142.09886,-36.67153],[142.09897,-36.69399]],[[142.09901,-36.70354],[142.09914,-36.71369]],[[142.15516,-36.78198],[142.15491,-36.78216],[142.15498,-36.78483],[142.15492,-36.78556],[142.15497,-36.78851],[142.15485,-36.80607]],[[142.15522,-36.77084],[142.15516,-36.78175]]]}},{"type":"Feature","properties":{"name":"Verandah Swamp Rd","surface":"formed","hierarchy":"Minor","length_m":850},"geometry":{"type":"LineString","coordinates":[[142.12659,-36.5687],[142.12738,-36.56996],[142.12792,-36.57094],[142.12802,-36.57125],[142.12795,-36.57179],[142.12715,-36.57297],[142.1259,-36.57457],[142.12588,-36.57559]]}},{"type":"Feature","properties":{"name":"East Rd","surface":"formed","hierarchy":"Minor","length_m":1645},"geometry":{"type":"LineString","coordinates":[[142.30359,-36.76649],[142.3036,-36.76786],[142.30291,-36.76812],[142.30273,-36.76831],[142.30265,-36.76915],[142.30272,-36.77191],[142.30279,-36.77231],[142.30343,-36.7732],[142.30363,-36.77367],[142.30363,-36.7777],[142.30347,-36.77816],[142.30295,-36.77891],[142.30297,-36.77914],[142.30331,-36.77987]]}},{"type":"Feature","properties":{"name":"Nixons Rd","surface":"formed","hierarchy":"Minor","length_m":3110},"geometry":{"type":"MultiLineString","coordinates":[[[142.1755,-36.86321],[142.17743,-36.86323]],[[142.17743,-36.86323],[142.17807,-36.86324],[142.17819,-36.86333],[142.17825,-36.86353]],[[142.18451,-36.86293],[142.18724,-36.86295]],[[142.18724,-36.86295],[142.19895,-36.86292],[142.19967,-36.86302],[142.20845,-36.86296],[142.20915,-36.86303],[142.20991,-36.86296],[142.21148,-36.863],[142.21213,-36.86307],[142.21302,-36.86302]]]}},{"type":"Feature","properties":{"name":"Ten Mile Rd","surface":"formed","hierarchy":"Minor","length_m":1560},"geometry":{"type":"LineString","coordinates":[[142.03901,-36.98949],[142.03902,-36.99018],[142.03812,-36.99585],[142.03796,-36.996],[142.03805,-36.99604],[142.0381,-36.99621],[142.0368,-37.00448],[142.03675,-37.00492],[142.0368,-37.00526]]}},{"type":"Feature","properties":{"name":"Wail East School Rd","surface":"formed","hierarchy":"Minor","length_m":7840},"geometry":{"type":"LineString","coordinates":[[142.1548,-36.49257],[142.15486,-36.4947],[142.155,-36.49531],[142.15501,-36.49727],[142.15493,-36.49754],[142.15479,-36.49766],[142.15478,-36.50036],[142.15486,-36.50102],[142.15481,-36.50726],[142.1549,-36.5109],[142.15498,-36.51153],[142.15513,-36.52831],[142.15502,-36.52832],[142.15528,-36.55367],[142.15525,-36.56292]]}},{"type":"Feature","properties":{"name":"Molyneaux Rd","surface":"formed","hierarchy":"Minor","length_m":1570},"geometry":{"type":"LineString","coordinates":[[142.32144,-36.64743],[142.33812,-36.64738]]}},{"type":"Feature","properties":{"name":"Basin Rd","surface":"formed","hierarchy":"Minor","length_m":2180},"geometry":{"type":"LineString","coordinates":[[141.83112,-36.81581],[141.83121,-36.81632],[141.83169,-36.81724],[141.83483,-36.82089],[141.83498,-36.82118],[141.83503,-36.82162],[141.83484,-36.82274],[141.83591,-36.82367],[141.83682,-36.82499],[141.8383,-36.82644],[141.83917,-36.82749],[141.8397,-36.82777],[141.84097,-36.82816],[141.85894,-36.8299]]}},{"type":"Feature","properties":{"name":"Max Johns Rd","surface":"formed","hierarchy":"Minor","length_m":7935},"geometry":{"type":"MultiLineString","coordinates":[[[142.30321,-36.56127],[142.30305,-36.57805]],[[142.30305,-36.57805],[142.30304,-36.58108]],[[142.30304,-36.58108],[142.30293,-36.597]],[[142.30293,-36.597],[142.30286,-36.60444],[142.30292,-36.61163]],[[142.30292,-36.61163],[142.30308,-36.63269]]]}},{"type":"Feature","properties":{"name":"Jung Tip Rd","surface":"formed","hierarchy":"Minor","length_m":160},"geometry":{"type":"LineString","coordinates":[[142.3701,-36.60975],[142.3715,-36.60975]]}},{"type":"Feature","properties":{"name":"Hobbs Rd","surface":"formed","hierarchy":"Minor","length_m":4133},"geometry":{"type":"MultiLineString","coordinates":[[[142.15614,-36.63895],[142.17509,-36.63884]],[[142.17509,-36.63884],[142.19131,-36.6388]],[[142.19131,-36.6388],[142.20485,-36.63876]]]}},{"type":"Feature","properties":{"name":"Pohlners Rd","surface":"formed","hierarchy":"Minor","length_m":1240},"geometry":{"type":"MultiLineString","coordinates":[[[142.33282,-36.90326],[142.32599,-36.90327],[142.32474,-36.9032]],[[142.36056,-36.90348],[142.36206,-36.90345]],[[142.36305,-36.9035],[142.36429,-36.90329]]]}},{"type":"Feature","properties":{"name":"Bakers Rd","surface":"formed","hierarchy":"Minor","length_m":6760},"geometry":{"type":"MultiLineString","coordinates":[[[142.13011,-36.58656],[142.13422,-36.58606],[142.14364,-36.58587]],[[142.14364,-36.58587],[142.16336,-36.58577]],[[142.16336,-36.58577],[142.19246,-36.58575]],[[142.19246,-36.58575],[142.19972,-36.58572]],[[142.18733,-36.77471],[142.18749,-36.7748]],[[142.18749,-36.7748],[142.18879,-36.77553],[142.19012,-36.77647],[142.19086,-36.7765],[142.19142,-36.77675],[142.19318,-36.77838],[142.19345,-36.77844],[142.19419,-36.77832],[142.1944,-36.77841],[142.19476,-36.77924],[142.19473,-36.77998],[142.195,-36.78087],[142.19492,-36.78137]],[[142.19492,-36.78137],[142.19504,-36.78164]]]}},{"type":"Feature","properties":{"name":"Byrnes Rd","surface":"formed","hierarchy":"Minor","length_m":1635},"geometry":{"type":"MultiLineString","coordinates":[[[142.32865,-36.47381],[142.32864,-36.47618]],[[142.32864,-36.47618],[142.32858,-36.50168]]]}},{"type":"Feature","properties":{"name":"Taylors Lake North Rd","surface":"formed","hierarchy":"Minor","length_m":2120},"geometry":{"type":"MultiLineString","coordinates":[[[142.37657,-36.72077],[142.37656,-36.72303]],[[142.37656,-36.72303],[142.37657,-36.73377]],[[142.37657,-36.73377],[142.3766,-36.73995]]]}},{"type":"Feature","properties":{"name":"Jenkinsons Rd","surface":"formed","hierarchy":"Minor","length_m":3810},"geometry":{"type":"MultiLineString","coordinates":[[[142.16195,-36.62451],[142.1779,-36.62446]],[[142.1779,-36.62446],[142.2007,-36.62439]],[[142.2007,-36.62439],[142.20475,-36.62441]],[[142.20475,-36.62438],[142.21525,-36.62432]]]}},{"type":"Feature","properties":{"name":"Dooen North Rd","surface":"formed","hierarchy":"Minor","length_m":6210},"geometry":{"type":"MultiLineString","coordinates":[[[142.24115,-36.52338],[142.24122,-36.53779]],[[142.24122,-36.53779],[142.24126,-36.55407]],[[142.24127,-36.56208],[142.24129,-36.57727]],[[142.24129,-36.57727],[142.24131,-36.58728]]]}},{"type":"Feature","properties":{"name":"J Sudholz Rd","surface":"formed","hierarchy":"Minor","length_m":2910},"geometry":{"type":"MultiLineString","coordinates":[[[141.92448,-36.75617],[141.93577,-36.75609]],[[141.94505,-36.75602],[141.96304,-36.75588]],[[141.96304,-36.75588],[141.96628,-36.75586]]]}},{"type":"Feature","properties":{"name":"Varley Rd","surface":"formed","hierarchy":"Minor","length_m":6920},"geometry":{"type":"LineString","coordinates":[[142.32177,-36.79798],[142.32172,-36.83455],[142.32195,-36.8363],[142.32188,-36.83823],[142.32197,-36.83898],[142.32188,-36.8396],[142.32183,-36.84347],[142.32193,-36.84571],[142.32188,-36.84627],[142.32324,-36.85103],[142.324,-36.85264],[142.32599,-36.85834],[142.32627,-36.85898],[142.32654,-36.85909]]}},{"type":"Feature","properties":{"name":"Uebergangs Rd","surface":"formed","hierarchy":"Minor","length_m":2000},"geometry":{"type":"MultiLineString","coordinates":[[[142.32589,-36.82664],[142.32205,-36.82664]],[[142.32205,-36.82664],[142.30347,-36.82659]]]}},{"type":"Feature","properties":{"name":"Chalky Point Rd","surface":"formed","hierarchy":"Minor","length_m":1660},"geometry":{"type":"LineString","coordinates":[[142.34566,-36.79704],[142.34566,-36.7972],[142.34546,-36.79732],[142.33356,-36.79725]]}},{"type":"Feature","properties":{"name":"River Wheat Rd","surface":"formed","hierarchy":"Minor","length_m":3820},"geometry":{"type":"LineString","coordinates":[[142.31933,-36.6915],[142.31942,-36.69174],[142.31954,-36.71213],[142.31972,-36.71243],[142.32169,-36.71325],[142.32242,-36.71375],[142.32246,-36.71413],[142.32237,-36.71447],[142.32253,-36.71576],[142.32253,-36.71865],[142.32268,-36.71875],[142.3268,-36.719],[142.32775,-36.71913],[142.32804,-36.71928],[142.32925,-36.72023]]}},{"type":"Feature","properties":{"name":"Jung Cemetery Rd","surface":"formed","hierarchy":"Minor","length_m":13225},"geometry":{"type":"MultiLineString","coordinates":[[[142.37222,-36.59066],[142.37193,-36.59091]],[[142.3797,-36.47033],[142.37972,-36.48435]],[[142.37972,-36.48435],[142.37971,-36.50051]],[[142.37971,-36.50051],[142.3797,-36.50463]],[[142.37806,-36.50746],[142.37399,-36.51068],[142.37392,-36.51088],[142.37381,-36.51942]],[[142.37381,-36.51942],[142.37366,-36.53167],[142.373,-36.53419]],[[142.373,-36.53419],[142.37195,-36.53783],[142.37189,-36.53917],[142.3719,-36.54828]],[[142.3719,-36.54828],[142.37191,-36.55856]],[[142.37191,-36.55856],[142.37188,-36.57654],[142.37212,-36.57669],[142.37222,-36.59066]],[[142.37222,-36.59066],[142.3724,-36.59092]]]}},{"type":"Feature","properties":{"name":"Northfields Rd","surface":"formed","hierarchy":"Minor","length_m":1140},"geometry":{"type":"LineString","coordinates":[[141.97514,-36.80825],[141.98782,-36.80949]]}},{"type":"Feature","properties":{"name":"Pine Lake Rd","surface":"formed","hierarchy":"Minor","length_m":790},"geometry":{"type":"LineString","coordinates":[[142.3401,-36.75738],[142.34011,-36.76449]]}},{"type":"Feature","properties":{"name":"Taylors Lake East Rd","surface":"formed","hierarchy":"Minor","length_m":3990},"geometry":{"type":"MultiLineString","coordinates":[[[142.40676,-36.76797],[142.39623,-36.76797]],[[142.39623,-36.76797],[142.39545,-36.76797]],[[142.4644,-36.76747],[142.4469,-36.76749]],[[142.4469,-36.76749],[142.43134,-36.76752]]]}},{"type":"Feature","properties":{"name":"Ryans Rd","surface":"formed","hierarchy":"Minor","length_m":2800},"geometry":{"type":"MultiLineString","coordinates":[[[141.86596,-36.78422],[141.89151,-36.7842],[141.89191,-36.7841],[141.89674,-36.78197]],[[142.17801,-36.9013],[142.17821,-36.90098],[142.17843,-36.9009],[142.20184,-36.90098]]]}},{"type":"Feature","properties":{"name":"Plowrights Rd","surface":"formed","hierarchy":"Minor","length_m":5630},"geometry":{"type":"LineString","coordinates":[[142.13258,-36.62459],[142.13983,-36.63899],[142.15767,-36.67398],[142.15762,-36.67414],[142.15775,-36.67422],[142.16817,-36.6948],[142.16872,-36.69564]]}},{"type":"Feature","properties":{"name":"Old Vectis Quarry Rd","surface":"formed","hierarchy":"Minor","length_m":4040},"geometry":{"type":"LineString","coordinates":[[141.98196,-36.67322],[141.98272,-36.67322],[141.98356,-36.67311],[141.98467,-36.67326],[141.98916,-36.67329],[141.99066,-36.67317],[141.99165,-36.67324],[141.99417,-36.67303],[141.99785,-36.67308],[141.99981,-36.67297],[142.00366,-36.67299],[142.00406,-36.67308],[142.00643,-36.67294],[142.00786,-36.67306],[142.01567,-36.67295],[142.02204,-36.67312],[142.02531,-36.67307],[142.02566,-36.67298],[142.0333,-36.6731],[142.0338,-36.67304],[142.0355,-36.67311],[142.03656,-36.67326],[142.03739,-36.67319],[142.03866,-36.67325],[142.04118,-36.67306],[142.04399,-36.67306],[142.04476,-36.67298]]}},{"type":"Feature","properties":{"name":"Pimpinio West Rd","surface":"formed","hierarchy":"Minor","length_m":4200},"geometry":{"type":"MultiLineString","coordinates":[[[142.08029,-36.59639],[142.09208,-36.59638],[142.09236,-36.59627],[142.09242,-36.59613],[142.09241,-36.59557],[142.09283,-36.59557]],[[142.09283,-36.59557],[142.09664,-36.59555]],[[142.09664,-36.59555],[142.10684,-36.59552],[142.10679,-36.5946],[142.10686,-36.59437],[142.10705,-36.5941],[142.10734,-36.59393],[142.10778,-36.59385],[142.12488,-36.59367]]]}},{"type":"Feature","properties":{"name":"Lindners Rd","surface":"formed","hierarchy":"Minor","length_m":6320},"geometry":{"type":"MultiLineString","coordinates":[[[142.08077,-36.66049],[142.0808,-36.66813]],[[142.0808,-36.66813],[142.08089,-36.68251]],[[142.08089,-36.68251],[142.08091,-36.68793]],[[142.08096,-36.69689],[142.08101,-36.71305]],[[142.08101,-36.71305],[142.0811,-36.72557]]]}},{"type":"Feature","properties":{"name":"St Helens Wheat Rd","surface":"formed","hierarchy":"Minor","length_m":9150},"geometry":{"type":"MultiLineString","coordinates":[[[142.43129,-36.75124],[142.43137,-36.75147],[142.43129,-36.76014],[142.43135,-36.78235]],[[142.43132,-36.78253],[142.43135,-36.81177],[142.43153,-36.82648],[142.43154,-36.83323],[142.43149,-36.83328]]]}},{"type":"Feature","properties":{"name":"Mibus Ln","surface":"formed","hierarchy":"Minor","length_m":1630},"geometry":{"type":"LineString","coordinates":[[142.28521,-36.81188],[142.3035,-36.81192]]}},{"type":"Feature","properties":{"name":"Phoebe Cres","surface":"formed","hierarchy":"Minor","length_m":420},"geometry":{"type":"LineString","coordinates":[[142.20554,-36.73654],[142.20688,-36.73651]]}},{"type":"Feature","properties":{"name":"Rudolphs Rd","surface":"formed","hierarchy":"Minor","length_m":7208},"geometry":{"type":"MultiLineString","coordinates":[[[142.04494,-36.72658],[142.07636,-36.72646]],[[142.07636,-36.72646],[142.10682,-36.72636]],[[142.11191,-36.72634],[142.12968,-36.72629]]]}},{"type":"Feature","properties":{"name":"Eagles Rd","surface":"formed","hierarchy":"Minor","length_m":5540},"geometry":{"type":"MultiLineString","coordinates":[[[142.18303,-36.8263],[142.20106,-36.82634]],[[142.20632,-36.82637],[142.22914,-36.82644]],[[142.22914,-36.82644],[142.24139,-36.82646]],[[142.24139,-36.82646],[142.24869,-36.82648]],[[142.28517,-36.82657],[142.2811,-36.82656]],[[142.2811,-36.82656],[142.27046,-36.82653],[142.26988,-36.82647],[142.2669,-36.82651]]]}},{"type":"Feature","properties":{"name":"Rokeskys Rd","surface":"formed","hierarchy":"Minor","length_m":1630},"geometry":{"type":"LineString","coordinates":[[142.26719,-36.69441],[142.26732,-36.69462],[142.26726,-36.70907]]}},{"type":"Feature","properties":{"name":"Slaughterhouse Ln","surface":"formed","hierarchy":"Minor","length_m":1930},"geometry":{"type":"LineString","coordinates":[[142.11561,-36.55388],[142.10258,-36.55399],[142.10228,-36.5541],[142.1024,-36.56068]]}},{"type":"Feature","properties":{"name":"Depot La","surface":"formed","hierarchy":"Minor","length_m":3460},"geometry":{"type":"MultiLineString","coordinates":[[[141.9375,-36.74471],[141.93967,-36.74374]],[[141.93967,-36.74374],[141.94177,-36.74287]],[[141.94612,-36.81983],[141.96643,-36.82188]],[[141.95254,-36.72892],[141.96288,-36.72776]],[[141.95254,-36.72892],[141.97006,-36.72701]]]}},{"type":"Feature","properties":{"name":"Schneiders Rd","surface":"formed","hierarchy":"Minor","length_m":5540},"geometry":{"type":"LineString","coordinates":[[142.40226,-36.75333],[142.40206,-36.75326],[142.35848,-36.75326],[142.35833,-36.75331],[142.35834,-36.76792]]}},{"type":"Feature","properties":{"name":"Rodda Rd","surface":"formed","hierarchy":"Minor","length_m":3255},"geometry":{"type":"MultiLineString","coordinates":[[[142.26702,-36.78247],[142.24871,-36.78245]],[[142.24871,-36.78245],[142.2441,-36.78245],[142.24345,-36.78237],[142.23058,-36.78241]]]}},{"type":"Feature","properties":{"name":"Arapiles School Rd","surface":"formed","hierarchy":"Minor","length_m":5900},"geometry":{"type":"LineString","coordinates":[[141.88047,-36.71984],[141.88091,-36.73942],[141.88066,-36.7396],[141.87676,-36.73966],[141.87652,-36.73978],[141.87656,-36.74715],[141.87665,-36.74856],[141.87656,-36.7488],[141.87665,-36.74977],[141.8766,-36.75131],[141.87675,-36.75334],[141.87667,-36.75411],[141.87681,-36.75617],[141.87694,-36.76197],[141.87696,-36.76915],[141.87698,-36.7694],[141.87706,-36.76947]]}},{"type":"Feature","properties":{"name":"Clarkes Ln","surface":"formed","hierarchy":"Minor","length_m":8730},"geometry":{"type":"MultiLineString","coordinates":[[[141.93163,-36.82863],[141.9285,-36.84893]],[[141.9285,-36.84893],[141.92855,-36.84932],[141.92818,-36.85105],[141.92801,-36.85269],[141.92764,-36.85442],[141.92719,-36.85808],[141.92646,-36.8621],[141.92549,-36.8685],[141.9255,-36.86889],[141.92534,-36.86936],[141.92525,-36.87052],[141.92499,-36.87155],[141.92487,-36.87248],[141.92488,-36.87307],[141.92464,-36.8738],[141.92373,-36.88013],[141.92373,-36.88061],[141.92334,-36.88222],[141.92306,-36.88464],[141.9229,-36.88562],[141.92278,-36.88585],[141.92262,-36.88768],[141.92239,-36.88838],[141.92231,-36.88956]],[[141.92231,-36.88956],[141.92219,-36.89009],[141.92219,-36.89046],[141.92189,-36.89159],[141.92182,-36.89278],[141.92171,-36.89311],[141.9216,-36.89413],[141.92146,-36.8945],[141.92127,-36.89647],[141.92105,-36.89696],[141.92104,-36.89784],[141.92066,-36.89977],[141.92042,-36.90163]],[[142.12561,-36.95903],[142.12112,-36.98832]]]}},{"type":"Feature","properties":{"name":"Boehms Rd","surface":"formed","hierarchy":"Minor","length_m":4410},"geometry":{"type":"MultiLineString","coordinates":[[[142.05032,-36.67104],[142.05751,-36.66847],[142.05834,-36.66832],[142.06185,-36.66833]],[[142.06185,-36.66833],[142.07974,-36.66826]],[[142.07974,-36.66826],[142.09884,-36.66819]]]}},{"type":"Feature","properties":{"name":"Barnes Rd","surface":"formed","hierarchy":"Minor","length_m":2510},"geometry":{"type":"MultiLineString","coordinates":[[[141.83638,-36.67842],[141.83619,-36.67946]],[[141.83619,-36.67946],[141.83598,-36.68051],[141.83603,-36.68098]],[[141.83916,-36.66222],[141.83887,-36.66231],[141.83879,-36.66279]],[[141.83879,-36.66279],[141.83863,-36.66395]],[[141.83863,-36.66395],[141.83825,-36.66551],[141.83824,-36.66625],[141.83796,-36.66759],[141.83775,-36.66948],[141.83762,-36.66973],[141.83774,-36.66972],[141.83753,-36.67099],[141.83703,-36.67194],[141.83667,-36.67288],[141.83652,-36.67361]]]}},{"type":"Feature","properties":{"name":"Butlers Rd","surface":"formed","hierarchy":"Minor","length_m":1600},"geometry":{"type":"MultiLineString","coordinates":[[[142.16092,-36.83916],[142.16135,-36.83933],[142.16573,-36.83926],[142.17084,-36.83935],[142.17161,-36.83948],[142.17221,-36.83942],[142.17293,-36.83923],[142.17425,-36.83951],[142.17447,-36.83949],[142.17459,-36.83937],[142.17492,-36.83927],[142.17643,-36.83931]],[[142.17643,-36.83931],[142.17707,-36.83933],[142.17837,-36.8396],[142.17872,-36.8396]],[[142.24901,-36.71261],[142.23914,-36.71254]]]}},{"type":"Feature","properties":{"name":"Wiles Rd","surface":"formed","hierarchy":"Minor","length_m":460},"geometry":{"type":"LineString","coordinates":[[141.93665,-36.60024],[141.93812,-36.60238],[141.93847,-36.60252],[141.94276,-36.60295]]}},{"type":"Feature","properties":{"name":"Gills Rd","surface":"formed","hierarchy":"Minor","length_m":2830},"geometry":{"type":"LineString","coordinates":[[142.03496,-36.92408],[142.07838,-36.92833],[142.07852,-36.9283],[142.08026,-36.91735]]}},{"type":"Feature","properties":{"name":"Northfields Woolshed Rd","surface":"formed","hierarchy":"Minor","length_m":6940},"geometry":{"type":"LineString","coordinates":[[142.00187,-37.03324],[142.00072,-37.04146],[142.00081,-37.04161],[142.00447,-37.04256],[142.00453,-37.04269],[142.00532,-37.04877],[142.00589,-37.05238],[142.00719,-37.05468],[142.00939,-37.05826],[142.01043,-37.06341],[142.00816,-37.0778]]}},{"type":"Feature","properties":{"name":"Edmonds Rd","surface":"formed","hierarchy":"Minor","length_m":1530},"geometry":{"type":"LineString","coordinates":[[141.86624,-36.95115],[141.86252,-36.95189],[141.86041,-36.95242],[141.83339,-36.94976]]}},{"type":"Feature","properties":{"name":"Jubilee Ln","surface":"formed","hierarchy":"Minor","length_m":1300},"geometry":{"type":"MultiLineString","coordinates":[[[142.12146,-36.89973],[142.12634,-36.8998],[142.13555,-36.89971]],[[142.1357,-36.90011],[142.13619,-36.89982],[142.1395,-36.89977],[142.13988,-36.89986],[142.14086,-36.89979],[142.14687,-36.89986],[142.14978,-36.89976],[142.15022,-36.89968],[142.15058,-36.89987],[142.15362,-36.89979]]]}},{"type":"Feature","properties":{"name":"Norton Creek Ln","surface":"formed","hierarchy":"Minor","length_m":2050},"geometry":{"type":"LineString","coordinates":[[142.1339,-36.78335],[142.13297,-36.7837],[142.13233,-36.78415],[142.13152,-36.78433],[142.13117,-36.78449],[142.13009,-36.78523],[142.12607,-36.78704],[142.12565,-36.78709],[142.12468,-36.78699],[142.12366,-36.78726],[142.12325,-36.78732],[142.12295,-36.78726],[142.12288,-36.78737],[142.12254,-36.78805],[142.11999,-36.80517],[142.11991,-36.80531]]}},{"type":"Feature","properties":{"name":"Wilsons Rd","surface":"formed","hierarchy":"Minor","length_m":1170},"geometry":{"type":"LineString","coordinates":[[141.98502,-37.1559],[141.98684,-37.15609],[141.98833,-37.15607],[141.99605,-37.15684]]}},{"type":"Feature","properties":{"name":"Murrays Rd","surface":"formed","hierarchy":"Minor","length_m":340},"geometry":{"type":"LineString","coordinates":[[141.91869,-37.09564],[141.91939,-37.09116]]}},{"type":"Feature","properties":{"name":"Peachs Flat Ln","surface":"formed","hierarchy":"Minor","length_m":6480},"geometry":{"type":"LineString","coordinates":[[141.88439,-36.89806],[141.92353,-36.90198],[141.92454,-36.90202],[141.92657,-36.90228],[141.92776,-36.90234],[141.92941,-36.90257],[141.93116,-36.90273],[141.93193,-36.90272],[141.93279,-36.90288],[141.9563,-36.90516]]}},{"type":"Feature","properties":{"name":"Robins Rd","surface":"formed","hierarchy":"Minor","length_m":2740},"geometry":{"type":"MultiLineString","coordinates":[[[142.11825,-36.51102],[142.11822,-36.51118],[142.11331,-36.51805]],[[142.11497,-36.53734],[142.11581,-36.54652],[142.11613,-36.5538]]]}},{"type":"Feature","properties":{"name":"Natimuk Golf Links Rd","surface":"formed","hierarchy":"Minor","length_m":406},"geometry":{"type":"LineString","coordinates":[[141.85196,-36.77795],[141.85518,-36.77822],[141.85566,-36.77831],[141.85593,-36.77846],[141.85609,-36.77867]]}},{"type":"Feature","properties":{"name":"Geranium Springs Rd","surface":"formed","hierarchy":"Minor","length_m":3190},"geometry":{"type":"MultiLineString","coordinates":[[[142.23504,-37.10689],[142.2404,-37.10692]],[[142.24677,-37.10695],[142.24966,-37.10692],[142.25079,-37.10704],[142.25486,-37.10712],[142.25596,-37.10697]],[[142.25726,-37.10708],[142.26822,-37.10711]],[[142.27002,-37.10753],[142.2701,-37.10753]]]}},{"type":"Feature","properties":{"name":"Kimberleys Rd","surface":"formed","hierarchy":"Minor","length_m":260},"geometry":{"type":"MultiLineString","coordinates":[[[142.36156,-37.02146],[142.36087,-37.02184]],[[142.36153,-37.01997],[142.36159,-37.02126]]]}},{"type":"Feature","properties":{"name":"Arapiles Ln","surface":"formed","hierarchy":"Minor","length_m":3860},"geometry":{"type":"LineString","coordinates":[[141.85135,-36.7621],[141.85169,-36.76216],[141.85952,-36.76213],[141.8944,-36.76185]]}},{"type":"Feature","properties":{"name":"Gladigau Rd","surface":"formed","hierarchy":"Minor","length_m":1360},"geometry":{"type":"LineString","coordinates":[[141.90559,-36.75696],[141.92079,-36.7571]]}},{"type":"Feature","properties":{"name":"Red Gum Swamp Rd","surface":"formed","hierarchy":"Minor","length_m":1860},"geometry":{"type":"LineString","coordinates":[[141.88423,-36.70146],[141.88235,-36.71358]]}},{"type":"Feature","properties":{"name":"Three Chain Rd","surface":"formed","hierarchy":"Minor","length_m":4525},"geometry":{"type":"MultiLineString","coordinates":[[[141.81494,-36.73142],[141.81502,-36.73131],[141.81526,-36.73123],[141.8186,-36.73176],[141.83399,-36.73326],[141.83917,-36.73194]],[[141.83917,-36.73194],[141.84101,-36.73145],[141.84149,-36.73116],[141.84203,-36.73102],[141.84325,-36.73089],[141.85617,-36.72715]],[[141.92302,-36.71171],[141.93135,-36.71171]]]}},{"type":"Feature","properties":{"name":"Giles River Rd","surface":"formed","hierarchy":"Minor","length_m":2010},"geometry":{"type":"LineString","coordinates":[[142.54935,-36.86302],[142.55078,-36.86444],[142.55325,-36.8661],[142.55416,-36.86629],[142.55508,-36.86636],[142.55533,-36.86728],[142.55699,-36.87013],[142.55885,-36.87031],[142.55915,-36.87045],[142.56085,-36.87074],[142.56118,-36.87091],[142.56308,-36.87237],[142.56387,-36.87272],[142.56506,-36.87289],[142.56587,-36.87275],[142.56614,-36.87282],[142.56623,-36.87302],[142.56631,-36.87407],[142.56669,-36.87538],[142.56686,-36.87562],[142.56763,-36.87629],[142.56777,-36.87656],[142.56808,-36.87744],[142.56802,-36.8781],[142.56809,-36.87829],[142.5683,-36.87853],[142.56898,-36.87889],[142.56978,-36.87918],[142.57077,-36.87938]]}},{"type":"Feature","properties":{"name":"Millers Rd","surface":"formed","hierarchy":"Minor","length_m":650},"geometry":{"type":"LineString","coordinates":[[142.23771,-36.81178],[142.23043,-36.81176]]}},{"type":"Feature","properties":{"name":"Mc Clures Rd","surface":"formed","hierarchy":"Access","length_m":198},"geometry":{"type":"MultiLineString","coordinates":[[[141.77931,-36.74083],[141.77988,-36.74117],[141.7895,-36.74208],[141.78967,-36.74211],[141.78981,-36.74224]],[[141.8272,-36.74233],[141.8293,-36.74262]]]}},{"type":"Feature","properties":{"name":"Sanders Rd","surface":"formed","hierarchy":"Minor","length_m":2190},"geometry":{"type":"MultiLineString","coordinates":[[[142.02532,-36.68061],[142.0253,-36.68379]],[[142.02548,-36.65649],[142.02552,-36.66226]],[[142.02552,-36.66226],[142.02555,-36.67273],[142.02566,-36.67298]]]}},{"type":"Feature","properties":{"name":"Ellis Rd","surface":"formed","hierarchy":"Minor","length_m":6210},"geometry":{"type":"MultiLineString","coordinates":[[[141.9455,-36.6033],[141.9457,-36.60325],[141.94636,-36.60336],[141.94737,-36.60389],[141.94774,-36.60398],[141.94807,-36.604],[141.95009,-36.60369],[141.96561,-36.60518],[141.96568,-36.60488],[141.96565,-36.60099],[141.96576,-36.60058],[141.96976,-36.60051],[141.96993,-36.60045],[141.96997,-36.59045],[141.97082,-36.5848]],[[142.05884,-36.54644],[142.05895,-36.54794],[142.05894,-36.55073],[142.05885,-36.55113],[142.05891,-36.55552],[142.05901,-36.5574],[142.05895,-36.56202]],[[142.05895,-36.56202],[142.05904,-36.56185],[142.05966,-36.56159]],[[142.05895,-36.56202],[142.05896,-36.56356]],[[142.05915,-36.5999],[142.05924,-36.62478]]]}},{"type":"Feature","properties":{"name":"Settlement Rd","surface":"formed","hierarchy":"Minor","length_m":1000},"geometry":{"type":"LineString","coordinates":[[142.08793,-36.50208],[142.08795,-36.49298],[142.08776,-36.4928]]}},{"type":"Feature","properties":{"name":"Watson St","surface":"formed","hierarchy":"Minor","length_m":619},"geometry":{"type":"MultiLineString","coordinates":[[[142.09695,-36.5073],[142.09644,-36.50822]],[[142.09632,-36.50842],[142.09603,-36.50891]]]}},{"type":"Feature","properties":{"name":"Francis Rd","surface":"formed","hierarchy":"Minor","length_m":3900},"geometry":{"type":"MultiLineString","coordinates":[[[142.1868,-36.65335],[142.21149,-36.65326]],[[142.21149,-36.65326],[142.23019,-36.65316]]]}},{"type":"Feature","properties":{"name":"Aerodrome Rd","surface":"formed","hierarchy":"Minor","length_m":3630},"geometry":{"type":"LineString","coordinates":[[142.2049,-36.66782],[142.24536,-36.66762]]}},{"type":"Feature","properties":{"name":"Berry Ln","surface":"formed","hierarchy":"Minor","length_m":4760},"geometry":{"type":"LineString","coordinates":[[141.89921,-36.72695],[141.92161,-36.72715],[141.9525,-36.72728]]}},{"type":"Feature","properties":{"name":"Langes Ln","surface":"formed","hierarchy":"Minor","length_m":1630},"geometry":{"type":"LineString","coordinates":[[141.89514,-36.74665],[141.89522,-36.74683],[141.89553,-36.76135]]}},{"type":"Feature","properties":{"name":"Tonkins Rd","surface":"formed","hierarchy":"Minor","length_m":3610},"geometry":{"type":"MultiLineString","coordinates":[[[142.18844,-36.47233],[142.18846,-36.48814]],[[142.18847,-36.50667],[142.18848,-36.51835]],[[142.18848,-36.51835],[142.18851,-36.53282]]]}},{"type":"Feature","properties":{"name":"Byrneville Rd","surface":"formed","hierarchy":"Minor","length_m":2725},"geometry":{"type":"MultiLineString","coordinates":[[[142.32054,-36.50562],[142.32057,-36.50189],[142.32063,-36.50173],[142.32079,-36.50166],[142.32783,-36.50168]],[[142.32783,-36.50168],[142.34576,-36.50171],[142.34609,-36.50174],[142.34635,-36.50193]]]}},{"type":"Feature","properties":{"name":"Exells Quarry Rd","surface":"formed","hierarchy":"Minor","length_m":5650},"geometry":{"type":"MultiLineString","coordinates":[[[142.30929,-36.43991],[142.30918,-36.46051]],[[142.30921,-36.4754],[142.30907,-36.50563]]]}},{"type":"Feature","properties":{"name":"Buloke Ln","surface":"formed","hierarchy":"Minor","length_m":730},"geometry":{"type":"LineString","coordinates":[[142.11178,-36.58722],[142.11184,-36.59381]]}},{"type":"Feature","properties":{"name":"Quantong Cemetery Rd","surface":"formed","hierarchy":"Minor","length_m":3880},"geometry":{"type":"MultiLineString","coordinates":[[[142.04487,-36.70482],[142.04492,-36.72239]],[[142.04492,-36.72239],[142.04497,-36.72817]],[[142.04497,-36.72817],[142.04501,-36.739]]]}},{"type":"Feature","properties":{"name":"Dooen South Rd","surface":"formed","hierarchy":"Minor","length_m":7040},"geometry":{"type":"MultiLineString","coordinates":[[[142.22317,-36.63288],[142.22321,-36.63913]],[[142.22321,-36.63913],[142.2233,-36.65385]],[[142.2233,-36.65385],[142.22341,-36.66847]],[[142.22341,-36.66847],[142.22351,-36.68311]],[[142.22351,-36.68311],[142.22357,-36.69576],[142.22299,-36.69646],[142.22289,-36.69663],[142.22291,-36.69677]]]}},{"type":"Feature","properties":{"name":"Gym Club Rd","surface":"formed","hierarchy":"Minor","length_m":1760},"geometry":{"type":"LineString","coordinates":[[141.98496,-36.73122],[141.98464,-36.74853],[141.98439,-36.75571],[141.98459,-36.75593],[141.98458,-36.75641],[141.98447,-36.75677],[141.98457,-36.75777],[141.98469,-36.75803],[141.9847,-36.7606],[141.98491,-36.7621],[141.98479,-36.76257],[141.9849,-36.76271],[141.98493,-36.76292],[141.9849,-36.7636],[141.98481,-36.76396],[141.98488,-36.7646],[141.9848,-36.76542],[141.98483,-36.76665],[141.98475,-36.76709],[141.98462,-36.76727],[141.98442,-36.76904],[141.98445,-36.76995],[141.98456,-36.77058],[141.98439,-36.7711],[141.98403,-36.77124]]}},{"type":"Feature","properties":{"name":"Sleeps Rd","surface":"formed","hierarchy":"Minor","length_m":1910},"geometry":{"type":"LineString","coordinates":[[142.32054,-36.50567],[142.32052,-36.52297]]}},{"type":"Feature","properties":{"name":"Pelchens Rd","surface":"formed","hierarchy":"Minor","length_m":450},"geometry":{"type":"LineString","coordinates":[[142.06299,-36.76688],[142.06287,-36.76808],[142.06293,-36.7683],[142.06323,-36.76863],[142.06329,-36.76893],[142.06323,-36.77017]]}},{"type":"Feature","properties":{"name":"Johns Rd","surface":"formed","hierarchy":"Minor","length_m":2200},"geometry":{"type":"MultiLineString","coordinates":[[[142.2966,-36.58862],[142.30304,-36.58865]],[[142.30304,-36.58865],[142.30628,-36.58867]],[[142.30628,-36.58867],[142.32122,-36.58876]]]}},{"type":"Feature","properties":{"name":"Jung Wheat Rd","surface":"formed","hierarchy":"Minor","length_m":10746},"geometry":{"type":"MultiLineString","coordinates":[[[142.3367,-36.55294],[142.33661,-36.55326],[142.33648,-36.57413]],[[142.33735,-36.51124],[142.33744,-36.51141],[142.33701,-36.55294]],[[142.34229,-36.57416],[142.34227,-36.59076],[142.34208,-36.60171],[142.34211,-36.60775]]]}},{"type":"Feature","properties":{"name":"Beddisons Rd","surface":"formed","hierarchy":"Minor","length_m":3495},"geometry":{"type":"LineString","coordinates":[[142.11616,-36.5538],[142.15528,-36.55367]]}},{"type":"Feature","properties":{"name":"Vinegar Hill Rd","surface":"formed","hierarchy":"Minor","length_m":1080},"geometry":{"type":"LineString","coordinates":[[141.85823,-36.71109],[141.8559,-36.71093],[141.85312,-36.71059],[141.84993,-36.71033],[141.84902,-36.71016],[141.84789,-36.71013],[141.84623,-36.70993]]}},{"type":"Feature","properties":{"name":"Nunkerri Rd","surface":"formed","hierarchy":"Minor","length_m":1944},"geometry":{"type":"LineString","coordinates":[[142.15261,-36.78201],[142.1546,-36.78191],[142.15516,-36.78175],[142.15516,-36.78198],[142.15535,-36.78211],[142.1742,-36.78218]]}},{"type":"Feature","properties":{"name":"Ray Mills Rd","surface":"formed","hierarchy":"Minor","length_m":1135},"geometry":{"type":"LineString","coordinates":[[142.28976,-36.51282],[142.28974,-36.52305]]}},{"type":"Feature","properties":{"name":"St Helens Rd","surface":"formed","hierarchy":"Access","length_m":5122},"geometry":{"type":"MultiLineString","coordinates":[[[142.41308,-36.7386],[142.41309,-36.76541]],[[142.41306,-36.80917],[142.41306,-36.81565]],[[142.4131,-36.83257],[142.41318,-36.84141]]]}},{"type":"Feature","properties":{"name":"Walsgotts Rd","surface":"formed","hierarchy":"Minor","length_m":1910},"geometry":{"type":"MultiLineString","coordinates":[[[142.28537,-36.59847],[142.28534,-36.60214]],[[142.28534,-36.60214],[142.28515,-36.6058]],[[142.28533,-36.58856],[142.28543,-36.58879],[142.28534,-36.60214]],[[142.28534,-36.60214],[142.28529,-36.60311]]]}},{"type":"Feature","properties":{"name":"Frew Rd","surface":"formed","hierarchy":"Minor","length_m":2040},"geometry":{"type":"LineString","coordinates":[[142.09232,-36.5766],[142.09241,-36.59557]]}},{"type":"Feature","properties":{"name":"South Rd","surface":"formed","hierarchy":"Minor","length_m":1130},"geometry":{"type":"LineString","coordinates":[[142.28066,-36.76782],[142.27007,-36.76779]]}},{"type":"Feature","properties":{"name":"Drovers Rd","surface":"formed","hierarchy":"Minor","length_m":925},"geometry":{"type":"LineString","coordinates":[[142.27494,-36.60211],[142.28534,-36.60214]]}},{"type":"Feature","properties":{"name":"Manson Rd","surface":"formed","hierarchy":"Minor","length_m":1470},"geometry":{"type":"LineString","coordinates":[[142.09293,-36.60997],[142.09301,-36.62317]]}},{"type":"Feature","properties":{"name":"Moody School Rd","surface":"formed","hierarchy":"Minor","length_m":3580},"geometry":{"type":"MultiLineString","coordinates":[[[141.98341,-36.77124],[141.98442,-36.7713],[141.98471,-36.77144],[141.98801,-36.77348],[141.98857,-36.77391],[141.99185,-36.77602]],[[141.99185,-36.77602],[142.00031,-36.78156],[142.00069,-36.78173],[142.0013,-36.78219],[142.00194,-36.7825],[142.00297,-36.78324],[142.00402,-36.78379],[142.00733,-36.7859],[142.00855,-36.78688],[142.00866,-36.78704],[142.00868,-36.78749],[142.00762,-36.79421]]]}},{"type":"Feature","properties":{"name":"Barrs Rd","surface":"formed","hierarchy":"Minor","length_m":880},"geometry":{"type":"LineString","coordinates":[[142.03699,-36.79519],[142.03578,-36.80306]]}},{"type":"Feature","properties":{"name":"Nine Mile Hotel Rd","surface":"formed","hierarchy":"Minor","length_m":2705},"geometry":{"type":"MultiLineString","coordinates":[[[142.13084,-36.60081],[142.13227,-36.60266],[142.13236,-36.60295],[142.13235,-36.60775]],[[142.13235,-36.60775],[142.13237,-36.62317]],[[142.13237,-36.62317],[142.13258,-36.62459]]]}},{"type":"Feature","properties":{"name":"Riggs Rd","surface":"formed","hierarchy":"Minor","length_m":3600},"geometry":{"type":"LineString","coordinates":[[142.07406,-36.52834],[142.1136,-36.52826]]}},{"type":"Feature","properties":{"name":"Telfers Rd","surface":"formed","hierarchy":"Minor","length_m":1930},"geometry":{"type":"LineString","coordinates":[[141.81054,-36.67129],[141.81241,-36.67144],[141.815,-36.67179],[141.81565,-36.67177],[141.81593,-36.67191],[141.81642,-36.67244],[141.81672,-36.67255],[141.82293,-36.67317],[141.82304,-36.67335],[141.82298,-36.67377],[141.82314,-36.67386],[141.82921,-36.67447],[141.82993,-36.67447],[141.83093,-36.67465],[141.83239,-36.67588],[141.8332,-36.67632],[141.83423,-36.67654],[141.83643,-36.67675],[141.83659,-36.67686]]}},{"type":"Feature","properties":{"name":"Meyers Ln","surface":"formed","hierarchy":"Minor","length_m":2240},"geometry":{"type":"LineString","coordinates":[[141.93224,-36.6776],[141.95728,-36.67762]]}},{"type":"Feature","properties":{"name":"Lights Ln","surface":"formed","hierarchy":"Minor","length_m":2720},"geometry":{"type":"LineString","coordinates":[[141.99165,-36.67324],[141.99165,-36.68922],[141.99172,-36.68949],[141.99165,-36.68977],[141.99166,-36.69767]]}},{"type":"Feature","properties":{"name":"West Langes Rd","surface":"formed","hierarchy":"Minor","length_m":1660},"geometry":{"type":"LineString","coordinates":[[141.88075,-36.73237],[141.89928,-36.73211]]}},{"type":"Feature","properties":{"name":"Chapmans Rd","surface":"formed","hierarchy":"Minor","length_m":5410},"geometry":{"type":"LineString","coordinates":[[142.22343,-36.6243],[142.24137,-36.62425],[142.25133,-36.62412],[142.26525,-36.62413]]}},{"type":"Feature","properties":{"name":"Keatings Rd","surface":"formed","hierarchy":"Minor","length_m":290},"geometry":{"type":"LineString","coordinates":[[142.13515,-36.69455],[142.13517,-36.69716]]}},{"type":"Feature","properties":{"name":"Sampsons Rd","surface":"formed","hierarchy":"Minor","length_m":720},"geometry":{"type":"LineString","coordinates":[[142.01897,-36.6214],[142.01899,-36.62488]]}},{"type":"Feature","properties":{"name":"Werners Ln","surface":"formed","hierarchy":"Minor","length_m":3755},"geometry":{"type":"MultiLineString","coordinates":[[[141.90319,-36.77725],[141.90468,-36.77613],[141.90491,-36.77605],[141.92425,-36.77607]],[[141.92705,-36.77607],[141.93431,-36.77608]]]}},{"type":"Feature","properties":{"name":"Crafters Rd","surface":"formed","hierarchy":"Minor","length_m":963},"geometry":{"type":"LineString","coordinates":[[142.35501,-36.4491],[142.35499,-36.45781]]}},{"type":"Feature","properties":{"name":"Thomas Rd","surface":"formed","hierarchy":"Minor","length_m":2230},"geometry":{"type":"MultiLineString","coordinates":[[[142.19297,-36.45003],[142.19298,-36.4507]],[[142.19298,-36.4507],[142.19299,-36.45416]],[[142.19299,-36.45416],[142.19299,-36.45578],[142.1931,-36.45656],[142.19322,-36.47009]]]}},{"type":"Feature","properties":{"name":"Dahlen Quarry Rd","surface":"formed","hierarchy":"Minor","length_m":2610},"geometry":{"type":"MultiLineString","coordinates":[[[142.11027,-36.63911],[142.1203,-36.63908]],[[142.1203,-36.63908],[142.13937,-36.63902]]]}},{"type":"Feature","properties":{"name":"Greenaways Rd","surface":"formed","hierarchy":"Minor","length_m":2490},"geometry":{"type":"LineString","coordinates":[[142.24379,-36.47001],[142.24387,-36.49254]]}},{"type":"Feature","properties":{"name":"Lignum Ln","surface":"formed","hierarchy":"Minor","length_m":1880},"geometry":{"type":"LineString","coordinates":[[142.09482,-36.5605],[142.09488,-36.5766]]}},{"type":"Feature","properties":{"name":"Mills Rd","surface":"formed","hierarchy":"Minor","length_m":150},"geometry":{"type":"LineString","coordinates":[[142.36738,-36.70498],[142.36739,-36.70806]]}},{"type":"Feature","properties":{"name":"Coffeys Rd","surface":"formed","hierarchy":"Minor","length_m":2325},"geometry":{"type":"LineString","coordinates":[[142.33472,-36.48389],[142.35926,-36.48386],[142.3607,-36.48396]]}},{"type":"Feature","properties":{"name":"Black Swamp Rd","surface":"formed","hierarchy":"Minor","length_m":5130},"geometry":{"type":"LineString","coordinates":[[141.86075,-36.69467],[141.89252,-36.69786],[141.89251,-36.69866],[141.89361,-36.69915],[141.89928,-36.6992],[141.90168,-36.69913],[141.90244,-36.69918],[141.9033,-36.69908],[141.90469,-36.69917],[141.91179,-36.69908],[141.91275,-36.69918],[141.9163,-36.69916]]}},{"type":"Feature","properties":{"name":"Nattrass Rd","surface":"formed","hierarchy":"Minor","length_m":1620},"geometry":{"type":"LineString","coordinates":[[142.08073,-36.64594],[142.08077,-36.66049]]}},{"type":"Feature","properties":{"name":"Wail East Rd","surface":"formed","hierarchy":"Minor","length_m":14705},"geometry":{"type":"MultiLineString","coordinates":[[[142.11973,-36.49272],[142.15362,-36.49259]],[[142.16833,-36.49259],[142.16862,-36.49253],[142.22066,-36.49256]]]}},{"type":"Feature","properties":{"name":"G Webbs Rd","surface":"formed","hierarchy":"Minor","length_m":2140},"geometry":{"type":"LineString","coordinates":[[141.78133,-36.70463],[141.80498,-36.707]]}},{"type":"Feature","properties":{"name":"Motts Rd","surface":"formed","hierarchy":"Minor","length_m":1430},"geometry":{"type":"LineString","coordinates":[[142.07688,-36.85855],[142.07471,-36.87253]]}},{"type":"Feature","properties":{"name":"Fergusons Sandhill Rd","surface":"formed","hierarchy":"Minor","length_m":6180},"geometry":{"type":"MultiLineString","coordinates":[[[141.89485,-36.81133],[141.89492,-36.8115],[141.89286,-36.82492]],[[141.90688,-36.78936],[141.90667,-36.78941]],[[141.90667,-36.78941],[141.89867,-36.7894],[141.8984,-36.78948],[141.89831,-36.78964],[141.89813,-36.79078]],[[141.89813,-36.79078],[141.89664,-36.80061]],[[141.89664,-36.80061],[141.89577,-36.80664]]]}},{"type":"Feature","properties":{"name":"Cozens Rd","surface":"formed","hierarchy":"Minor","length_m":1180},"geometry":{"type":"LineString","coordinates":[[142.06578,-36.93117],[142.06424,-36.9412],[142.06403,-36.94164]]}},{"type":"Feature","properties":{"name":"Kingcourt Swamp Rd","surface":"formed","hierarchy":"Minor","length_m":4380},"geometry":{"type":"MultiLineString","coordinates":[[[142.18741,-36.91123],[142.19613,-36.91862],[142.19747,-36.91992],[142.19761,-36.92025],[142.19759,-36.92259]],[[142.19759,-36.92259],[142.19757,-36.92563]],[[142.19757,-36.92563],[142.19748,-36.94164]]]}},{"type":"Feature","properties":{"name":"Hammonds Rd","surface":"formed","hierarchy":"Minor","length_m":870},"geometry":{"type":"MultiLineString","coordinates":[[[141.91834,-36.80267],[141.91826,-36.80321],[141.9181,-36.80361],[141.91812,-36.80402]],[[141.91803,-36.80467],[141.91762,-36.807],[141.91762,-36.80746],[141.91725,-36.80895],[141.91714,-36.80966],[141.91715,-36.81031]]]}},{"type":"Feature","properties":{"name":"Hammonds Woolshed Rd","surface":"formed","hierarchy":"Minor","length_m":2700},"geometry":{"type":"MultiLineString","coordinates":[[[142.2017,-36.94165],[142.21728,-36.9417]],[[142.21728,-36.9417],[142.2269,-36.94174]]]}},{"type":"Feature","properties":{"name":"Jacka Jacka Rd","surface":"formed","hierarchy":"Minor","length_m":3750},"geometry":{"type":"LineString","coordinates":[[141.80449,-36.80393],[141.80481,-36.80408],[141.80534,-36.80492],[141.80587,-36.80552],[141.80948,-36.80872],[141.81047,-36.80915],[141.81162,-36.80933],[141.8128,-36.80915],[141.81319,-36.80921],[141.81428,-36.80971],[141.81483,-36.81003],[141.81791,-36.81225],[141.81903,-36.81283],[141.82098,-36.81423],[141.82233,-36.8151],[141.8232,-36.81557],[141.82522,-36.81706],[141.82831,-36.81917],[141.82883,-36.81962],[141.8293,-36.82017],[141.83082,-36.82218],[141.83384,-36.82568]]}},{"type":"Feature","properties":{"name":"Jenzs Ln","surface":"formed","hierarchy":"Minor","length_m":3800},"geometry":{"type":"LineString","coordinates":[[141.9135,-36.94656],[141.91358,-36.94686],[141.91298,-36.95077],[141.91283,-36.95118],[141.91248,-36.95403],[141.90845,-36.98029]]}},{"type":"Feature","properties":{"name":"Connangorach Rd","surface":"formed","hierarchy":"Minor","length_m":400},"geometry":{"type":"LineString","coordinates":[[142.02748,-36.96743],[142.02692,-36.97099]]}},{"type":"Feature","properties":{"name":"Jeffries Rd","surface":"formed","hierarchy":"Minor","length_m":790},"geometry":{"type":"LineString","coordinates":[[141.91266,-37.06835],[141.9204,-37.06912]]}},{"type":"Feature","properties":{"name":"H H Scotts Rd","surface":"formed","hierarchy":"Minor","length_m":2000},"geometry":{"type":"MultiLineString","coordinates":[[[141.87684,-36.82099],[141.87718,-36.8219],[141.87773,-36.82285],[141.8778,-36.82314],[141.87819,-36.82386],[141.87822,-36.82425],[141.87682,-36.83343]],[[141.87682,-36.83343],[141.87607,-36.83832],[141.87606,-36.83861],[141.87623,-36.83882]]]}},{"type":"Feature","properties":{"name":"Bothes Rd","surface":"formed","hierarchy":"Minor","length_m":3370},"geometry":{"type":"LineString","coordinates":[[142.12143,-36.80984],[142.11899,-36.82609],[142.11856,-36.82831],[142.11849,-36.82923],[142.11855,-36.82959],[142.11904,-36.83091],[142.11917,-36.83151],[142.11883,-36.83394],[142.11792,-36.83904],[142.11791,-36.83957],[142.11799,-36.8398]]}},{"type":"Feature","properties":{"name":"Dip Swamp Rd","surface":"formed","hierarchy":"Minor","length_m":700},"geometry":{"type":"LineString","coordinates":[[142.10409,-36.96554],[142.10371,-36.96566],[142.10271,-36.97199]]}},{"type":"Feature","properties":{"name":"Mc Raes Rd","surface":"formed","hierarchy":"Minor","length_m":1320},"geometry":{"type":"LineString","coordinates":[[141.86964,-36.89658],[141.88439,-36.89806]]}},{"type":"Feature","properties":{"name":"Mackins Rd","surface":"formed","hierarchy":"Minor","length_m":1380},"geometry":{"type":"LineString","coordinates":[[142.1606,-36.87788],[142.16032,-36.89032]]}},{"type":"Feature","properties":{"name":"Holmes Rd","surface":"formed","hierarchy":"Minor","length_m":1100},"geometry":{"type":"LineString","coordinates":[[142.00671,-36.99862],[142.00621,-37.00195],[142.01128,-37.00251],[142.0114,-37.00257],[142.01144,-37.00271],[142.01119,-37.00414]]}},{"type":"Feature","properties":{"name":"Mc Genniskens Rd","surface":"formed","hierarchy":"Minor","length_m":410},"geometry":{"type":"LineString","coordinates":[[142.14501,-36.85898],[142.14603,-36.86238],[142.14617,-36.86254]]}},{"type":"Feature","properties":{"name":"Renfreys Ln","surface":"formed","hierarchy":"Minor","length_m":1800},"geometry":{"type":"LineString","coordinates":[[141.77806,-36.8485],[141.77835,-36.84873],[141.77837,-36.84887],[141.77599,-36.86434],[141.77598,-36.86482]]}},{"type":"Feature","properties":{"name":"Ti Tree Ln","surface":"formed","hierarchy":"Minor","length_m":2620},"geometry":{"type":"LineString","coordinates":[[141.81969,-36.84731],[141.82088,-36.84783],[141.82152,-36.84791],[141.82217,-36.84789],[141.82557,-36.84845],[141.82665,-36.84848],[141.82836,-36.84832],[141.82947,-36.84857],[141.8303,-36.84839],[141.83105,-36.84856],[141.83218,-36.84905],[141.84845,-36.85072]]}},{"type":"Feature","properties":{"name":"Elliotts Rd","surface":"formed","hierarchy":"Minor","length_m":460},"geometry":{"type":"LineString","coordinates":[[141.79716,-37.11612],[141.799,-37.11622],[141.80001,-37.11608],[141.80213,-37.1153]]}},{"type":"Feature","properties":{"name":"Rich Millers Rd","surface":"formed","hierarchy":"Minor","length_m":750},"geometry":{"type":"LineString","coordinates":[[141.87959,-37.0428],[141.87758,-37.0434],[141.87602,-37.04364],[141.87403,-37.04423],[141.87281,-37.04444],[141.87247,-37.04455],[141.87196,-37.04486],[141.87159,-37.04494]]}},{"type":"Feature","properties":{"name":"Overall Ave","surface":"formed","hierarchy":"Minor","length_m":510},"geometry":{"type":"LineString","coordinates":[[142.01316,-36.74253],[142.01887,-36.74252]]}},{"type":"Feature","properties":{"name":"Ivess Rd","surface":"formed","hierarchy":"Minor","length_m":1500},"geometry":{"type":"LineString","coordinates":[[142.08943,-36.59636],[142.08945,-36.60998]]}},{"type":"Feature","properties":{"name":"Munro Rd","surface":"formed","hierarchy":"Minor","length_m":960},"geometry":{"type":"LineString","coordinates":[[142.01409,-36.57593],[142.01419,-36.57647],[142.01416,-36.58463]]}}]}